ISO2;country_name;longitude;latitude;fraction
DE;Germany;5.85;50.95;0.00
DE;Germany;5.85;51.05;0.07
DE;Germany;5.95;50.75;0.05
DE;Germany;5.95;50.85;0.03
DE;Germany;5.95;50.95;0.12
DE;Germany;5.95;51.05;0.50
DE;Germany;5.95;51.75;0.08
DE;Germany;5.95;51.85;0.08
DE;Germany;6.05;50.05;0.00
DE;Germany;6.05;50.75;0.71
DE;Germany;6.05;50.85;0.49
DE;Germany;6.05;50.95;0.70
DE;Germany;6.05;51.05;0.97
DE;Germany;6.05;51.15;0.14
DE;Germany;6.05;51.25;0.10
DE;Germany;6.05;51.65;0.21
DE;Germany;6.05;51.75;0.87
DE;Germany;6.05;51.85;0.47
DE;Germany;6.15;49.95;0.19
DE;Germany;6.15;50.05;0.82
DE;Germany;6.15;50.15;0.53
DE;Germany;6.15;50.25;0.10
DE;Germany;6.15;50.55;0.09
DE;Germany;6.15;50.65;0.31
DE;Germany;6.15;50.75;0.97
DE;Germany;6.15;50.85;1.00
DE;Germany;6.15;50.95;1.00
DE;Germany;6.15;51.05;1.00
DE;Germany;6.15;51.15;0.74
DE;Germany;6.15;51.25;0.90
DE;Germany;6.15;51.35;0.14
DE;Germany;6.15;51.55;0.32
DE;Germany;6.15;51.65;0.95
DE;Germany;6.15;51.75;1.00
DE;Germany;6.15;51.85;0.75
DE;Germany;6.15;51.95;0.01
DE;Germany;6.25;49.85;0.15
DE;Germany;6.25;49.95;0.85
DE;Germany;6.25;50.05;1.00
DE;Germany;6.25;50.15;1.00
DE;Germany;6.25;50.25;0.69
DE;Germany;6.25;50.35;0.01
DE;Germany;6.25;50.45;0.01
DE;Germany;6.25;50.55;0.88
DE;Germany;6.25;50.65;0.82
DE;Germany;6.25;50.75;1.00
DE;Germany;6.25;50.85;1.00
DE;Germany;6.25;50.95;1.00
DE;Germany;6.25;51.05;1.00
DE;Germany;6.25;51.15;1.00
DE;Germany;6.25;51.25;1.00
DE;Germany;6.25;51.35;0.87
DE;Germany;6.25;51.45;0.77
DE;Germany;6.25;51.55;0.96
DE;Germany;6.25;51.65;1.00
DE;Germany;6.25;51.75;1.00
DE;Germany;6.25;51.85;0.72
DE;Germany;6.35;49.45;0.12
DE;Germany;6.35;49.55;0.28
DE;Germany;6.35;49.65;0.00
DE;Germany;6.35;49.85;0.54
DE;Germany;6.35;49.95;1.00
DE;Germany;6.35;50.05;1.00
DE;Germany;6.35;50.15;1.00
DE;Germany;6.35;50.25;1.00
DE;Germany;6.35;50.35;0.43
DE;Germany;6.35;50.45;0.47
DE;Germany;6.35;50.55;1.00
DE;Germany;6.35;50.65;1.00
DE;Germany;6.35;50.75;1.00
DE;Germany;6.35;50.85;1.00
DE;Germany;6.35;50.95;1.00
DE;Germany;6.35;51.05;1.00
DE;Germany;6.35;51.15;1.00
DE;Germany;6.35;51.25;1.00
DE;Germany;6.35;51.35;1.00
DE;Germany;6.35;51.45;1.00
DE;Germany;6.35;51.55;1.00
DE;Germany;6.35;51.65;1.00
DE;Germany;6.35;51.75;1.00
DE;Germany;6.35;51.85;0.49
DE;Germany;6.45;49.45;0.36
DE;Germany;6.45;49.55;1.00
DE;Germany;6.45;49.65;0.69
DE;Germany;6.45;49.75;0.01
DE;Germany;6.45;49.85;0.83
DE;Germany;6.45;49.95;1.00
DE;Germany;6.45;50.05;1.00
DE;Germany;6.45;50.15;1.00
DE;Germany;6.45;50.25;1.00
DE;Germany;6.45;50.35;0.99
DE;Germany;6.45;50.45;1.00
DE;Germany;6.45;50.55;1.00
DE;Germany;6.45;50.65;1.00
DE;Germany;6.45;50.75;1.00
DE;Germany;6.45;50.85;1.00
DE;Germany;6.45;50.95;1.00
DE;Germany;6.45;51.05;1.00
DE;Germany;6.45;51.15;1.00
DE;Germany;6.45;51.25;1.00
DE;Germany;6.45;51.35;1.00
DE;Germany;6.45;51.45;1.00
DE;Germany;6.45;51.55;1.00
DE;Germany;6.45;51.65;1.00
DE;Germany;6.45;51.75;1.00
DE;Germany;6.45;51.85;0.62
DE;Germany;6.55;49.35;0.17
DE;Germany;6.55;49.45;0.83
DE;Germany;6.55;49.55;1.00
DE;Germany;6.55;49.65;1.00
DE;Germany;6.55;49.75;0.92
DE;Germany;6.55;49.85;0.98
DE;Germany;6.55;49.95;1.00
DE;Germany;6.55;50.05;1.00
DE;Germany;6.55;50.15;1.00
DE;Germany;6.55;50.25;1.00
DE;Germany;6.55;50.35;1.00
DE;Germany;6.55;50.45;1.00
DE;Germany;6.55;50.55;1.00
DE;Germany;6.55;50.65;1.00
DE;Germany;6.55;50.75;1.00
DE;Germany;6.55;50.85;1.00
DE;Germany;6.55;50.95;1.00
DE;Germany;6.55;51.05;1.00
DE;Germany;6.55;51.15;1.00
DE;Germany;6.55;51.25;1.00
DE;Germany;6.55;51.35;1.00
DE;Germany;6.55;51.45;1.00
DE;Germany;6.55;51.55;1.00
DE;Germany;6.55;51.65;1.00
DE;Germany;6.55;51.75;1.00
DE;Germany;6.55;51.85;0.79
DE;Germany;6.65;49.25;0.25
DE;Germany;6.65;49.35;0.98
DE;Germany;6.65;49.45;1.00
DE;Germany;6.65;49.55;1.00
DE;Germany;6.65;49.65;1.00
DE;Germany;6.65;49.75;1.00
DE;Germany;6.65;49.85;1.00
DE;Germany;6.65;49.95;1.00
DE;Germany;6.65;50.05;1.00
DE;Germany;6.65;50.15;1.00
DE;Germany;6.65;50.25;1.00
DE;Germany;6.65;50.35;1.00
DE;Germany;6.65;50.45;1.00
DE;Germany;6.65;50.55;1.00
DE;Germany;6.65;50.65;1.00
DE;Germany;6.65;50.75;1.00
DE;Germany;6.65;50.85;1.00
DE;Germany;6.65;50.95;1.00
DE;Germany;6.65;51.05;1.00
DE;Germany;6.65;51.15;1.00
DE;Germany;6.65;51.25;1.00
DE;Germany;6.65;51.35;1.00
DE;Germany;6.65;51.45;1.00
DE;Germany;6.65;51.55;1.00
DE;Germany;6.65;51.65;1.00
DE;Germany;6.65;51.75;1.00
DE;Germany;6.65;51.85;1.00
DE;Germany;6.65;51.95;0.08
DE;Germany;6.65;52.05;0.01
DE;Germany;6.65;52.55;0.01
DE;Germany;6.65;53.55;0.12
DE;Germany;6.65;53.65;0.05
DE;Germany;6.75;49.15;0.27
DE;Germany;6.75;49.25;0.95
DE;Germany;6.75;49.35;1.00
DE;Germany;6.75;49.45;1.00
DE;Germany;6.75;49.55;1.00
DE;Germany;6.75;49.65;1.00
DE;Germany;6.75;49.75;1.00
DE;Germany;6.75;49.85;1.00
DE;Germany;6.75;49.95;1.00
DE;Germany;6.75;50.05;1.00
DE;Germany;6.75;50.15;1.00
DE;Germany;6.75;50.25;1.00
DE;Germany;6.75;50.35;1.00
DE;Germany;6.75;50.45;1.00
DE;Germany;6.75;50.55;1.00
DE;Germany;6.75;50.65;1.00
DE;Germany;6.75;50.75;1.00
DE;Germany;6.75;50.85;1.00
DE;Germany;6.75;50.95;1.00
DE;Germany;6.75;51.05;1.00
DE;Germany;6.75;51.15;1.00
DE;Germany;6.75;51.25;1.00
DE;Germany;6.75;51.35;1.00
DE;Germany;6.75;51.45;1.00
DE;Germany;6.75;51.55;1.00
DE;Germany;6.75;51.65;1.00
DE;Germany;6.75;51.75;1.00
DE;Germany;6.75;51.85;1.00
DE;Germany;6.75;51.95;0.11
DE;Germany;6.75;52.05;0.56
DE;Germany;6.75;52.15;0.07
DE;Germany;6.75;52.45;0.26
DE;Germany;6.75;52.55;0.80
DE;Germany;6.75;52.65;0.35
DE;Germany;6.75;53.55;0.17
DE;Germany;6.75;53.65;0.13
DE;Germany;6.85;49.15;0.22
DE;Germany;6.85;49.25;0.91
DE;Germany;6.85;49.35;1.00
DE;Germany;6.85;49.45;1.00
DE;Germany;6.85;49.55;1.00
DE;Germany;6.85;49.65;1.00
DE;Germany;6.85;49.75;1.00
DE;Germany;6.85;49.85;1.00
DE;Germany;6.85;49.95;1.00
DE;Germany;6.85;50.05;1.00
DE;Germany;6.85;50.15;1.00
DE;Germany;6.85;50.25;1.00
DE;Germany;6.85;50.35;1.00
DE;Germany;6.85;50.45;1.00
DE;Germany;6.85;50.55;1.00
DE;Germany;6.85;50.65;1.00
DE;Germany;6.85;50.75;1.00
DE;Germany;6.85;50.85;1.00
DE;Germany;6.85;50.95;1.00
DE;Germany;6.85;51.05;1.00
DE;Germany;6.85;51.15;1.00
DE;Germany;6.85;51.25;1.00
DE;Germany;6.85;51.35;1.00
DE;Germany;6.85;51.45;1.00
DE;Germany;6.85;51.55;1.00
DE;Germany;6.85;51.65;1.00
DE;Germany;6.85;51.75;1.00
DE;Germany;6.85;51.85;1.00
DE;Germany;6.85;51.95;0.85
DE;Germany;6.85;52.05;0.99
DE;Germany;6.85;52.15;0.28
DE;Germany;6.85;52.45;0.42
DE;Germany;6.85;52.55;1.00
DE;Germany;6.85;52.65;0.55
DE;Germany;6.85;53.55;0.00
DE;Germany;6.85;53.65;0.15
DE;Germany;6.95;49.15;0.00
DE;Germany;6.95;49.25;0.89
DE;Germany;6.95;49.35;1.00
DE;Germany;6.95;49.45;1.00
DE;Germany;6.95;49.55;1.00
DE;Germany;6.95;49.65;1.00
DE;Germany;6.95;49.75;1.00
DE;Germany;6.95;49.85;1.00
DE;Germany;6.95;49.95;1.00
DE;Germany;6.95;50.05;1.00
DE;Germany;6.95;50.15;1.00
DE;Germany;6.95;50.25;1.00
DE;Germany;6.95;50.35;1.00
DE;Germany;6.95;50.45;1.00
DE;Germany;6.95;50.55;1.00
DE;Germany;6.95;50.65;1.00
DE;Germany;6.95;50.75;1.00
DE;Germany;6.95;50.85;1.00
DE;Germany;6.95;50.95;1.00
DE;Germany;6.95;51.05;1.00
DE;Germany;6.95;51.15;1.00
DE;Germany;6.95;51.25;1.00
DE;Germany;6.95;51.35;1.00
DE;Germany;6.95;51.45;1.00
DE;Germany;6.95;51.55;1.00
DE;Germany;6.95;51.65;1.00
DE;Germany;6.95;51.75;1.00
DE;Germany;6.95;51.85;1.00
DE;Germany;6.95;51.95;1.00
DE;Germany;6.95;52.05;1.00
DE;Germany;6.95;52.15;0.85
DE;Germany;6.95;52.25;0.05
DE;Germany;6.95;52.45;0.50
DE;Germany;6.95;52.55;1.00
DE;Germany;6.95;52.65;0.47
DE;Germany;6.95;53.35;0.00
DE;Germany;6.95;53.65;0.09
DE;Germany;7.05;49.15;0.49
DE;Germany;7.05;49.25;1.00
DE;Germany;7.05;49.35;1.00
DE;Germany;7.05;49.45;1.00
DE;Germany;7.05;49.55;1.00
DE;Germany;7.05;49.65;1.00
DE;Germany;7.05;49.75;1.00
DE;Germany;7.05;49.85;1.00
DE;Germany;7.05;49.95;1.00
DE;Germany;7.05;50.05;1.00
DE;Germany;7.05;50.15;1.00
DE;Germany;7.05;50.25;1.00
DE;Germany;7.05;50.35;1.00
DE;Germany;7.05;50.45;1.00
DE;Germany;7.05;50.55;1.00
DE;Germany;7.05;50.65;1.00
DE;Germany;7.05;50.75;1.00
DE;Germany;7.05;50.85;1.00
DE;Germany;7.05;50.95;1.00
DE;Germany;7.05;51.05;1.00
DE;Germany;7.05;51.15;1.00
DE;Germany;7.05;51.25;1.00
DE;Germany;7.05;51.35;1.00
DE;Germany;7.05;51.45;1.00
DE;Germany;7.05;51.55;1.00
DE;Germany;7.05;51.65;1.00
DE;Germany;7.05;51.75;1.00
DE;Germany;7.05;51.85;1.00
DE;Germany;7.05;51.95;1.00
DE;Germany;7.05;52.05;1.00
DE;Germany;7.05;52.15;1.00
DE;Germany;7.05;52.25;0.68
DE;Germany;7.05;52.35;0.34
DE;Germany;7.05;52.45;0.83
DE;Germany;7.05;52.55;1.00
DE;Germany;7.05;52.65;0.59
DE;Germany;7.05;52.75;0.23
DE;Germany;7.05;52.85;0.06
DE;Germany;7.05;53.35;0.59
DE;Germany;7.05;53.45;0.80
DE;Germany;7.05;53.55;0.18
DE;Germany;7.05;53.65;0.05
DE;Germany;7.15;49.15;0.69
DE;Germany;7.15;49.25;1.00
DE;Germany;7.15;49.35;1.00
DE;Germany;7.15;49.45;1.00
DE;Germany;7.15;49.55;1.00
DE;Germany;7.15;49.65;1.00
DE;Germany;7.15;49.75;1.00
DE;Germany;7.15;49.85;1.00
DE;Germany;7.15;49.95;1.00
DE;Germany;7.15;50.05;1.00
DE;Germany;7.15;50.15;1.00
DE;Germany;7.15;50.25;1.00
DE;Germany;7.15;50.35;1.00
DE;Germany;7.15;50.45;1.00
DE;Germany;7.15;50.55;1.00
DE;Germany;7.15;50.65;1.00
DE;Germany;7.15;50.75;1.00
DE;Germany;7.15;50.85;1.00
DE;Germany;7.15;50.95;1.00
DE;Germany;7.15;51.05;1.00
DE;Germany;7.15;51.15;1.00
DE;Germany;7.15;51.25;1.00
DE;Germany;7.15;51.35;1.00
DE;Germany;7.15;51.45;1.00
DE;Germany;7.15;51.55;1.00
DE;Germany;7.15;51.65;1.00
DE;Germany;7.15;51.75;1.00
DE;Germany;7.15;51.85;1.00
DE;Germany;7.15;51.95;1.00
DE;Germany;7.15;52.05;1.00
DE;Germany;7.15;52.15;1.00
DE;Germany;7.15;52.25;1.00
DE;Germany;7.15;52.35;1.00
DE;Germany;7.15;52.45;1.00
DE;Germany;7.15;52.55;1.00
DE;Germany;7.15;52.65;1.00
DE;Germany;7.15;52.75;1.00
DE;Germany;7.15;52.85;0.83
DE;Germany;7.15;52.95;0.04
DE;Germany;7.15;53.35;0.65
DE;Germany;7.15;53.45;1.00
DE;Germany;7.15;53.55;0.91
DE;Germany;7.15;53.65;0.19
DE;Germany;7.15;53.75;0.10
DE;Germany;7.25;49.15;0.76
DE;Germany;7.25;49.25;1.00
DE;Germany;7.25;49.35;1.00
DE;Germany;7.25;49.45;1.00
DE;Germany;7.25;49.55;1.00
DE;Germany;7.25;49.65;1.00
DE;Germany;7.25;49.75;1.00
DE;Germany;7.25;49.85;1.00
DE;Germany;7.25;49.95;1.00
DE;Germany;7.25;50.05;1.00
DE;Germany;7.25;50.15;1.00
DE;Germany;7.25;50.25;1.00
DE;Germany;7.25;50.35;1.00
DE;Germany;7.25;50.45;1.00
DE;Germany;7.25;50.55;1.00
DE;Germany;7.25;50.65;1.00
DE;Germany;7.25;50.75;1.00
DE;Germany;7.25;50.85;1.00
DE;Germany;7.25;50.95;1.00
DE;Germany;7.25;51.05;1.00
DE;Germany;7.25;51.15;1.00
DE;Germany;7.25;51.25;1.00
DE;Germany;7.25;51.35;1.00
DE;Germany;7.25;51.45;1.00
DE;Germany;7.25;51.55;1.00
DE;Germany;7.25;51.65;1.00
DE;Germany;7.25;51.75;1.00
DE;Germany;7.25;51.85;1.00
DE;Germany;7.25;51.95;1.00
DE;Germany;7.25;52.05;1.00
DE;Germany;7.25;52.15;1.00
DE;Germany;7.25;52.25;1.00
DE;Germany;7.25;52.35;1.00
DE;Germany;7.25;52.45;1.00
DE;Germany;7.25;52.55;1.00
DE;Germany;7.25;52.65;1.00
DE;Germany;7.25;52.75;1.00
DE;Germany;7.25;52.85;1.00
DE;Germany;7.25;52.95;0.76
DE;Germany;7.25;53.05;0.47
DE;Germany;7.25;53.15;0.43
DE;Germany;7.25;53.25;0.57
DE;Germany;7.25;53.35;0.86
DE;Germany;7.25;53.45;1.00
DE;Germany;7.25;53.55;1.00
DE;Germany;7.25;53.65;0.67
DE;Germany;7.25;53.75;0.15
DE;Germany;7.35;49.15;0.47
DE;Germany;7.35;49.25;1.00
DE;Germany;7.35;49.35;1.00
DE;Germany;7.35;49.45;1.00
DE;Germany;7.35;49.55;1.00
DE;Germany;7.35;49.65;1.00
DE;Germany;7.35;49.75;1.00
DE;Germany;7.35;49.85;1.00
DE;Germany;7.35;49.95;1.00
DE;Germany;7.35;50.05;1.00
DE;Germany;7.35;50.15;1.00
DE;Germany;7.35;50.25;1.00
DE;Germany;7.35;50.35;1.00
DE;Germany;7.35;50.45;1.00
DE;Germany;7.35;50.55;1.00
DE;Germany;7.35;50.65;1.00
DE;Germany;7.35;50.75;1.00
DE;Germany;7.35;50.85;1.00
DE;Germany;7.35;50.95;1.00
DE;Germany;7.35;51.05;1.00
DE;Germany;7.35;51.15;1.00
DE;Germany;7.35;51.25;1.00
DE;Germany;7.35;51.35;1.00
DE;Germany;7.35;51.45;1.00
DE;Germany;7.35;51.55;1.00
DE;Germany;7.35;51.65;1.00
DE;Germany;7.35;51.75;1.00
DE;Germany;7.35;51.85;1.00
DE;Germany;7.35;51.95;1.00
DE;Germany;7.35;52.05;1.00
DE;Germany;7.35;52.15;1.00
DE;Germany;7.35;52.25;1.00
DE;Germany;7.35;52.35;1.00
DE;Germany;7.35;52.45;1.00
DE;Germany;7.35;52.55;1.00
DE;Germany;7.35;52.65;1.00
DE;Germany;7.35;52.75;1.00
DE;Germany;7.35;52.85;1.00
DE;Germany;7.35;52.95;1.00
DE;Germany;7.35;53.05;1.00
DE;Germany;7.35;53.15;1.00
DE;Germany;7.35;53.25;1.00
DE;Germany;7.35;53.35;1.00
DE;Germany;7.35;53.45;1.00
DE;Germany;7.35;53.55;1.00
DE;Germany;7.35;53.65;0.84
DE;Germany;7.35;53.75;0.08
DE;Germany;7.45;49.15;0.28
DE;Germany;7.45;49.25;1.00
DE;Germany;7.45;49.35;1.00
DE;Germany;7.45;49.45;1.00
DE;Germany;7.45;49.55;1.00
DE;Germany;7.45;49.65;1.00
DE;Germany;7.45;49.75;1.00
DE;Germany;7.45;49.85;1.00
DE;Germany;7.45;49.95;1.00
DE;Germany;7.45;50.05;1.00
DE;Germany;7.45;50.15;1.00
DE;Germany;7.45;50.25;1.00
DE;Germany;7.45;50.35;1.00
DE;Germany;7.45;50.45;1.00
DE;Germany;7.45;50.55;1.00
DE;Germany;7.45;50.65;1.00
DE;Germany;7.45;50.75;1.00
DE;Germany;7.45;50.85;1.00
DE;Germany;7.45;50.95;1.00
DE;Germany;7.45;51.05;1.00
DE;Germany;7.45;51.15;1.00
DE;Germany;7.45;51.25;1.00
DE;Germany;7.45;51.35;1.00
DE;Germany;7.45;51.45;1.00
DE;Germany;7.45;51.55;1.00
DE;Germany;7.45;51.65;1.00
DE;Germany;7.45;51.75;1.00
DE;Germany;7.45;51.85;1.00
DE;Germany;7.45;51.95;1.00
DE;Germany;7.45;52.05;1.00
DE;Germany;7.45;52.15;1.00
DE;Germany;7.45;52.25;1.00
DE;Germany;7.45;52.35;1.00
DE;Germany;7.45;52.45;1.00
DE;Germany;7.45;52.55;1.00
DE;Germany;7.45;52.65;1.00
DE;Germany;7.45;52.75;1.00
DE;Germany;7.45;52.85;1.00
DE;Germany;7.45;52.95;1.00
DE;Germany;7.45;53.05;1.00
DE;Germany;7.45;53.15;1.00
DE;Germany;7.45;53.25;1.00
DE;Germany;7.45;53.35;1.00
DE;Germany;7.45;53.45;1.00
DE;Germany;7.45;53.55;1.00
DE;Germany;7.45;53.65;0.83
DE;Germany;7.45;53.75;0.12
DE;Germany;7.55;47.55;0.00
DE;Germany;7.55;47.65;0.55
DE;Germany;7.55;47.75;0.64
DE;Germany;7.55;47.85;0.42
DE;Germany;7.55;47.95;0.07
DE;Germany;7.55;48.05;0.23
DE;Germany;7.55;48.15;0.06
DE;Germany;7.55;49.05;0.11
DE;Germany;7.55;49.15;0.95
DE;Germany;7.55;49.25;1.00
DE;Germany;7.55;49.35;1.00
DE;Germany;7.55;49.45;1.00
DE;Germany;7.55;49.55;1.00
DE;Germany;7.55;49.65;1.00
DE;Germany;7.55;49.75;1.00
DE;Germany;7.55;49.85;1.00
DE;Germany;7.55;49.95;1.00
DE;Germany;7.55;50.05;1.00
DE;Germany;7.55;50.15;1.00
DE;Germany;7.55;50.25;1.00
DE;Germany;7.55;50.35;1.00
DE;Germany;7.55;50.45;1.00
DE;Germany;7.55;50.55;1.00
DE;Germany;7.55;50.65;1.00
DE;Germany;7.55;50.75;1.00
DE;Germany;7.55;50.85;1.00
DE;Germany;7.55;50.95;1.00
DE;Germany;7.55;51.05;1.00
DE;Germany;7.55;51.15;1.00
DE;Germany;7.55;51.25;1.00
DE;Germany;7.55;51.35;1.00
DE;Germany;7.55;51.45;1.00
DE;Germany;7.55;51.55;1.00
DE;Germany;7.55;51.65;1.00
DE;Germany;7.55;51.75;1.00
DE;Germany;7.55;51.85;1.00
DE;Germany;7.55;51.95;1.00
DE;Germany;7.55;52.05;1.00
DE;Germany;7.55;52.15;1.00
DE;Germany;7.55;52.25;1.00
DE;Germany;7.55;52.35;1.00
DE;Germany;7.55;52.45;1.00
DE;Germany;7.55;52.55;1.00
DE;Germany;7.55;52.65;1.00
DE;Germany;7.55;52.75;1.00
DE;Germany;7.55;52.85;1.00
DE;Germany;7.55;52.95;1.00
DE;Germany;7.55;53.05;1.00
DE;Germany;7.55;53.15;1.00
DE;Germany;7.55;53.25;1.00
DE;Germany;7.55;53.35;1.00
DE;Germany;7.55;53.45;1.00
DE;Germany;7.55;53.55;1.00
DE;Germany;7.55;53.65;0.76
DE;Germany;7.55;53.75;0.11
DE;Germany;7.65;47.55;0.31
DE;Germany;7.65;47.65;1.00
DE;Germany;7.65;47.75;1.00
DE;Germany;7.65;47.85;1.00
DE;Germany;7.65;47.95;0.93
DE;Germany;7.65;48.05;1.00
DE;Germany;7.65;48.15;0.90
DE;Germany;7.65;48.25;0.25
DE;Germany;7.65;48.35;0.00
DE;Germany;7.65;49.05;0.41
DE;Germany;7.65;49.15;1.00
DE;Germany;7.65;49.25;1.00
DE;Germany;7.65;49.35;1.00
DE;Germany;7.65;49.45;1.00
DE;Germany;7.65;49.55;1.00
DE;Germany;7.65;49.65;1.00
DE;Germany;7.65;49.75;1.00
DE;Germany;7.65;49.85;1.00
DE;Germany;7.65;49.95;1.00
DE;Germany;7.65;50.05;1.00
DE;Germany;7.65;50.15;1.00
DE;Germany;7.65;50.25;1.00
DE;Germany;7.65;50.35;1.00
DE;Germany;7.65;50.45;1.00
DE;Germany;7.65;50.55;1.00
DE;Germany;7.65;50.65;1.00
DE;Germany;7.65;50.75;1.00
DE;Germany;7.65;50.85;1.00
DE;Germany;7.65;50.95;1.00
DE;Germany;7.65;51.05;1.00
DE;Germany;7.65;51.15;1.00
DE;Germany;7.65;51.25;1.00
DE;Germany;7.65;51.35;1.00
DE;Germany;7.65;51.45;1.00
DE;Germany;7.65;51.55;1.00
DE;Germany;7.65;51.65;1.00
DE;Germany;7.65;51.75;1.00
DE;Germany;7.65;51.85;1.00
DE;Germany;7.65;51.95;1.00
DE;Germany;7.65;52.05;1.00
DE;Germany;7.65;52.15;1.00
DE;Germany;7.65;52.25;1.00
DE;Germany;7.65;52.35;1.00
DE;Germany;7.65;52.45;1.00
DE;Germany;7.65;52.55;1.00
DE;Germany;7.65;52.65;1.00
DE;Germany;7.65;52.75;1.00
DE;Germany;7.65;52.85;1.00
DE;Germany;7.65;52.95;1.00
DE;Germany;7.65;53.05;1.00
DE;Germany;7.65;53.15;1.00
DE;Germany;7.65;53.25;1.00
DE;Germany;7.65;53.35;1.00
DE;Germany;7.65;53.45;1.00
DE;Germany;7.65;53.55;1.00
DE;Germany;7.65;53.65;0.93
DE;Germany;7.65;53.75;0.07
DE;Germany;7.75;47.55;0.46
DE;Germany;7.75;47.65;1.00
DE;Germany;7.75;47.75;1.00
DE;Germany;7.75;47.85;1.00
DE;Germany;7.75;47.95;1.00
DE;Germany;7.75;48.05;1.00
DE;Germany;7.75;48.15;1.00
DE;Germany;7.75;48.25;1.00
DE;Germany;7.75;48.35;0.68
DE;Germany;7.75;48.45;0.42
DE;Germany;7.75;48.55;0.00
DE;Germany;7.75;49.05;0.47
DE;Germany;7.75;49.15;1.00
DE;Germany;7.75;49.25;1.00
DE;Germany;7.75;49.35;1.00
DE;Germany;7.75;49.45;1.00
DE;Germany;7.75;49.55;1.00
DE;Germany;7.75;49.65;1.00
DE;Germany;7.75;49.75;1.00
DE;Germany;7.75;49.85;1.00
DE;Germany;7.75;49.95;1.00
DE;Germany;7.75;50.05;1.00
DE;Germany;7.75;50.15;1.00
DE;Germany;7.75;50.25;1.00
DE;Germany;7.75;50.35;1.00
DE;Germany;7.75;50.45;1.00
DE;Germany;7.75;50.55;1.00
DE;Germany;7.75;50.65;1.00
DE;Germany;7.75;50.75;1.00
DE;Germany;7.75;50.85;1.00
DE;Germany;7.75;50.95;1.00
DE;Germany;7.75;51.05;1.00
DE;Germany;7.75;51.15;1.00
DE;Germany;7.75;51.25;1.00
DE;Germany;7.75;51.35;1.00
DE;Germany;7.75;51.45;1.00
DE;Germany;7.75;51.55;1.00
DE;Germany;7.75;51.65;1.00
DE;Germany;7.75;51.75;1.00
DE;Germany;7.75;51.85;1.00
DE;Germany;7.75;51.95;1.00
DE;Germany;7.75;52.05;1.00
DE;Germany;7.75;52.15;1.00
DE;Germany;7.75;52.25;1.00
DE;Germany;7.75;52.35;1.00
DE;Germany;7.75;52.45;1.00
DE;Germany;7.75;52.55;1.00
DE;Germany;7.75;52.65;1.00
DE;Germany;7.75;52.75;1.00
DE;Germany;7.75;52.85;1.00
DE;Germany;7.75;52.95;1.00
DE;Germany;7.75;53.05;1.00
DE;Germany;7.75;53.15;1.00
DE;Germany;7.75;53.25;1.00
DE;Germany;7.75;53.35;1.00
DE;Germany;7.75;53.45;1.00
DE;Germany;7.75;53.55;1.00
DE;Germany;7.75;53.65;1.00
DE;Germany;7.75;53.75;0.16
DE;Germany;7.85;47.55;0.09
DE;Germany;7.85;47.65;1.00
DE;Germany;7.85;47.75;1.00
DE;Germany;7.85;47.85;1.00
DE;Germany;7.85;47.95;1.00
DE;Germany;7.85;48.05;1.00
DE;Germany;7.85;48.15;1.00
DE;Germany;7.85;48.25;1.00
DE;Germany;7.85;48.35;1.00
DE;Germany;7.85;48.45;1.00
DE;Germany;7.85;48.55;0.96
DE;Germany;7.85;48.65;0.38
DE;Germany;7.85;49.05;0.54
DE;Germany;7.85;49.15;1.00
DE;Germany;7.85;49.25;1.00
DE;Germany;7.85;49.35;1.00
DE;Germany;7.85;49.45;1.00
DE;Germany;7.85;49.55;1.00
DE;Germany;7.85;49.65;1.00
DE;Germany;7.85;49.75;1.00
DE;Germany;7.85;49.85;1.00
DE;Germany;7.85;49.95;1.00
DE;Germany;7.85;50.05;1.00
DE;Germany;7.85;50.15;1.00
DE;Germany;7.85;50.25;1.00
DE;Germany;7.85;50.35;1.00
DE;Germany;7.85;50.45;1.00
DE;Germany;7.85;50.55;1.00
DE;Germany;7.85;50.65;1.00
DE;Germany;7.85;50.75;1.00
DE;Germany;7.85;50.85;1.00
DE;Germany;7.85;50.95;1.00
DE;Germany;7.85;51.05;1.00
DE;Germany;7.85;51.15;1.00
DE;Germany;7.85;51.25;1.00
DE;Germany;7.85;51.35;1.00
DE;Germany;7.85;51.45;1.00
DE;Germany;7.85;51.55;1.00
DE;Germany;7.85;51.65;1.00
DE;Germany;7.85;51.75;1.00
DE;Germany;7.85;51.85;1.00
DE;Germany;7.85;51.95;1.00
DE;Germany;7.85;52.05;1.00
DE;Germany;7.85;52.15;1.00
DE;Germany;7.85;52.25;1.00
DE;Germany;7.85;52.35;1.00
DE;Germany;7.85;52.45;1.00
DE;Germany;7.85;52.55;1.00
DE;Germany;7.85;52.65;1.00
DE;Germany;7.85;52.75;1.00
DE;Germany;7.85;52.85;1.00
DE;Germany;7.85;52.95;1.00
DE;Germany;7.85;53.05;1.00
DE;Germany;7.85;53.15;1.00
DE;Germany;7.85;53.25;1.00
DE;Germany;7.85;53.35;1.00
DE;Germany;7.85;53.45;1.00
DE;Germany;7.85;53.55;1.00
DE;Germany;7.85;53.65;1.00
DE;Germany;7.85;53.75;0.18
DE;Germany;7.85;54.15;0.02
DE;Germany;7.95;47.55;0.40
DE;Germany;7.95;47.65;1.00
DE;Germany;7.95;47.75;1.00
DE;Germany;7.95;47.85;1.00
DE;Germany;7.95;47.95;1.00
DE;Germany;7.95;48.05;1.00
DE;Germany;7.95;48.15;1.00
DE;Germany;7.95;48.25;1.00
DE;Germany;7.95;48.35;1.00
DE;Germany;7.95;48.45;1.00
DE;Germany;7.95;48.55;1.00
DE;Germany;7.95;48.65;0.95
DE;Germany;7.95;48.75;0.23
DE;Germany;7.95;49.05;0.58
DE;Germany;7.95;49.15;1.00
DE;Germany;7.95;49.25;1.00
DE;Germany;7.95;49.35;1.00
DE;Germany;7.95;49.45;1.00
DE;Germany;7.95;49.55;1.00
DE;Germany;7.95;49.65;1.00
DE;Germany;7.95;49.75;1.00
DE;Germany;7.95;49.85;1.00
DE;Germany;7.95;49.95;1.00
DE;Germany;7.95;50.05;1.00
DE;Germany;7.95;50.15;1.00
DE;Germany;7.95;50.25;1.00
DE;Germany;7.95;50.35;1.00
DE;Germany;7.95;50.45;1.00
DE;Germany;7.95;50.55;1.00
DE;Germany;7.95;50.65;1.00
DE;Germany;7.95;50.75;1.00
DE;Germany;7.95;50.85;1.00
DE;Germany;7.95;50.95;1.00
DE;Germany;7.95;51.05;1.00
DE;Germany;7.95;51.15;1.00
DE;Germany;7.95;51.25;1.00
DE;Germany;7.95;51.35;1.00
DE;Germany;7.95;51.45;1.00
DE;Germany;7.95;51.55;1.00
DE;Germany;7.95;51.65;1.00
DE;Germany;7.95;51.75;1.00
DE;Germany;7.95;51.85;1.00
DE;Germany;7.95;51.95;1.00
DE;Germany;7.95;52.05;1.00
DE;Germany;7.95;52.15;1.00
DE;Germany;7.95;52.25;1.00
DE;Germany;7.95;52.35;1.00
DE;Germany;7.95;52.45;1.00
DE;Germany;7.95;52.55;1.00
DE;Germany;7.95;52.65;1.00
DE;Germany;7.95;52.75;1.00
DE;Germany;7.95;52.85;1.00
DE;Germany;7.95;52.95;1.00
DE;Germany;7.95;53.05;1.00
DE;Germany;7.95;53.15;1.00
DE;Germany;7.95;53.25;1.00
DE;Germany;7.95;53.35;1.00
DE;Germany;7.95;53.45;1.00
DE;Germany;7.95;53.55;1.00
DE;Germany;7.95;53.65;1.00
DE;Germany;7.95;53.75;0.21
DE;Germany;7.95;54.15;0.01
DE;Germany;8.05;47.55;0.37
DE;Germany;8.05;47.65;1.00
DE;Germany;8.05;47.75;1.00
DE;Germany;8.05;47.85;1.00
DE;Germany;8.05;47.95;1.00
DE;Germany;8.05;48.05;1.00
DE;Germany;8.05;48.15;1.00
DE;Germany;8.05;48.25;1.00
DE;Germany;8.05;48.35;1.00
DE;Germany;8.05;48.45;1.00
DE;Germany;8.05;48.55;1.00
DE;Germany;8.05;48.65;1.00
DE;Germany;8.05;48.75;0.85
DE;Germany;8.05;48.85;0.01
DE;Germany;8.05;48.95;0.02
DE;Germany;8.05;49.05;0.89
DE;Germany;8.05;49.15;1.00
DE;Germany;8.05;49.25;1.00
DE;Germany;8.05;49.35;1.00
DE;Germany;8.05;49.45;1.00
DE;Germany;8.05;49.55;1.00
DE;Germany;8.05;49.65;1.00
DE;Germany;8.05;49.75;1.00
DE;Germany;8.05;49.85;1.00
DE;Germany;8.05;49.95;1.00
DE;Germany;8.05;50.05;1.00
DE;Germany;8.05;50.15;1.00
DE;Germany;8.05;50.25;1.00
DE;Germany;8.05;50.35;1.00
DE;Germany;8.05;50.45;1.00
DE;Germany;8.05;50.55;1.00
DE;Germany;8.05;50.65;1.00
DE;Germany;8.05;50.75;1.00
DE;Germany;8.05;50.85;1.00
DE;Germany;8.05;50.95;1.00
DE;Germany;8.05;51.05;1.00
DE;Germany;8.05;51.15;1.00
DE;Germany;8.05;51.25;1.00
DE;Germany;8.05;51.35;1.00
DE;Germany;8.05;51.45;1.00
DE;Germany;8.05;51.55;1.00
DE;Germany;8.05;51.65;1.00
DE;Germany;8.05;51.75;1.00
DE;Germany;8.05;51.85;1.00
DE;Germany;8.05;51.95;1.00
DE;Germany;8.05;52.05;1.00
DE;Germany;8.05;52.15;1.00
DE;Germany;8.05;52.25;1.00
DE;Germany;8.05;52.35;1.00
DE;Germany;8.05;52.45;1.00
DE;Germany;8.05;52.55;1.00
DE;Germany;8.05;52.65;1.00
DE;Germany;8.05;52.75;1.00
DE;Germany;8.05;52.85;1.00
DE;Germany;8.05;52.95;1.00
DE;Germany;8.05;53.05;1.00
DE;Germany;8.05;53.15;1.00
DE;Germany;8.05;53.25;1.00
DE;Germany;8.05;53.35;1.00
DE;Germany;8.05;53.45;0.85
DE;Germany;8.05;53.55;0.99
DE;Germany;8.05;53.65;0.59
DE;Germany;8.05;53.75;0.10
DE;Germany;8.15;47.55;0.05
DE;Germany;8.15;47.65;0.96
DE;Germany;8.15;47.75;1.00
DE;Germany;8.15;47.85;1.00
DE;Germany;8.15;47.95;1.00
DE;Germany;8.15;48.05;1.00
DE;Germany;8.15;48.15;1.00
DE;Germany;8.15;48.25;1.00
DE;Germany;8.15;48.35;1.00
DE;Germany;8.15;48.45;1.00
DE;Germany;8.15;48.55;1.00
DE;Germany;8.15;48.65;1.00
DE;Germany;8.15;48.75;1.00
DE;Germany;8.15;48.85;0.83
DE;Germany;8.15;48.95;0.36
DE;Germany;8.15;49.05;1.00
DE;Germany;8.15;49.15;1.00
DE;Germany;8.15;49.25;1.00
DE;Germany;8.15;49.35;1.00
DE;Germany;8.15;49.45;1.00
DE;Germany;8.15;49.55;1.00
DE;Germany;8.15;49.65;1.00
DE;Germany;8.15;49.75;1.00
DE;Germany;8.15;49.85;1.00
DE;Germany;8.15;49.95;1.00
DE;Germany;8.15;50.05;1.00
DE;Germany;8.15;50.15;1.00
DE;Germany;8.15;50.25;1.00
DE;Germany;8.15;50.35;1.00
DE;Germany;8.15;50.45;1.00
DE;Germany;8.15;50.55;1.00
DE;Germany;8.15;50.65;1.00
DE;Germany;8.15;50.75;1.00
DE;Germany;8.15;50.85;1.00
DE;Germany;8.15;50.95;1.00
DE;Germany;8.15;51.05;1.00
DE;Germany;8.15;51.15;1.00
DE;Germany;8.15;51.25;1.00
DE;Germany;8.15;51.35;1.00
DE;Germany;8.15;51.45;1.00
DE;Germany;8.15;51.55;1.00
DE;Germany;8.15;51.65;1.00
DE;Germany;8.15;51.75;1.00
DE;Germany;8.15;51.85;1.00
DE;Germany;8.15;51.95;1.00
DE;Germany;8.15;52.05;1.00
DE;Germany;8.15;52.15;1.00
DE;Germany;8.15;52.25;1.00
DE;Germany;8.15;52.35;1.00
DE;Germany;8.15;52.45;1.00
DE;Germany;8.15;52.55;1.00
DE;Germany;8.15;52.65;1.00
DE;Germany;8.15;52.75;1.00
DE;Germany;8.15;52.85;1.00
DE;Germany;8.15;52.95;1.00
DE;Germany;8.15;53.05;1.00
DE;Germany;8.15;53.15;1.00
DE;Germany;8.15;53.25;1.00
DE;Germany;8.15;53.35;1.00
DE;Germany;8.15;53.45;0.40
DE;Germany;8.15;53.55;0.47
DE;Germany;8.15;53.65;0.04
DE;Germany;8.15;53.75;0.05
DE;Germany;8.25;47.55;0.00
DE;Germany;8.25;47.65;0.83
DE;Germany;8.25;47.75;1.00
DE;Germany;8.25;47.85;1.00
DE;Germany;8.25;47.95;1.00
DE;Germany;8.25;48.05;1.00
DE;Germany;8.25;48.15;1.00
DE;Germany;8.25;48.25;1.00
DE;Germany;8.25;48.35;1.00
DE;Germany;8.25;48.45;1.00
DE;Germany;8.25;48.55;1.00
DE;Germany;8.25;48.65;1.00
DE;Germany;8.25;48.75;1.00
DE;Germany;8.25;48.85;1.00
DE;Germany;8.25;48.95;0.97
DE;Germany;8.25;49.05;1.00
DE;Germany;8.25;49.15;1.00
DE;Germany;8.25;49.25;1.00
DE;Germany;8.25;49.35;1.00
DE;Germany;8.25;49.45;1.00
DE;Germany;8.25;49.55;1.00
DE;Germany;8.25;49.65;1.00
DE;Germany;8.25;49.75;1.00
DE;Germany;8.25;49.85;1.00
DE;Germany;8.25;49.95;1.00
DE;Germany;8.25;50.05;1.00
DE;Germany;8.25;50.15;1.00
DE;Germany;8.25;50.25;1.00
DE;Germany;8.25;50.35;1.00
DE;Germany;8.25;50.45;1.00
DE;Germany;8.25;50.55;1.00
DE;Germany;8.25;50.65;1.00
DE;Germany;8.25;50.75;1.00
DE;Germany;8.25;50.85;1.00
DE;Germany;8.25;50.95;1.00
DE;Germany;8.25;51.05;1.00
DE;Germany;8.25;51.15;1.00
DE;Germany;8.25;51.25;1.00
DE;Germany;8.25;51.35;1.00
DE;Germany;8.25;51.45;1.00
DE;Germany;8.25;51.55;1.00
DE;Germany;8.25;51.65;1.00
DE;Germany;8.25;51.75;1.00
DE;Germany;8.25;51.85;1.00
DE;Germany;8.25;51.95;1.00
DE;Germany;8.25;52.05;1.00
DE;Germany;8.25;52.15;1.00
DE;Germany;8.25;52.25;1.00
DE;Germany;8.25;52.35;1.00
DE;Germany;8.25;52.45;1.00
DE;Germany;8.25;52.55;1.00
DE;Germany;8.25;52.65;1.00
DE;Germany;8.25;52.75;1.00
DE;Germany;8.25;52.85;1.00
DE;Germany;8.25;52.95;1.00
DE;Germany;8.25;53.05;1.00
DE;Germany;8.25;53.15;1.00
DE;Germany;8.25;53.25;1.00
DE;Germany;8.25;53.35;1.00
DE;Germany;8.25;53.45;0.07
DE;Germany;8.25;53.55;0.47
DE;Germany;8.25;53.65;0.04
DE;Germany;8.25;53.75;0.01
DE;Germany;8.25;54.65;0.01
DE;Germany;8.25;54.75;0.08
DE;Germany;8.25;54.85;0.12
DE;Germany;8.25;54.95;0.00
DE;Germany;8.35;47.55;0.23
DE;Germany;8.35;47.65;1.00
DE;Germany;8.35;47.75;1.00
DE;Germany;8.35;47.85;1.00
DE;Germany;8.35;47.95;1.00
DE;Germany;8.35;48.05;1.00
DE;Germany;8.35;48.15;1.00
DE;Germany;8.35;48.25;1.00
DE;Germany;8.35;48.35;1.00
DE;Germany;8.35;48.45;1.00
DE;Germany;8.35;48.55;1.00
DE;Germany;8.35;48.65;1.00
DE;Germany;8.35;48.75;1.00
DE;Germany;8.35;48.85;1.00
DE;Germany;8.35;48.95;1.00
DE;Germany;8.35;49.05;1.00
DE;Germany;8.35;49.15;1.00
DE;Germany;8.35;49.25;1.00
DE;Germany;8.35;49.35;1.00
DE;Germany;8.35;49.45;1.00
DE;Germany;8.35;49.55;1.00
DE;Germany;8.35;49.65;1.00
DE;Germany;8.35;49.75;1.00
DE;Germany;8.35;49.85;1.00
DE;Germany;8.35;49.95;1.00
DE;Germany;8.35;50.05;1.00
DE;Germany;8.35;50.15;1.00
DE;Germany;8.35;50.25;1.00
DE;Germany;8.35;50.35;1.00
DE;Germany;8.35;50.45;1.00
DE;Germany;8.35;50.55;1.00
DE;Germany;8.35;50.65;1.00
DE;Germany;8.35;50.75;1.00
DE;Germany;8.35;50.85;1.00
DE;Germany;8.35;50.95;1.00
DE;Germany;8.35;51.05;1.00
DE;Germany;8.35;51.15;1.00
DE;Germany;8.35;51.25;1.00
DE;Germany;8.35;51.35;1.00
DE;Germany;8.35;51.45;1.00
DE;Germany;8.35;51.55;1.00
DE;Germany;8.35;51.65;1.00
DE;Germany;8.35;51.75;1.00
DE;Germany;8.35;51.85;1.00
DE;Germany;8.35;51.95;1.00
DE;Germany;8.35;52.05;1.00
DE;Germany;8.35;52.15;1.00
DE;Germany;8.35;52.25;1.00
DE;Germany;8.35;52.35;1.00
DE;Germany;8.35;52.45;1.00
DE;Germany;8.35;52.55;1.00
DE;Germany;8.35;52.65;1.00
DE;Germany;8.35;52.75;1.00
DE;Germany;8.35;52.85;1.00
DE;Germany;8.35;52.95;1.00
DE;Germany;8.35;53.05;1.00
DE;Germany;8.35;53.15;1.00
DE;Germany;8.35;53.25;1.00
DE;Germany;8.35;53.35;1.00
DE;Germany;8.35;53.45;0.92
DE;Germany;8.35;53.55;0.88
DE;Germany;8.35;53.65;0.08
DE;Germany;8.35;53.85;0.02
DE;Germany;8.35;54.65;0.40
DE;Germany;8.35;54.75;0.02
DE;Germany;8.35;54.85;0.29
DE;Germany;8.35;54.95;0.39
DE;Germany;8.35;55.05;0.11
DE;Germany;8.45;47.55;0.19
DE;Germany;8.45;47.65;0.58
DE;Germany;8.45;47.75;0.58
DE;Germany;8.45;47.85;1.00
DE;Germany;8.45;47.95;1.00
DE;Germany;8.45;48.05;1.00
DE;Germany;8.45;48.15;1.00
DE;Germany;8.45;48.25;1.00
DE;Germany;8.45;48.35;1.00
DE;Germany;8.45;48.45;1.00
DE;Germany;8.45;48.55;1.00
DE;Germany;8.45;48.65;1.00
DE;Germany;8.45;48.75;1.00
DE;Germany;8.45;48.85;1.00
DE;Germany;8.45;48.95;1.00
DE;Germany;8.45;49.05;1.00
DE;Germany;8.45;49.15;1.00
DE;Germany;8.45;49.25;1.00
DE;Germany;8.45;49.35;1.00
DE;Germany;8.45;49.45;1.00
DE;Germany;8.45;49.55;1.00
DE;Germany;8.45;49.65;1.00
DE;Germany;8.45;49.75;1.00
DE;Germany;8.45;49.85;1.00
DE;Germany;8.45;49.95;1.00
DE;Germany;8.45;50.05;1.00
DE;Germany;8.45;50.15;1.00
DE;Germany;8.45;50.25;1.00
DE;Germany;8.45;50.35;1.00
DE;Germany;8.45;50.45;1.00
DE;Germany;8.45;50.55;1.00
DE;Germany;8.45;50.65;1.00
DE;Germany;8.45;50.75;1.00
DE;Germany;8.45;50.85;1.00
DE;Germany;8.45;50.95;1.00
DE;Germany;8.45;51.05;1.00
DE;Germany;8.45;51.15;1.00
DE;Germany;8.45;51.25;1.00
DE;Germany;8.45;51.35;1.00
DE;Germany;8.45;51.45;1.00
DE;Germany;8.45;51.55;1.00
DE;Germany;8.45;51.65;1.00
DE;Germany;8.45;51.75;1.00
DE;Germany;8.45;51.85;1.00
DE;Germany;8.45;51.95;1.00
DE;Germany;8.45;52.05;1.00
DE;Germany;8.45;52.15;1.00
DE;Germany;8.45;52.25;1.00
DE;Germany;8.45;52.35;1.00
DE;Germany;8.45;52.45;1.00
DE;Germany;8.45;52.55;1.00
DE;Germany;8.45;52.65;1.00
DE;Germany;8.45;52.75;1.00
DE;Germany;8.45;52.85;1.00
DE;Germany;8.45;52.95;1.00
DE;Germany;8.45;53.05;1.00
DE;Germany;8.45;53.15;1.00
DE;Germany;8.45;53.25;1.00
DE;Germany;8.45;53.35;1.00
DE;Germany;8.45;53.45;1.00
DE;Germany;8.45;53.55;0.59
DE;Germany;8.45;53.65;0.09
DE;Germany;8.45;53.75;0.01
DE;Germany;8.45;53.95;0.02
DE;Germany;8.45;54.45;0.19
DE;Germany;8.45;54.55;0.20
DE;Germany;8.45;54.65;0.10
DE;Germany;8.45;54.75;0.46
DE;Germany;8.45;54.85;0.19
DE;Germany;8.45;55.05;0.12
DE;Germany;8.55;47.55;0.00
DE;Germany;8.55;47.65;0.42
DE;Germany;8.55;47.75;0.10
DE;Germany;8.55;47.85;0.96
DE;Germany;8.55;47.95;1.00
DE;Germany;8.55;48.05;1.00
DE;Germany;8.55;48.15;1.00
DE;Germany;8.55;48.25;1.00
DE;Germany;8.55;48.35;1.00
DE;Germany;8.55;48.45;1.00
DE;Germany;8.55;48.55;1.00
DE;Germany;8.55;48.65;1.00
DE;Germany;8.55;48.75;1.00
DE;Germany;8.55;48.85;1.00
DE;Germany;8.55;48.95;1.00
DE;Germany;8.55;49.05;1.00
DE;Germany;8.55;49.15;1.00
DE;Germany;8.55;49.25;1.00
DE;Germany;8.55;49.35;1.00
DE;Germany;8.55;49.45;1.00
DE;Germany;8.55;49.55;1.00
DE;Germany;8.55;49.65;1.00
DE;Germany;8.55;49.75;1.00
DE;Germany;8.55;49.85;1.00
DE;Germany;8.55;49.95;1.00
DE;Germany;8.55;50.05;1.00
DE;Germany;8.55;50.15;1.00
DE;Germany;8.55;50.25;1.00
DE;Germany;8.55;50.35;1.00
DE;Germany;8.55;50.45;1.00
DE;Germany;8.55;50.55;1.00
DE;Germany;8.55;50.65;1.00
DE;Germany;8.55;50.75;1.00
DE;Germany;8.55;50.85;1.00
DE;Germany;8.55;50.95;1.00
DE;Germany;8.55;51.05;1.00
DE;Germany;8.55;51.15;1.00
DE;Germany;8.55;51.25;1.00
DE;Germany;8.55;51.35;1.00
DE;Germany;8.55;51.45;1.00
DE;Germany;8.55;51.55;1.00
DE;Germany;8.55;51.65;1.00
DE;Germany;8.55;51.75;1.00
DE;Germany;8.55;51.85;1.00
DE;Germany;8.55;51.95;1.00
DE;Germany;8.55;52.05;1.00
DE;Germany;8.55;52.15;1.00
DE;Germany;8.55;52.25;1.00
DE;Germany;8.55;52.35;1.00
DE;Germany;8.55;52.45;1.00
DE;Germany;8.55;52.55;1.00
DE;Germany;8.55;52.65;1.00
DE;Germany;8.55;52.75;1.00
DE;Germany;8.55;52.85;1.00
DE;Germany;8.55;52.95;1.00
DE;Germany;8.55;53.05;1.00
DE;Germany;8.55;53.15;1.00
DE;Germany;8.55;53.25;1.00
DE;Germany;8.55;53.35;1.00
DE;Germany;8.55;53.45;1.00
DE;Germany;8.55;53.55;0.67
DE;Germany;8.55;53.65;0.96
DE;Germany;8.55;53.75;0.81
DE;Germany;8.55;53.85;0.24
DE;Germany;8.55;53.95;0.02
DE;Germany;8.55;54.05;0.01
DE;Germany;8.55;54.25;0.01
DE;Germany;8.55;54.35;0.07
DE;Germany;8.55;54.45;0.04
DE;Germany;8.55;54.55;0.12
DE;Germany;8.55;54.65;0.22
DE;Germany;8.55;54.75;0.44
DE;Germany;8.55;54.85;0.02
DE;Germany;8.65;47.65;0.08
DE;Germany;8.65;47.75;0.20
DE;Germany;8.65;47.85;0.98
DE;Germany;8.65;47.95;1.00
DE;Germany;8.65;48.05;1.00
DE;Germany;8.65;48.15;1.00
DE;Germany;8.65;48.25;1.00
DE;Germany;8.65;48.35;1.00
DE;Germany;8.65;48.45;1.00
DE;Germany;8.65;48.55;1.00
DE;Germany;8.65;48.65;1.00
DE;Germany;8.65;48.75;1.00
DE;Germany;8.65;48.85;1.00
DE;Germany;8.65;48.95;1.00
DE;Germany;8.65;49.05;1.00
DE;Germany;8.65;49.15;1.00
DE;Germany;8.65;49.25;1.00
DE;Germany;8.65;49.35;1.00
DE;Germany;8.65;49.45;1.00
DE;Germany;8.65;49.55;1.00
DE;Germany;8.65;49.65;1.00
DE;Germany;8.65;49.75;1.00
DE;Germany;8.65;49.85;1.00
DE;Germany;8.65;49.95;1.00
DE;Germany;8.65;50.05;1.00
DE;Germany;8.65;50.15;1.00
DE;Germany;8.65;50.25;1.00
DE;Germany;8.65;50.35;1.00
DE;Germany;8.65;50.45;1.00
DE;Germany;8.65;50.55;1.00
DE;Germany;8.65;50.65;1.00
DE;Germany;8.65;50.75;1.00
DE;Germany;8.65;50.85;1.00
DE;Germany;8.65;50.95;1.00
DE;Germany;8.65;51.05;1.00
DE;Germany;8.65;51.15;1.00
DE;Germany;8.65;51.25;1.00
DE;Germany;8.65;51.35;1.00
DE;Germany;8.65;51.45;1.00
DE;Germany;8.65;51.55;1.00
DE;Germany;8.65;51.65;1.00
DE;Germany;8.65;51.75;1.00
DE;Germany;8.65;51.85;1.00
DE;Germany;8.65;51.95;1.00
DE;Germany;8.65;52.05;1.00
DE;Germany;8.65;52.15;1.00
DE;Germany;8.65;52.25;1.00
DE;Germany;8.65;52.35;1.00
DE;Germany;8.65;52.45;1.00
DE;Germany;8.65;52.55;1.00
DE;Germany;8.65;52.65;1.00
DE;Germany;8.65;52.75;1.00
DE;Germany;8.65;52.85;1.00
DE;Germany;8.65;52.95;1.00
DE;Germany;8.65;53.05;1.00
DE;Germany;8.65;53.15;1.00
DE;Germany;8.65;53.25;1.00
DE;Germany;8.65;53.35;1.00
DE;Germany;8.65;53.45;1.00
DE;Germany;8.65;53.55;1.00
DE;Germany;8.65;53.65;1.00
DE;Germany;8.65;53.75;1.00
DE;Germany;8.65;53.85;0.84
DE;Germany;8.65;54.05;0.04
DE;Germany;8.65;54.25;0.20
DE;Germany;8.65;54.35;0.78
DE;Germany;8.65;54.45;0.06
DE;Germany;8.65;54.55;0.42
DE;Germany;8.65;54.65;0.08
DE;Germany;8.65;54.75;0.09
DE;Germany;8.65;54.85;0.83
DE;Germany;8.65;54.95;0.08
DE;Germany;8.75;47.65;0.08
DE;Germany;8.75;47.75;0.77
DE;Germany;8.75;47.85;1.00
DE;Germany;8.75;47.95;1.00
DE;Germany;8.75;48.05;1.00
DE;Germany;8.75;48.15;1.00
DE;Germany;8.75;48.25;1.00
DE;Germany;8.75;48.35;1.00
DE;Germany;8.75;48.45;1.00
DE;Germany;8.75;48.55;1.00
DE;Germany;8.75;48.65;1.00
DE;Germany;8.75;48.75;1.00
DE;Germany;8.75;48.85;1.00
DE;Germany;8.75;48.95;1.00
DE;Germany;8.75;49.05;1.00
DE;Germany;8.75;49.15;1.00
DE;Germany;8.75;49.25;1.00
DE;Germany;8.75;49.35;1.00
DE;Germany;8.75;49.45;1.00
DE;Germany;8.75;49.55;1.00
DE;Germany;8.75;49.65;1.00
DE;Germany;8.75;49.75;1.00
DE;Germany;8.75;49.85;1.00
DE;Germany;8.75;49.95;1.00
DE;Germany;8.75;50.05;1.00
DE;Germany;8.75;50.15;1.00
DE;Germany;8.75;50.25;1.00
DE;Germany;8.75;50.35;1.00
DE;Germany;8.75;50.45;1.00
DE;Germany;8.75;50.55;1.00
DE;Germany;8.75;50.65;1.00
DE;Germany;8.75;50.75;1.00
DE;Germany;8.75;50.85;1.00
DE;Germany;8.75;50.95;1.00
DE;Germany;8.75;51.05;1.00
DE;Germany;8.75;51.15;1.00
DE;Germany;8.75;51.25;1.00
DE;Germany;8.75;51.35;1.00
DE;Germany;8.75;51.45;1.00
DE;Germany;8.75;51.55;1.00
DE;Germany;8.75;51.65;1.00
DE;Germany;8.75;51.75;1.00
DE;Germany;8.75;51.85;1.00
DE;Germany;8.75;51.95;1.00
DE;Germany;8.75;52.05;1.00
DE;Germany;8.75;52.15;1.00
DE;Germany;8.75;52.25;1.00
DE;Germany;8.75;52.35;1.00
DE;Germany;8.75;52.45;1.00
DE;Germany;8.75;52.55;1.00
DE;Germany;8.75;52.65;1.00
DE;Germany;8.75;52.75;1.00
DE;Germany;8.75;52.85;1.00
DE;Germany;8.75;52.95;1.00
DE;Germany;8.75;53.05;1.00
DE;Germany;8.75;53.15;1.00
DE;Germany;8.75;53.25;1.00
DE;Germany;8.75;53.35;1.00
DE;Germany;8.75;53.45;1.00
DE;Germany;8.75;53.55;1.00
DE;Germany;8.75;53.65;1.00
DE;Germany;8.75;53.75;1.00
DE;Germany;8.75;53.85;0.50
DE;Germany;8.75;54.05;0.00
DE;Germany;8.75;54.25;0.14
DE;Germany;8.75;54.35;1.00
DE;Germany;8.75;54.45;0.07
DE;Germany;8.75;54.55;0.01
DE;Germany;8.75;54.65;0.21
DE;Germany;8.75;54.75;0.92
DE;Germany;8.75;54.85;0.99
DE;Germany;8.75;54.95;0.06
DE;Germany;8.85;47.65;0.14
DE;Germany;8.85;47.75;0.86
DE;Germany;8.85;47.85;1.00
DE;Germany;8.85;47.95;1.00
DE;Germany;8.85;48.05;1.00
DE;Germany;8.85;48.15;1.00
DE;Germany;8.85;48.25;1.00
DE;Germany;8.85;48.35;1.00
DE;Germany;8.85;48.45;1.00
DE;Germany;8.85;48.55;1.00
DE;Germany;8.85;48.65;1.00
DE;Germany;8.85;48.75;1.00
DE;Germany;8.85;48.85;1.00
DE;Germany;8.85;48.95;1.00
DE;Germany;8.85;49.05;1.00
DE;Germany;8.85;49.15;1.00
DE;Germany;8.85;49.25;1.00
DE;Germany;8.85;49.35;1.00
DE;Germany;8.85;49.45;1.00
DE;Germany;8.85;49.55;1.00
DE;Germany;8.85;49.65;1.00
DE;Germany;8.85;49.75;1.00
DE;Germany;8.85;49.85;1.00
DE;Germany;8.85;49.95;1.00
DE;Germany;8.85;50.05;1.00
DE;Germany;8.85;50.15;1.00
DE;Germany;8.85;50.25;1.00
DE;Germany;8.85;50.35;1.00
DE;Germany;8.85;50.45;1.00
DE;Germany;8.85;50.55;1.00
DE;Germany;8.85;50.65;1.00
DE;Germany;8.85;50.75;1.00
DE;Germany;8.85;50.85;1.00
DE;Germany;8.85;50.95;1.00
DE;Germany;8.85;51.05;1.00
DE;Germany;8.85;51.15;1.00
DE;Germany;8.85;51.25;1.00
DE;Germany;8.85;51.35;1.00
DE;Germany;8.85;51.45;1.00
DE;Germany;8.85;51.55;1.00
DE;Germany;8.85;51.65;1.00
DE;Germany;8.85;51.75;1.00
DE;Germany;8.85;51.85;1.00
DE;Germany;8.85;51.95;1.00
DE;Germany;8.85;52.05;1.00
DE;Germany;8.85;52.15;1.00
DE;Germany;8.85;52.25;1.00
DE;Germany;8.85;52.35;1.00
DE;Germany;8.85;52.45;1.00
DE;Germany;8.85;52.55;1.00
DE;Germany;8.85;52.65;1.00
DE;Germany;8.85;52.75;1.00
DE;Germany;8.85;52.85;1.00
DE;Germany;8.85;52.95;1.00
DE;Germany;8.85;53.05;1.00
DE;Germany;8.85;53.15;1.00
DE;Germany;8.85;53.25;1.00
DE;Germany;8.85;53.35;1.00
DE;Germany;8.85;53.45;1.00
DE;Germany;8.85;53.55;1.00
DE;Germany;8.85;53.65;1.00
DE;Germany;8.85;53.75;1.00
DE;Germany;8.85;53.85;0.31
DE;Germany;8.85;53.95;0.14
DE;Germany;8.85;54.05;0.27
DE;Germany;8.85;54.15;0.57
DE;Germany;8.85;54.25;0.60
DE;Germany;8.85;54.35;1.00
DE;Germany;8.85;54.45;0.44
DE;Germany;8.85;54.55;0.35
DE;Germany;8.85;54.65;0.85
DE;Germany;8.85;54.75;1.00
DE;Germany;8.85;54.85;0.99
DE;Germany;8.85;54.95;0.05
DE;Germany;8.95;47.65;0.31
DE;Germany;8.95;47.75;0.87
DE;Germany;8.95;47.85;1.00
DE;Germany;8.95;47.95;1.00
DE;Germany;8.95;48.05;1.00
DE;Germany;8.95;48.15;1.00
DE;Germany;8.95;48.25;1.00
DE;Germany;8.95;48.35;1.00
DE;Germany;8.95;48.45;1.00
DE;Germany;8.95;48.55;1.00
DE;Germany;8.95;48.65;1.00
DE;Germany;8.95;48.75;1.00
DE;Germany;8.95;48.85;1.00
DE;Germany;8.95;48.95;1.00
DE;Germany;8.95;49.05;1.00
DE;Germany;8.95;49.15;1.00
DE;Germany;8.95;49.25;1.00
DE;Germany;8.95;49.35;1.00
DE;Germany;8.95;49.45;1.00
DE;Germany;8.95;49.55;1.00
DE;Germany;8.95;49.65;1.00
DE;Germany;8.95;49.75;1.00
DE;Germany;8.95;49.85;1.00
DE;Germany;8.95;49.95;1.00
DE;Germany;8.95;50.05;1.00
DE;Germany;8.95;50.15;1.00
DE;Germany;8.95;50.25;1.00
DE;Germany;8.95;50.35;1.00
DE;Germany;8.95;50.45;1.00
DE;Germany;8.95;50.55;1.00
DE;Germany;8.95;50.65;1.00
DE;Germany;8.95;50.75;1.00
DE;Germany;8.95;50.85;1.00
DE;Germany;8.95;50.95;1.00
DE;Germany;8.95;51.05;1.00
DE;Germany;8.95;51.15;1.00
DE;Germany;8.95;51.25;1.00
DE;Germany;8.95;51.35;1.00
DE;Germany;8.95;51.45;1.00
DE;Germany;8.95;51.55;1.00
DE;Germany;8.95;51.65;1.00
DE;Germany;8.95;51.75;1.00
DE;Germany;8.95;51.85;1.00
DE;Germany;8.95;51.95;1.00
DE;Germany;8.95;52.05;1.00
DE;Germany;8.95;52.15;1.00
DE;Germany;8.95;52.25;1.00
DE;Germany;8.95;52.35;1.00
DE;Germany;8.95;52.45;1.00
DE;Germany;8.95;52.55;1.00
DE;Germany;8.95;52.65;1.00
DE;Germany;8.95;52.75;1.00
DE;Germany;8.95;52.85;1.00
DE;Germany;8.95;52.95;1.00
DE;Germany;8.95;53.05;1.00
DE;Germany;8.95;53.15;1.00
DE;Germany;8.95;53.25;1.00
DE;Germany;8.95;53.35;1.00
DE;Germany;8.95;53.45;1.00
DE;Germany;8.95;53.55;1.00
DE;Germany;8.95;53.65;1.00
DE;Germany;8.95;53.75;1.00
DE;Germany;8.95;53.85;0.38
DE;Germany;8.95;53.95;0.90
DE;Germany;8.95;54.05;0.57
DE;Germany;8.95;54.15;0.88
DE;Germany;8.95;54.25;0.91
DE;Germany;8.95;54.35;0.99
DE;Germany;8.95;54.45;0.59
DE;Germany;8.95;54.55;0.94
DE;Germany;8.95;54.65;1.00
DE;Germany;8.95;54.75;1.00
DE;Germany;8.95;54.85;0.98
DE;Germany;8.95;54.95;0.02
DE;Germany;9.05;47.65;0.01
DE;Germany;9.05;47.75;0.67
DE;Germany;9.05;47.85;0.91
DE;Germany;9.05;47.95;1.00
DE;Germany;9.05;48.05;1.00
DE;Germany;9.05;48.15;1.00
DE;Germany;9.05;48.25;1.00
DE;Germany;9.05;48.35;1.00
DE;Germany;9.05;48.45;1.00
DE;Germany;9.05;48.55;1.00
DE;Germany;9.05;48.65;1.00
DE;Germany;9.05;48.75;1.00
DE;Germany;9.05;48.85;1.00
DE;Germany;9.05;48.95;1.00
DE;Germany;9.05;49.05;1.00
DE;Germany;9.05;49.15;1.00
DE;Germany;9.05;49.25;1.00
DE;Germany;9.05;49.35;1.00
DE;Germany;9.05;49.45;1.00
DE;Germany;9.05;49.55;1.00
DE;Germany;9.05;49.65;1.00
DE;Germany;9.05;49.75;1.00
DE;Germany;9.05;49.85;1.00
DE;Germany;9.05;49.95;1.00
DE;Germany;9.05;50.05;1.00
DE;Germany;9.05;50.15;1.00
DE;Germany;9.05;50.25;1.00
DE;Germany;9.05;50.35;1.00
DE;Germany;9.05;50.45;1.00
DE;Germany;9.05;50.55;1.00
DE;Germany;9.05;50.65;1.00
DE;Germany;9.05;50.75;1.00
DE;Germany;9.05;50.85;1.00
DE;Germany;9.05;50.95;1.00
DE;Germany;9.05;51.05;1.00
DE;Germany;9.05;51.15;1.00
DE;Germany;9.05;51.25;1.00
DE;Germany;9.05;51.35;1.00
DE;Germany;9.05;51.45;1.00
DE;Germany;9.05;51.55;1.00
DE;Germany;9.05;51.65;1.00
DE;Germany;9.05;51.75;1.00
DE;Germany;9.05;51.85;1.00
DE;Germany;9.05;51.95;1.00
DE;Germany;9.05;52.05;1.00
DE;Germany;9.05;52.15;1.00
DE;Germany;9.05;52.25;1.00
DE;Germany;9.05;52.35;1.00
DE;Germany;9.05;52.45;1.00
DE;Germany;9.05;52.55;1.00
DE;Germany;9.05;52.65;1.00
DE;Germany;9.05;52.75;1.00
DE;Germany;9.05;52.85;1.00
DE;Germany;9.05;52.95;1.00
DE;Germany;9.05;53.05;1.00
DE;Germany;9.05;53.15;1.00
DE;Germany;9.05;53.25;1.00
DE;Germany;9.05;53.35;1.00
DE;Germany;9.05;53.45;1.00
DE;Germany;9.05;53.55;1.00
DE;Germany;9.05;53.65;1.00
DE;Germany;9.05;53.75;1.00
DE;Germany;9.05;53.85;0.56
DE;Germany;9.05;53.95;1.00
DE;Germany;9.05;54.05;1.00
DE;Germany;9.05;54.15;1.00
DE;Germany;9.05;54.25;1.00
DE;Germany;9.05;54.35;1.00
DE;Germany;9.05;54.45;0.97
DE;Germany;9.05;54.55;1.00
DE;Germany;9.05;54.65;1.00
DE;Germany;9.05;54.75;1.00
DE;Germany;9.05;54.85;0.74
DE;Germany;9.15;47.65;0.29
DE;Germany;9.15;47.75;0.68
DE;Germany;9.15;47.85;1.00
DE;Germany;9.15;47.95;1.00
DE;Germany;9.15;48.05;1.00
DE;Germany;9.15;48.15;1.00
DE;Germany;9.15;48.25;1.00
DE;Germany;9.15;48.35;1.00
DE;Germany;9.15;48.45;1.00
DE;Germany;9.15;48.55;1.00
DE;Germany;9.15;48.65;1.00
DE;Germany;9.15;48.75;1.00
DE;Germany;9.15;48.85;1.00
DE;Germany;9.15;48.95;1.00
DE;Germany;9.15;49.05;1.00
DE;Germany;9.15;49.15;1.00
DE;Germany;9.15;49.25;1.00
DE;Germany;9.15;49.35;1.00
DE;Germany;9.15;49.45;1.00
DE;Germany;9.15;49.55;1.00
DE;Germany;9.15;49.65;1.00
DE;Germany;9.15;49.75;1.00
DE;Germany;9.15;49.85;1.00
DE;Germany;9.15;49.95;1.00
DE;Germany;9.15;50.05;1.00
DE;Germany;9.15;50.15;1.00
DE;Germany;9.15;50.25;1.00
DE;Germany;9.15;50.35;1.00
DE;Germany;9.15;50.45;1.00
DE;Germany;9.15;50.55;1.00
DE;Germany;9.15;50.65;1.00
DE;Germany;9.15;50.75;1.00
DE;Germany;9.15;50.85;1.00
DE;Germany;9.15;50.95;1.00
DE;Germany;9.15;51.05;1.00
DE;Germany;9.15;51.15;1.00
DE;Germany;9.15;51.25;1.00
DE;Germany;9.15;51.35;1.00
DE;Germany;9.15;51.45;1.00
DE;Germany;9.15;51.55;1.00
DE;Germany;9.15;51.65;1.00
DE;Germany;9.15;51.75;1.00
DE;Germany;9.15;51.85;1.00
DE;Germany;9.15;51.95;1.00
DE;Germany;9.15;52.05;1.00
DE;Germany;9.15;52.15;1.00
DE;Germany;9.15;52.25;1.00
DE;Germany;9.15;52.35;1.00
DE;Germany;9.15;52.45;1.00
DE;Germany;9.15;52.55;1.00
DE;Germany;9.15;52.65;1.00
DE;Germany;9.15;52.75;1.00
DE;Germany;9.15;52.85;1.00
DE;Germany;9.15;52.95;1.00
DE;Germany;9.15;53.05;1.00
DE;Germany;9.15;53.15;1.00
DE;Germany;9.15;53.25;1.00
DE;Germany;9.15;53.35;1.00
DE;Germany;9.15;53.45;1.00
DE;Germany;9.15;53.55;1.00
DE;Germany;9.15;53.65;1.00
DE;Germany;9.15;53.75;1.00
DE;Germany;9.15;53.85;1.00
DE;Germany;9.15;53.95;1.00
DE;Germany;9.15;54.05;1.00
DE;Germany;9.15;54.15;1.00
DE;Germany;9.15;54.25;1.00
DE;Germany;9.15;54.35;1.00
DE;Germany;9.15;54.45;1.00
DE;Germany;9.15;54.55;1.00
DE;Germany;9.15;54.65;1.00
DE;Germany;9.15;54.75;1.00
DE;Germany;9.15;54.85;0.66
DE;Germany;9.25;47.65;0.07
DE;Germany;9.25;47.75;0.80
DE;Germany;9.25;47.85;1.00
DE;Germany;9.25;47.95;1.00
DE;Germany;9.25;48.05;1.00
DE;Germany;9.25;48.15;1.00
DE;Germany;9.25;48.25;1.00
DE;Germany;9.25;48.35;1.00
DE;Germany;9.25;48.45;1.00
DE;Germany;9.25;48.55;1.00
DE;Germany;9.25;48.65;1.00
DE;Germany;9.25;48.75;1.00
DE;Germany;9.25;48.85;1.00
DE;Germany;9.25;48.95;1.00
DE;Germany;9.25;49.05;1.00
DE;Germany;9.25;49.15;1.00
DE;Germany;9.25;49.25;1.00
DE;Germany;9.25;49.35;1.00
DE;Germany;9.25;49.45;1.00
DE;Germany;9.25;49.55;1.00
DE;Germany;9.25;49.65;1.00
DE;Germany;9.25;49.75;1.00
DE;Germany;9.25;49.85;1.00
DE;Germany;9.25;49.95;1.00
DE;Germany;9.25;50.05;1.00
DE;Germany;9.25;50.15;1.00
DE;Germany;9.25;50.25;1.00
DE;Germany;9.25;50.35;1.00
DE;Germany;9.25;50.45;1.00
DE;Germany;9.25;50.55;1.00
DE;Germany;9.25;50.65;1.00
DE;Germany;9.25;50.75;1.00
DE;Germany;9.25;50.85;1.00
DE;Germany;9.25;50.95;1.00
DE;Germany;9.25;51.05;1.00
DE;Germany;9.25;51.15;1.00
DE;Germany;9.25;51.25;1.00
DE;Germany;9.25;51.35;1.00
DE;Germany;9.25;51.45;1.00
DE;Germany;9.25;51.55;1.00
DE;Germany;9.25;51.65;1.00
DE;Germany;9.25;51.75;1.00
DE;Germany;9.25;51.85;1.00
DE;Germany;9.25;51.95;1.00
DE;Germany;9.25;52.05;1.00
DE;Germany;9.25;52.15;1.00
DE;Germany;9.25;52.25;1.00
DE;Germany;9.25;52.35;1.00
DE;Germany;9.25;52.45;1.00
DE;Germany;9.25;52.55;1.00
DE;Germany;9.25;52.65;1.00
DE;Germany;9.25;52.75;1.00
DE;Germany;9.25;52.85;1.00
DE;Germany;9.25;52.95;1.00
DE;Germany;9.25;53.05;1.00
DE;Germany;9.25;53.15;1.00
DE;Germany;9.25;53.25;1.00
DE;Germany;9.25;53.35;1.00
DE;Germany;9.25;53.45;1.00
DE;Germany;9.25;53.55;1.00
DE;Germany;9.25;53.65;1.00
DE;Germany;9.25;53.75;1.00
DE;Germany;9.25;53.85;1.00
DE;Germany;9.25;53.95;1.00
DE;Germany;9.25;54.05;1.00
DE;Germany;9.25;54.15;1.00
DE;Germany;9.25;54.25;1.00
DE;Germany;9.25;54.35;1.00
DE;Germany;9.25;54.45;1.00
DE;Germany;9.25;54.55;1.00
DE;Germany;9.25;54.65;1.00
DE;Germany;9.25;54.75;1.00
DE;Germany;9.25;54.85;0.34
DE;Germany;9.35;47.65;0.29
DE;Germany;9.35;47.75;1.00
DE;Germany;9.35;47.85;1.00
DE;Germany;9.35;47.95;1.00
DE;Germany;9.35;48.05;1.00
DE;Germany;9.35;48.15;1.00
DE;Germany;9.35;48.25;1.00
DE;Germany;9.35;48.35;1.00
DE;Germany;9.35;48.45;1.00
DE;Germany;9.35;48.55;1.00
DE;Germany;9.35;48.65;1.00
DE;Germany;9.35;48.75;1.00
DE;Germany;9.35;48.85;1.00
DE;Germany;9.35;48.95;1.00
DE;Germany;9.35;49.05;1.00
DE;Germany;9.35;49.15;1.00
DE;Germany;9.35;49.25;1.00
DE;Germany;9.35;49.35;1.00
DE;Germany;9.35;49.45;1.00
DE;Germany;9.35;49.55;1.00
DE;Germany;9.35;49.65;1.00
DE;Germany;9.35;49.75;1.00
DE;Germany;9.35;49.85;1.00
DE;Germany;9.35;49.95;1.00
DE;Germany;9.35;50.05;1.00
DE;Germany;9.35;50.15;1.00
DE;Germany;9.35;50.25;1.00
DE;Germany;9.35;50.35;1.00
DE;Germany;9.35;50.45;1.00
DE;Germany;9.35;50.55;1.00
DE;Germany;9.35;50.65;1.00
DE;Germany;9.35;50.75;1.00
DE;Germany;9.35;50.85;1.00
DE;Germany;9.35;50.95;1.00
DE;Germany;9.35;51.05;1.00
DE;Germany;9.35;51.15;1.00
DE;Germany;9.35;51.25;1.00
DE;Germany;9.35;51.35;1.00
DE;Germany;9.35;51.45;1.00
DE;Germany;9.35;51.55;1.00
DE;Germany;9.35;51.65;1.00
DE;Germany;9.35;51.75;1.00
DE;Germany;9.35;51.85;1.00
DE;Germany;9.35;51.95;1.00
DE;Germany;9.35;52.05;1.00
DE;Germany;9.35;52.15;1.00
DE;Germany;9.35;52.25;1.00
DE;Germany;9.35;52.35;1.00
DE;Germany;9.35;52.45;1.00
DE;Germany;9.35;52.55;1.00
DE;Germany;9.35;52.65;1.00
DE;Germany;9.35;52.75;1.00
DE;Germany;9.35;52.85;1.00
DE;Germany;9.35;52.95;1.00
DE;Germany;9.35;53.05;1.00
DE;Germany;9.35;53.15;1.00
DE;Germany;9.35;53.25;1.00
DE;Germany;9.35;53.35;1.00
DE;Germany;9.35;53.45;1.00
DE;Germany;9.35;53.55;1.00
DE;Germany;9.35;53.65;1.00
DE;Germany;9.35;53.75;1.00
DE;Germany;9.35;53.85;1.00
DE;Germany;9.35;53.95;1.00
DE;Germany;9.35;54.05;1.00
DE;Germany;9.35;54.15;1.00
DE;Germany;9.35;54.25;1.00
DE;Germany;9.35;54.35;1.00
DE;Germany;9.35;54.45;1.00
DE;Germany;9.35;54.55;1.00
DE;Germany;9.35;54.65;1.00
DE;Germany;9.35;54.75;1.00
DE;Germany;9.35;54.85;0.17
DE;Germany;9.45;47.65;0.40
DE;Germany;9.45;47.75;1.00
DE;Germany;9.45;47.85;1.00
DE;Germany;9.45;47.95;1.00
DE;Germany;9.45;48.05;1.00
DE;Germany;9.45;48.15;1.00
DE;Germany;9.45;48.25;1.00
DE;Germany;9.45;48.35;1.00
DE;Germany;9.45;48.45;1.00
DE;Germany;9.45;48.55;1.00
DE;Germany;9.45;48.65;1.00
DE;Germany;9.45;48.75;1.00
DE;Germany;9.45;48.85;1.00
DE;Germany;9.45;48.95;1.00
DE;Germany;9.45;49.05;1.00
DE;Germany;9.45;49.15;1.00
DE;Germany;9.45;49.25;1.00
DE;Germany;9.45;49.35;1.00
DE;Germany;9.45;49.45;1.00
DE;Germany;9.45;49.55;1.00
DE;Germany;9.45;49.65;1.00
DE;Germany;9.45;49.75;1.00
DE;Germany;9.45;49.85;1.00
DE;Germany;9.45;49.95;1.00
DE;Germany;9.45;50.05;1.00
DE;Germany;9.45;50.15;1.00
DE;Germany;9.45;50.25;1.00
DE;Germany;9.45;50.35;1.00
DE;Germany;9.45;50.45;1.00
DE;Germany;9.45;50.55;1.00
DE;Germany;9.45;50.65;1.00
DE;Germany;9.45;50.75;1.00
DE;Germany;9.45;50.85;1.00
DE;Germany;9.45;50.95;1.00
DE;Germany;9.45;51.05;1.00
DE;Germany;9.45;51.15;1.00
DE;Germany;9.45;51.25;1.00
DE;Germany;9.45;51.35;1.00
DE;Germany;9.45;51.45;1.00
DE;Germany;9.45;51.55;1.00
DE;Germany;9.45;51.65;1.00
DE;Germany;9.45;51.75;1.00
DE;Germany;9.45;51.85;1.00
DE;Germany;9.45;51.95;1.00
DE;Germany;9.45;52.05;1.00
DE;Germany;9.45;52.15;1.00
DE;Germany;9.45;52.25;1.00
DE;Germany;9.45;52.35;1.00
DE;Germany;9.45;52.45;1.00
DE;Germany;9.45;52.55;1.00
DE;Germany;9.45;52.65;1.00
DE;Germany;9.45;52.75;1.00
DE;Germany;9.45;52.85;1.00
DE;Germany;9.45;52.95;1.00
DE;Germany;9.45;53.05;1.00
DE;Germany;9.45;53.15;1.00
DE;Germany;9.45;53.25;1.00
DE;Germany;9.45;53.35;1.00
DE;Germany;9.45;53.45;1.00
DE;Germany;9.45;53.55;1.00
DE;Germany;9.45;53.65;1.00
DE;Germany;9.45;53.75;1.00
DE;Germany;9.45;53.85;1.00
DE;Germany;9.45;53.95;1.00
DE;Germany;9.45;54.05;1.00
DE;Germany;9.45;54.15;1.00
DE;Germany;9.45;54.25;1.00
DE;Germany;9.45;54.35;1.00
DE;Germany;9.45;54.45;1.00
DE;Germany;9.45;54.55;1.00
DE;Germany;9.45;54.65;1.00
DE;Germany;9.45;54.75;1.00
DE;Germany;9.45;54.85;0.21
DE;Germany;9.55;47.55;0.06
DE;Germany;9.55;47.65;0.87
DE;Germany;9.55;47.75;1.00
DE;Germany;9.55;47.85;1.00
DE;Germany;9.55;47.95;1.00
DE;Germany;9.55;48.05;1.00
DE;Germany;9.55;48.15;1.00
DE;Germany;9.55;48.25;1.00
DE;Germany;9.55;48.35;1.00
DE;Germany;9.55;48.45;1.00
DE;Germany;9.55;48.55;1.00
DE;Germany;9.55;48.65;1.00
DE;Germany;9.55;48.75;1.00
DE;Germany;9.55;48.85;1.00
DE;Germany;9.55;48.95;1.00
DE;Germany;9.55;49.05;1.00
DE;Germany;9.55;49.15;1.00
DE;Germany;9.55;49.25;1.00
DE;Germany;9.55;49.35;1.00
DE;Germany;9.55;49.45;1.00
DE;Germany;9.55;49.55;1.00
DE;Germany;9.55;49.65;1.00
DE;Germany;9.55;49.75;1.00
DE;Germany;9.55;49.85;1.00
DE;Germany;9.55;49.95;1.00
DE;Germany;9.55;50.05;1.00
DE;Germany;9.55;50.15;1.00
DE;Germany;9.55;50.25;1.00
DE;Germany;9.55;50.35;1.00
DE;Germany;9.55;50.45;1.00
DE;Germany;9.55;50.55;1.00
DE;Germany;9.55;50.65;1.00
DE;Germany;9.55;50.75;1.00
DE;Germany;9.55;50.85;1.00
DE;Germany;9.55;50.95;1.00
DE;Germany;9.55;51.05;1.00
DE;Germany;9.55;51.15;1.00
DE;Germany;9.55;51.25;1.00
DE;Germany;9.55;51.35;1.00
DE;Germany;9.55;51.45;1.00
DE;Germany;9.55;51.55;1.00
DE;Germany;9.55;51.65;1.00
DE;Germany;9.55;51.75;1.00
DE;Germany;9.55;51.85;1.00
DE;Germany;9.55;51.95;1.00
DE;Germany;9.55;52.05;1.00
DE;Germany;9.55;52.15;1.00
DE;Germany;9.55;52.25;1.00
DE;Germany;9.55;52.35;1.00
DE;Germany;9.55;52.45;1.00
DE;Germany;9.55;52.55;1.00
DE;Germany;9.55;52.65;1.00
DE;Germany;9.55;52.75;1.00
DE;Germany;9.55;52.85;1.00
DE;Germany;9.55;52.95;1.00
DE;Germany;9.55;53.05;1.00
DE;Germany;9.55;53.15;1.00
DE;Germany;9.55;53.25;1.00
DE;Germany;9.55;53.35;1.00
DE;Germany;9.55;53.45;1.00
DE;Germany;9.55;53.55;1.00
DE;Germany;9.55;53.65;1.00
DE;Germany;9.55;53.75;1.00
DE;Germany;9.55;53.85;1.00
DE;Germany;9.55;53.95;1.00
DE;Germany;9.55;54.05;1.00
DE;Germany;9.55;54.15;1.00
DE;Germany;9.55;54.25;1.00
DE;Germany;9.55;54.35;1.00
DE;Germany;9.55;54.45;0.98
DE;Germany;9.55;54.55;0.95
DE;Germany;9.55;54.65;1.00
DE;Germany;9.55;54.75;1.00
DE;Germany;9.55;54.85;0.51
DE;Germany;9.65;47.55;0.35
DE;Germany;9.65;47.65;1.00
DE;Germany;9.65;47.75;1.00
DE;Germany;9.65;47.85;1.00
DE;Germany;9.65;47.95;1.00
DE;Germany;9.65;48.05;1.00
DE;Germany;9.65;48.15;1.00
DE;Germany;9.65;48.25;1.00
DE;Germany;9.65;48.35;1.00
DE;Germany;9.65;48.45;1.00
DE;Germany;9.65;48.55;1.00
DE;Germany;9.65;48.65;1.00
DE;Germany;9.65;48.75;1.00
DE;Germany;9.65;48.85;1.00
DE;Germany;9.65;48.95;1.00
DE;Germany;9.65;49.05;1.00
DE;Germany;9.65;49.15;1.00
DE;Germany;9.65;49.25;1.00
DE;Germany;9.65;49.35;1.00
DE;Germany;9.65;49.45;1.00
DE;Germany;9.65;49.55;1.00
DE;Germany;9.65;49.65;1.00
DE;Germany;9.65;49.75;1.00
DE;Germany;9.65;49.85;1.00
DE;Germany;9.65;49.95;1.00
DE;Germany;9.65;50.05;1.00
DE;Germany;9.65;50.15;1.00
DE;Germany;9.65;50.25;1.00
DE;Germany;9.65;50.35;1.00
DE;Germany;9.65;50.45;1.00
DE;Germany;9.65;50.55;1.00
DE;Germany;9.65;50.65;1.00
DE;Germany;9.65;50.75;1.00
DE;Germany;9.65;50.85;1.00
DE;Germany;9.65;50.95;1.00
DE;Germany;9.65;51.05;1.00
DE;Germany;9.65;51.15;1.00
DE;Germany;9.65;51.25;1.00
DE;Germany;9.65;51.35;1.00
DE;Germany;9.65;51.45;1.00
DE;Germany;9.65;51.55;1.00
DE;Germany;9.65;51.65;1.00
DE;Germany;9.65;51.75;1.00
DE;Germany;9.65;51.85;1.00
DE;Germany;9.65;51.95;1.00
DE;Germany;9.65;52.05;1.00
DE;Germany;9.65;52.15;1.00
DE;Germany;9.65;52.25;1.00
DE;Germany;9.65;52.35;1.00
DE;Germany;9.65;52.45;1.00
DE;Germany;9.65;52.55;1.00
DE;Germany;9.65;52.65;1.00
DE;Germany;9.65;52.75;1.00
DE;Germany;9.65;52.85;1.00
DE;Germany;9.65;52.95;1.00
DE;Germany;9.65;53.05;1.00
DE;Germany;9.65;53.15;1.00
DE;Germany;9.65;53.25;1.00
DE;Germany;9.65;53.35;1.00
DE;Germany;9.65;53.45;1.00
DE;Germany;9.65;53.55;1.00
DE;Germany;9.65;53.65;1.00
DE;Germany;9.65;53.75;1.00
DE;Germany;9.65;53.85;1.00
DE;Germany;9.65;53.95;1.00
DE;Germany;9.65;54.05;1.00
DE;Germany;9.65;54.15;1.00
DE;Germany;9.65;54.25;1.00
DE;Germany;9.65;54.35;1.00
DE;Germany;9.65;54.45;0.98
DE;Germany;9.65;54.55;0.81
DE;Germany;9.65;54.65;1.00
DE;Germany;9.65;54.75;1.00
DE;Germany;9.65;54.85;0.25
DE;Germany;9.75;47.55;0.28
DE;Germany;9.75;47.65;1.00
DE;Germany;9.75;47.75;1.00
DE;Germany;9.75;47.85;1.00
DE;Germany;9.75;47.95;1.00
DE;Germany;9.75;48.05;1.00
DE;Germany;9.75;48.15;1.00
DE;Germany;9.75;48.25;1.00
DE;Germany;9.75;48.35;1.00
DE;Germany;9.75;48.45;1.00
DE;Germany;9.75;48.55;1.00
DE;Germany;9.75;48.65;1.00
DE;Germany;9.75;48.75;1.00
DE;Germany;9.75;48.85;1.00
DE;Germany;9.75;48.95;1.00
DE;Germany;9.75;49.05;1.00
DE;Germany;9.75;49.15;1.00
DE;Germany;9.75;49.25;1.00
DE;Germany;9.75;49.35;1.00
DE;Germany;9.75;49.45;1.00
DE;Germany;9.75;49.55;1.00
DE;Germany;9.75;49.65;1.00
DE;Germany;9.75;49.75;1.00
DE;Germany;9.75;49.85;1.00
DE;Germany;9.75;49.95;1.00
DE;Germany;9.75;50.05;1.00
DE;Germany;9.75;50.15;1.00
DE;Germany;9.75;50.25;1.00
DE;Germany;9.75;50.35;1.00
DE;Germany;9.75;50.45;1.00
DE;Germany;9.75;50.55;1.00
DE;Germany;9.75;50.65;1.00
DE;Germany;9.75;50.75;1.00
DE;Germany;9.75;50.85;1.00
DE;Germany;9.75;50.95;1.00
DE;Germany;9.75;51.05;1.00
DE;Germany;9.75;51.15;1.00
DE;Germany;9.75;51.25;1.00
DE;Germany;9.75;51.35;1.00
DE;Germany;9.75;51.45;1.00
DE;Germany;9.75;51.55;1.00
DE;Germany;9.75;51.65;1.00
DE;Germany;9.75;51.75;1.00
DE;Germany;9.75;51.85;1.00
DE;Germany;9.75;51.95;1.00
DE;Germany;9.75;52.05;1.00
DE;Germany;9.75;52.15;1.00
DE;Germany;9.75;52.25;1.00
DE;Germany;9.75;52.35;1.00
DE;Germany;9.75;52.45;1.00
DE;Germany;9.75;52.55;1.00
DE;Germany;9.75;52.65;1.00
DE;Germany;9.75;52.75;1.00
DE;Germany;9.75;52.85;1.00
DE;Germany;9.75;52.95;1.00
DE;Germany;9.75;53.05;1.00
DE;Germany;9.75;53.15;1.00
DE;Germany;9.75;53.25;1.00
DE;Germany;9.75;53.35;1.00
DE;Germany;9.75;53.45;1.00
DE;Germany;9.75;53.55;1.00
DE;Germany;9.75;53.65;1.00
DE;Germany;9.75;53.75;1.00
DE;Germany;9.75;53.85;1.00
DE;Germany;9.75;53.95;1.00
DE;Germany;9.75;54.05;1.00
DE;Germany;9.75;54.15;1.00
DE;Germany;9.75;54.25;1.00
DE;Germany;9.75;54.35;1.00
DE;Germany;9.75;54.45;0.99
DE;Germany;9.75;54.55;0.88
DE;Germany;9.75;54.65;1.00
DE;Germany;9.75;54.75;0.98
DE;Germany;9.75;54.85;0.04
DE;Germany;9.85;47.55;0.47
DE;Germany;9.85;47.65;1.00
DE;Germany;9.85;47.75;1.00
DE;Germany;9.85;47.85;1.00
DE;Germany;9.85;47.95;1.00
DE;Germany;9.85;48.05;1.00
DE;Germany;9.85;48.15;1.00
DE;Germany;9.85;48.25;1.00
DE;Germany;9.85;48.35;1.00
DE;Germany;9.85;48.45;1.00
DE;Germany;9.85;48.55;1.00
DE;Germany;9.85;48.65;1.00
DE;Germany;9.85;48.75;1.00
DE;Germany;9.85;48.85;1.00
DE;Germany;9.85;48.95;1.00
DE;Germany;9.85;49.05;1.00
DE;Germany;9.85;49.15;1.00
DE;Germany;9.85;49.25;1.00
DE;Germany;9.85;49.35;1.00
DE;Germany;9.85;49.45;1.00
DE;Germany;9.85;49.55;1.00
DE;Germany;9.85;49.65;1.00
DE;Germany;9.85;49.75;1.00
DE;Germany;9.85;49.85;1.00
DE;Germany;9.85;49.95;1.00
DE;Germany;9.85;50.05;1.00
DE;Germany;9.85;50.15;1.00
DE;Germany;9.85;50.25;1.00
DE;Germany;9.85;50.35;1.00
DE;Germany;9.85;50.45;1.00
DE;Germany;9.85;50.55;1.00
DE;Germany;9.85;50.65;1.00
DE;Germany;9.85;50.75;1.00
DE;Germany;9.85;50.85;1.00
DE;Germany;9.85;50.95;1.00
DE;Germany;9.85;51.05;1.00
DE;Germany;9.85;51.15;1.00
DE;Germany;9.85;51.25;1.00
DE;Germany;9.85;51.35;1.00
DE;Germany;9.85;51.45;1.00
DE;Germany;9.85;51.55;1.00
DE;Germany;9.85;51.65;1.00
DE;Germany;9.85;51.75;1.00
DE;Germany;9.85;51.85;1.00
DE;Germany;9.85;51.95;1.00
DE;Germany;9.85;52.05;1.00
DE;Germany;9.85;52.15;1.00
DE;Germany;9.85;52.25;1.00
DE;Germany;9.85;52.35;1.00
DE;Germany;9.85;52.45;1.00
DE;Germany;9.85;52.55;1.00
DE;Germany;9.85;52.65;1.00
DE;Germany;9.85;52.75;1.00
DE;Germany;9.85;52.85;1.00
DE;Germany;9.85;52.95;1.00
DE;Germany;9.85;53.05;1.00
DE;Germany;9.85;53.15;1.00
DE;Germany;9.85;53.25;1.00
DE;Germany;9.85;53.35;1.00
DE;Germany;9.85;53.45;1.00
DE;Germany;9.85;53.55;1.00
DE;Germany;9.85;53.65;1.00
DE;Germany;9.85;53.75;1.00
DE;Germany;9.85;53.85;1.00
DE;Germany;9.85;53.95;1.00
DE;Germany;9.85;54.05;1.00
DE;Germany;9.85;54.15;1.00
DE;Germany;9.85;54.25;1.00
DE;Germany;9.85;54.35;1.00
DE;Germany;9.85;54.45;0.86
DE;Germany;9.85;54.55;0.93
DE;Germany;9.85;54.65;0.95
DE;Germany;9.85;54.75;0.63
DE;Germany;9.95;47.45;0.01
DE;Germany;9.95;47.55;0.71
DE;Germany;9.95;47.65;1.00
DE;Germany;9.95;47.75;1.00
DE;Germany;9.95;47.85;1.00
DE;Germany;9.95;47.95;1.00
DE;Germany;9.95;48.05;1.00
DE;Germany;9.95;48.15;1.00
DE;Germany;9.95;48.25;1.00
DE;Germany;9.95;48.35;1.00
DE;Germany;9.95;48.45;1.00
DE;Germany;9.95;48.55;1.00
DE;Germany;9.95;48.65;1.00
DE;Germany;9.95;48.75;1.00
DE;Germany;9.95;48.85;1.00
DE;Germany;9.95;48.95;1.00
DE;Germany;9.95;49.05;1.00
DE;Germany;9.95;49.15;1.00
DE;Germany;9.95;49.25;1.00
DE;Germany;9.95;49.35;1.00
DE;Germany;9.95;49.45;1.00
DE;Germany;9.95;49.55;1.00
DE;Germany;9.95;49.65;1.00
DE;Germany;9.95;49.75;1.00
DE;Germany;9.95;49.85;1.00
DE;Germany;9.95;49.95;1.00
DE;Germany;9.95;50.05;1.00
DE;Germany;9.95;50.15;1.00
DE;Germany;9.95;50.25;1.00
DE;Germany;9.95;50.35;1.00
DE;Germany;9.95;50.45;1.00
DE;Germany;9.95;50.55;1.00
DE;Germany;9.95;50.65;1.00
DE;Germany;9.95;50.75;1.00
DE;Germany;9.95;50.85;1.00
DE;Germany;9.95;50.95;1.00
DE;Germany;9.95;51.05;1.00
DE;Germany;9.95;51.15;1.00
DE;Germany;9.95;51.25;1.00
DE;Germany;9.95;51.35;1.00
DE;Germany;9.95;51.45;1.00
DE;Germany;9.95;51.55;1.00
DE;Germany;9.95;51.65;1.00
DE;Germany;9.95;51.75;1.00
DE;Germany;9.95;51.85;1.00
DE;Germany;9.95;51.95;1.00
DE;Germany;9.95;52.05;1.00
DE;Germany;9.95;52.15;1.00
DE;Germany;9.95;52.25;1.00
DE;Germany;9.95;52.35;1.00
DE;Germany;9.95;52.45;1.00
DE;Germany;9.95;52.55;1.00
DE;Germany;9.95;52.65;1.00
DE;Germany;9.95;52.75;1.00
DE;Germany;9.95;52.85;1.00
DE;Germany;9.95;52.95;1.00
DE;Germany;9.95;53.05;1.00
DE;Germany;9.95;53.15;1.00
DE;Germany;9.95;53.25;1.00
DE;Germany;9.95;53.35;1.00
DE;Germany;9.95;53.45;1.00
DE;Germany;9.95;53.55;1.00
DE;Germany;9.95;53.65;1.00
DE;Germany;9.95;53.75;1.00
DE;Germany;9.95;53.85;1.00
DE;Germany;9.95;53.95;1.00
DE;Germany;9.95;54.05;1.00
DE;Germany;9.95;54.15;1.00
DE;Germany;9.95;54.25;1.00
DE;Germany;9.95;54.35;1.00
DE;Germany;9.95;54.45;0.67
DE;Germany;9.95;54.55;0.95
DE;Germany;9.95;54.65;0.85
DE;Germany;9.95;54.75;0.68
DE;Germany;10.05;47.35;0.05
DE;Germany;10.05;47.45;0.32
DE;Germany;10.05;47.55;1.00
DE;Germany;10.05;47.65;1.00
DE;Germany;10.05;47.75;1.00
DE;Germany;10.05;47.85;1.00
DE;Germany;10.05;47.95;1.00
DE;Germany;10.05;48.05;1.00
DE;Germany;10.05;48.15;1.00
DE;Germany;10.05;48.25;1.00
DE;Germany;10.05;48.35;1.00
DE;Germany;10.05;48.45;1.00
DE;Germany;10.05;48.55;1.00
DE;Germany;10.05;48.65;1.00
DE;Germany;10.05;48.75;1.00
DE;Germany;10.05;48.85;1.00
DE;Germany;10.05;48.95;1.00
DE;Germany;10.05;49.05;1.00
DE;Germany;10.05;49.15;1.00
DE;Germany;10.05;49.25;1.00
DE;Germany;10.05;49.35;1.00
DE;Germany;10.05;49.45;1.00
DE;Germany;10.05;49.55;1.00
DE;Germany;10.05;49.65;1.00
DE;Germany;10.05;49.75;1.00
DE;Germany;10.05;49.85;1.00
DE;Germany;10.05;49.95;1.00
DE;Germany;10.05;50.05;1.00
DE;Germany;10.05;50.15;1.00
DE;Germany;10.05;50.25;1.00
DE;Germany;10.05;50.35;1.00
DE;Germany;10.05;50.45;1.00
DE;Germany;10.05;50.55;1.00
DE;Germany;10.05;50.65;1.00
DE;Germany;10.05;50.75;1.00
DE;Germany;10.05;50.85;1.00
DE;Germany;10.05;50.95;1.00
DE;Germany;10.05;51.05;1.00
DE;Germany;10.05;51.15;1.00
DE;Germany;10.05;51.25;1.00
DE;Germany;10.05;51.35;1.00
DE;Germany;10.05;51.45;1.00
DE;Germany;10.05;51.55;1.00
DE;Germany;10.05;51.65;1.00
DE;Germany;10.05;51.75;1.00
DE;Germany;10.05;51.85;1.00
DE;Germany;10.05;51.95;1.00
DE;Germany;10.05;52.05;1.00
DE;Germany;10.05;52.15;1.00
DE;Germany;10.05;52.25;1.00
DE;Germany;10.05;52.35;1.00
DE;Germany;10.05;52.45;1.00
DE;Germany;10.05;52.55;1.00
DE;Germany;10.05;52.65;1.00
DE;Germany;10.05;52.75;1.00
DE;Germany;10.05;52.85;1.00
DE;Germany;10.05;52.95;1.00
DE;Germany;10.05;53.05;1.00
DE;Germany;10.05;53.15;1.00
DE;Germany;10.05;53.25;1.00
DE;Germany;10.05;53.35;1.00
DE;Germany;10.05;53.45;1.00
DE;Germany;10.05;53.55;1.00
DE;Germany;10.05;53.65;1.00
DE;Germany;10.05;53.75;1.00
DE;Germany;10.05;53.85;1.00
DE;Germany;10.05;53.95;1.00
DE;Germany;10.05;54.05;1.00
DE;Germany;10.05;54.15;1.00
DE;Germany;10.05;54.25;1.00
DE;Germany;10.05;54.35;1.00
DE;Germany;10.05;54.45;0.77
DE;Germany;10.05;54.55;0.16
DE;Germany;10.05;54.65;0.24
DE;Germany;10.05;54.75;0.01
DE;Germany;10.15;47.25;0.07
DE;Germany;10.15;47.35;0.25
DE;Germany;10.15;47.45;1.00
DE;Germany;10.15;47.55;1.00
DE;Germany;10.15;47.65;1.00
DE;Germany;10.15;47.75;1.00
DE;Germany;10.15;47.85;1.00
DE;Germany;10.15;47.95;1.00
DE;Germany;10.15;48.05;1.00
DE;Germany;10.15;48.15;1.00
DE;Germany;10.15;48.25;1.00
DE;Germany;10.15;48.35;1.00
DE;Germany;10.15;48.45;1.00
DE;Germany;10.15;48.55;1.00
DE;Germany;10.15;48.65;1.00
DE;Germany;10.15;48.75;1.00
DE;Germany;10.15;48.85;1.00
DE;Germany;10.15;48.95;1.00
DE;Germany;10.15;49.05;1.00
DE;Germany;10.15;49.15;1.00
DE;Germany;10.15;49.25;1.00
DE;Germany;10.15;49.35;1.00
DE;Germany;10.15;49.45;1.00
DE;Germany;10.15;49.55;1.00
DE;Germany;10.15;49.65;1.00
DE;Germany;10.15;49.75;1.00
DE;Germany;10.15;49.85;1.00
DE;Germany;10.15;49.95;1.00
DE;Germany;10.15;50.05;1.00
DE;Germany;10.15;50.15;1.00
DE;Germany;10.15;50.25;1.00
DE;Germany;10.15;50.35;1.00
DE;Germany;10.15;50.45;1.00
DE;Germany;10.15;50.55;1.00
DE;Germany;10.15;50.65;1.00
DE;Germany;10.15;50.75;1.00
DE;Germany;10.15;50.85;1.00
DE;Germany;10.15;50.95;1.00
DE;Germany;10.15;51.05;1.00
DE;Germany;10.15;51.15;1.00
DE;Germany;10.15;51.25;1.00
DE;Germany;10.15;51.35;1.00
DE;Germany;10.15;51.45;1.00
DE;Germany;10.15;51.55;1.00
DE;Germany;10.15;51.65;1.00
DE;Germany;10.15;51.75;1.00
DE;Germany;10.15;51.85;1.00
DE;Germany;10.15;51.95;1.00
DE;Germany;10.15;52.05;1.00
DE;Germany;10.15;52.15;1.00
DE;Germany;10.15;52.25;1.00
DE;Germany;10.15;52.35;1.00
DE;Germany;10.15;52.45;1.00
DE;Germany;10.15;52.55;1.00
DE;Germany;10.15;52.65;1.00
DE;Germany;10.15;52.75;1.00
DE;Germany;10.15;52.85;1.00
DE;Germany;10.15;52.95;1.00
DE;Germany;10.15;53.05;1.00
DE;Germany;10.15;53.15;1.00
DE;Germany;10.15;53.25;1.00
DE;Germany;10.15;53.35;1.00
DE;Germany;10.15;53.45;1.00
DE;Germany;10.15;53.55;1.00
DE;Germany;10.15;53.65;1.00
DE;Germany;10.15;53.75;1.00
DE;Germany;10.15;53.85;1.00
DE;Germany;10.15;53.95;1.00
DE;Germany;10.15;54.05;1.00
DE;Germany;10.15;54.15;1.00
DE;Germany;10.15;54.25;1.00
DE;Germany;10.15;54.35;0.78
DE;Germany;10.15;54.45;0.66
DE;Germany;10.25;47.25;0.19
DE;Germany;10.25;47.35;0.89
DE;Germany;10.25;47.45;1.00
DE;Germany;10.25;47.55;1.00
DE;Germany;10.25;47.65;1.00
DE;Germany;10.25;47.75;1.00
DE;Germany;10.25;47.85;1.00
DE;Germany;10.25;47.95;1.00
DE;Germany;10.25;48.05;1.00
DE;Germany;10.25;48.15;1.00
DE;Germany;10.25;48.25;1.00
DE;Germany;10.25;48.35;1.00
DE;Germany;10.25;48.45;1.00
DE;Germany;10.25;48.55;1.00
DE;Germany;10.25;48.65;1.00
DE;Germany;10.25;48.75;1.00
DE;Germany;10.25;48.85;1.00
DE;Germany;10.25;48.95;1.00
DE;Germany;10.25;49.05;1.00
DE;Germany;10.25;49.15;1.00
DE;Germany;10.25;49.25;1.00
DE;Germany;10.25;49.35;1.00
DE;Germany;10.25;49.45;1.00
DE;Germany;10.25;49.55;1.00
DE;Germany;10.25;49.65;1.00
DE;Germany;10.25;49.75;1.00
DE;Germany;10.25;49.85;1.00
DE;Germany;10.25;49.95;1.00
DE;Germany;10.25;50.05;1.00
DE;Germany;10.25;50.15;1.00
DE;Germany;10.25;50.25;1.00
DE;Germany;10.25;50.35;1.00
DE;Germany;10.25;50.45;1.00
DE;Germany;10.25;50.55;1.00
DE;Germany;10.25;50.65;1.00
DE;Germany;10.25;50.75;1.00
DE;Germany;10.25;50.85;1.00
DE;Germany;10.25;50.95;1.00
DE;Germany;10.25;51.05;1.00
DE;Germany;10.25;51.15;1.00
DE;Germany;10.25;51.25;1.00
DE;Germany;10.25;51.35;1.00
DE;Germany;10.25;51.45;1.00
DE;Germany;10.25;51.55;1.00
DE;Germany;10.25;51.65;1.00
DE;Germany;10.25;51.75;1.00
DE;Germany;10.25;51.85;1.00
DE;Germany;10.25;51.95;1.00
DE;Germany;10.25;52.05;1.00
DE;Germany;10.25;52.15;1.00
DE;Germany;10.25;52.25;1.00
DE;Germany;10.25;52.35;1.00
DE;Germany;10.25;52.45;1.00
DE;Germany;10.25;52.55;1.00
DE;Germany;10.25;52.65;1.00
DE;Germany;10.25;52.75;1.00
DE;Germany;10.25;52.85;1.00
DE;Germany;10.25;52.95;1.00
DE;Germany;10.25;53.05;1.00
DE;Germany;10.25;53.15;1.00
DE;Germany;10.25;53.25;1.00
DE;Germany;10.25;53.35;1.00
DE;Germany;10.25;53.45;1.00
DE;Germany;10.25;53.55;1.00
DE;Germany;10.25;53.65;1.00
DE;Germany;10.25;53.75;1.00
DE;Germany;10.25;53.85;1.00
DE;Germany;10.25;53.95;1.00
DE;Germany;10.25;54.05;1.00
DE;Germany;10.25;54.15;1.00
DE;Germany;10.25;54.25;1.00
DE;Germany;10.25;54.35;0.98
DE;Germany;10.25;54.45;0.15
DE;Germany;10.35;47.25;0.00
DE;Germany;10.35;47.35;0.69
DE;Germany;10.35;47.45;1.00
DE;Germany;10.35;47.55;1.00
DE;Germany;10.35;47.65;1.00
DE;Germany;10.35;47.75;1.00
DE;Germany;10.35;47.85;1.00
DE;Germany;10.35;47.95;1.00
DE;Germany;10.35;48.05;1.00
DE;Germany;10.35;48.15;1.00
DE;Germany;10.35;48.25;1.00
DE;Germany;10.35;48.35;1.00
DE;Germany;10.35;48.45;1.00
DE;Germany;10.35;48.55;1.00
DE;Germany;10.35;48.65;1.00
DE;Germany;10.35;48.75;1.00
DE;Germany;10.35;48.85;1.00
DE;Germany;10.35;48.95;1.00
DE;Germany;10.35;49.05;1.00
DE;Germany;10.35;49.15;1.00
DE;Germany;10.35;49.25;1.00
DE;Germany;10.35;49.35;1.00
DE;Germany;10.35;49.45;1.00
DE;Germany;10.35;49.55;1.00
DE;Germany;10.35;49.65;1.00
DE;Germany;10.35;49.75;1.00
DE;Germany;10.35;49.85;1.00
DE;Germany;10.35;49.95;1.00
DE;Germany;10.35;50.05;1.00
DE;Germany;10.35;50.15;1.00
DE;Germany;10.35;50.25;1.00
DE;Germany;10.35;50.35;1.00
DE;Germany;10.35;50.45;1.00
DE;Germany;10.35;50.55;1.00
DE;Germany;10.35;50.65;1.00
DE;Germany;10.35;50.75;1.00
DE;Germany;10.35;50.85;1.00
DE;Germany;10.35;50.95;1.00
DE;Germany;10.35;51.05;1.00
DE;Germany;10.35;51.15;1.00
DE;Germany;10.35;51.25;1.00
DE;Germany;10.35;51.35;1.00
DE;Germany;10.35;51.45;1.00
DE;Germany;10.35;51.55;1.00
DE;Germany;10.35;51.65;1.00
DE;Germany;10.35;51.75;1.00
DE;Germany;10.35;51.85;1.00
DE;Germany;10.35;51.95;1.00
DE;Germany;10.35;52.05;1.00
DE;Germany;10.35;52.15;1.00
DE;Germany;10.35;52.25;1.00
DE;Germany;10.35;52.35;1.00
DE;Germany;10.35;52.45;1.00
DE;Germany;10.35;52.55;1.00
DE;Germany;10.35;52.65;1.00
DE;Germany;10.35;52.75;1.00
DE;Germany;10.35;52.85;1.00
DE;Germany;10.35;52.95;1.00
DE;Germany;10.35;53.05;1.00
DE;Germany;10.35;53.15;1.00
DE;Germany;10.35;53.25;1.00
DE;Germany;10.35;53.35;1.00
DE;Germany;10.35;53.45;1.00
DE;Germany;10.35;53.55;1.00
DE;Germany;10.35;53.65;1.00
DE;Germany;10.35;53.75;1.00
DE;Germany;10.35;53.85;1.00
DE;Germany;10.35;53.95;1.00
DE;Germany;10.35;54.05;1.00
DE;Germany;10.35;54.15;1.00
DE;Germany;10.35;54.25;1.00
DE;Germany;10.35;54.35;1.00
DE;Germany;10.35;54.45;0.32
DE;Germany;10.45;47.35;0.05
DE;Germany;10.45;47.45;0.55
DE;Germany;10.45;47.55;0.60
DE;Germany;10.45;47.65;1.00
DE;Germany;10.45;47.75;1.00
DE;Germany;10.45;47.85;1.00
DE;Germany;10.45;47.95;1.00
DE;Germany;10.45;48.05;1.00
DE;Germany;10.45;48.15;1.00
DE;Germany;10.45;48.25;1.00
DE;Germany;10.45;48.35;1.00
DE;Germany;10.45;48.45;1.00
DE;Germany;10.45;48.55;1.00
DE;Germany;10.45;48.65;1.00
DE;Germany;10.45;48.75;1.00
DE;Germany;10.45;48.85;1.00
DE;Germany;10.45;48.95;1.00
DE;Germany;10.45;49.05;1.00
DE;Germany;10.45;49.15;1.00
DE;Germany;10.45;49.25;1.00
DE;Germany;10.45;49.35;1.00
DE;Germany;10.45;49.45;1.00
DE;Germany;10.45;49.55;1.00
DE;Germany;10.45;49.65;1.00
DE;Germany;10.45;49.75;1.00
DE;Germany;10.45;49.85;1.00
DE;Germany;10.45;49.95;1.00
DE;Germany;10.45;50.05;1.00
DE;Germany;10.45;50.15;1.00
DE;Germany;10.45;50.25;1.00
DE;Germany;10.45;50.35;1.00
DE;Germany;10.45;50.45;1.00
DE;Germany;10.45;50.55;1.00
DE;Germany;10.45;50.65;1.00
DE;Germany;10.45;50.75;1.00
DE;Germany;10.45;50.85;1.00
DE;Germany;10.45;50.95;1.00
DE;Germany;10.45;51.05;1.00
DE;Germany;10.45;51.15;1.00
DE;Germany;10.45;51.25;1.00
DE;Germany;10.45;51.35;1.00
DE;Germany;10.45;51.45;1.00
DE;Germany;10.45;51.55;1.00
DE;Germany;10.45;51.65;1.00
DE;Germany;10.45;51.75;1.00
DE;Germany;10.45;51.85;1.00
DE;Germany;10.45;51.95;1.00
DE;Germany;10.45;52.05;1.00
DE;Germany;10.45;52.15;1.00
DE;Germany;10.45;52.25;1.00
DE;Germany;10.45;52.35;1.00
DE;Germany;10.45;52.45;1.00
DE;Germany;10.45;52.55;1.00
DE;Germany;10.45;52.65;1.00
DE;Germany;10.45;52.75;1.00
DE;Germany;10.45;52.85;1.00
DE;Germany;10.45;52.95;1.00
DE;Germany;10.45;53.05;1.00
DE;Germany;10.45;53.15;1.00
DE;Germany;10.45;53.25;1.00
DE;Germany;10.45;53.35;1.00
DE;Germany;10.45;53.45;1.00
DE;Germany;10.45;53.55;1.00
DE;Germany;10.45;53.65;1.00
DE;Germany;10.45;53.75;1.00
DE;Germany;10.45;53.85;1.00
DE;Germany;10.45;53.95;1.00
DE;Germany;10.45;54.05;1.00
DE;Germany;10.45;54.15;1.00
DE;Germany;10.45;54.25;1.00
DE;Germany;10.45;54.35;0.97
DE;Germany;10.45;54.45;0.06
DE;Germany;10.55;47.55;0.55
DE;Germany;10.55;47.65;1.00
DE;Germany;10.55;47.75;1.00
DE;Germany;10.55;47.85;1.00
DE;Germany;10.55;47.95;1.00
DE;Germany;10.55;48.05;1.00
DE;Germany;10.55;48.15;1.00
DE;Germany;10.55;48.25;1.00
DE;Germany;10.55;48.35;1.00
DE;Germany;10.55;48.45;1.00
DE;Germany;10.55;48.55;1.00
DE;Germany;10.55;48.65;1.00
DE;Germany;10.55;48.75;1.00
DE;Germany;10.55;48.85;1.00
DE;Germany;10.55;48.95;1.00
DE;Germany;10.55;49.05;1.00
DE;Germany;10.55;49.15;1.00
DE;Germany;10.55;49.25;1.00
DE;Germany;10.55;49.35;1.00
DE;Germany;10.55;49.45;1.00
DE;Germany;10.55;49.55;1.00
DE;Germany;10.55;49.65;1.00
DE;Germany;10.55;49.75;1.00
DE;Germany;10.55;49.85;1.00
DE;Germany;10.55;49.95;1.00
DE;Germany;10.55;50.05;1.00
DE;Germany;10.55;50.15;1.00
DE;Germany;10.55;50.25;1.00
DE;Germany;10.55;50.35;1.00
DE;Germany;10.55;50.45;1.00
DE;Germany;10.55;50.55;1.00
DE;Germany;10.55;50.65;1.00
DE;Germany;10.55;50.75;1.00
DE;Germany;10.55;50.85;1.00
DE;Germany;10.55;50.95;1.00
DE;Germany;10.55;51.05;1.00
DE;Germany;10.55;51.15;1.00
DE;Germany;10.55;51.25;1.00
DE;Germany;10.55;51.35;1.00
DE;Germany;10.55;51.45;1.00
DE;Germany;10.55;51.55;1.00
DE;Germany;10.55;51.65;1.00
DE;Germany;10.55;51.75;1.00
DE;Germany;10.55;51.85;1.00
DE;Germany;10.55;51.95;1.00
DE;Germany;10.55;52.05;1.00
DE;Germany;10.55;52.15;1.00
DE;Germany;10.55;52.25;1.00
DE;Germany;10.55;52.35;1.00
DE;Germany;10.55;52.45;1.00
DE;Germany;10.55;52.55;1.00
DE;Germany;10.55;52.65;1.00
DE;Germany;10.55;52.75;1.00
DE;Germany;10.55;52.85;1.00
DE;Germany;10.55;52.95;1.00
DE;Germany;10.55;53.05;1.00
DE;Germany;10.55;53.15;1.00
DE;Germany;10.55;53.25;1.00
DE;Germany;10.55;53.35;1.00
DE;Germany;10.55;53.45;1.00
DE;Germany;10.55;53.55;1.00
DE;Germany;10.55;53.65;1.00
DE;Germany;10.55;53.75;1.00
DE;Germany;10.55;53.85;1.00
DE;Germany;10.55;53.95;1.00
DE;Germany;10.55;54.05;1.00
DE;Germany;10.55;54.15;1.00
DE;Germany;10.55;54.25;1.00
DE;Germany;10.55;54.35;0.76
DE;Germany;10.65;47.55;0.38
DE;Germany;10.65;47.65;1.00
DE;Germany;10.65;47.75;1.00
DE;Germany;10.65;47.85;1.00
DE;Germany;10.65;47.95;1.00
DE;Germany;10.65;48.05;1.00
DE;Germany;10.65;48.15;1.00
DE;Germany;10.65;48.25;1.00
DE;Germany;10.65;48.35;1.00
DE;Germany;10.65;48.45;1.00
DE;Germany;10.65;48.55;1.00
DE;Germany;10.65;48.65;1.00
DE;Germany;10.65;48.75;1.00
DE;Germany;10.65;48.85;1.00
DE;Germany;10.65;48.95;1.00
DE;Germany;10.65;49.05;1.00
DE;Germany;10.65;49.15;1.00
DE;Germany;10.65;49.25;1.00
DE;Germany;10.65;49.35;1.00
DE;Germany;10.65;49.45;1.00
DE;Germany;10.65;49.55;1.00
DE;Germany;10.65;49.65;1.00
DE;Germany;10.65;49.75;1.00
DE;Germany;10.65;49.85;1.00
DE;Germany;10.65;49.95;1.00
DE;Germany;10.65;50.05;1.00
DE;Germany;10.65;50.15;1.00
DE;Germany;10.65;50.25;1.00
DE;Germany;10.65;50.35;1.00
DE;Germany;10.65;50.45;1.00
DE;Germany;10.65;50.55;1.00
DE;Germany;10.65;50.65;1.00
DE;Germany;10.65;50.75;1.00
DE;Germany;10.65;50.85;1.00
DE;Germany;10.65;50.95;1.00
DE;Germany;10.65;51.05;1.00
DE;Germany;10.65;51.15;1.00
DE;Germany;10.65;51.25;1.00
DE;Germany;10.65;51.35;1.00
DE;Germany;10.65;51.45;1.00
DE;Germany;10.65;51.55;1.00
DE;Germany;10.65;51.65;1.00
DE;Germany;10.65;51.75;1.00
DE;Germany;10.65;51.85;1.00
DE;Germany;10.65;51.95;1.00
DE;Germany;10.65;52.05;1.00
DE;Germany;10.65;52.15;1.00
DE;Germany;10.65;52.25;1.00
DE;Germany;10.65;52.35;1.00
DE;Germany;10.65;52.45;1.00
DE;Germany;10.65;52.55;1.00
DE;Germany;10.65;52.65;1.00
DE;Germany;10.65;52.75;1.00
DE;Germany;10.65;52.85;1.00
DE;Germany;10.65;52.95;1.00
DE;Germany;10.65;53.05;1.00
DE;Germany;10.65;53.15;1.00
DE;Germany;10.65;53.25;1.00
DE;Germany;10.65;53.35;1.00
DE;Germany;10.65;53.45;1.00
DE;Germany;10.65;53.55;1.00
DE;Germany;10.65;53.65;1.00
DE;Germany;10.65;53.75;1.00
DE;Germany;10.65;53.85;1.00
DE;Germany;10.65;53.95;1.00
DE;Germany;10.65;54.05;1.00
DE;Germany;10.65;54.15;1.00
DE;Germany;10.65;54.25;1.00
DE;Germany;10.65;54.35;0.36
DE;Germany;10.75;47.55;0.68
DE;Germany;10.75;47.65;1.00
DE;Germany;10.75;47.75;1.00
DE;Germany;10.75;47.85;1.00
DE;Germany;10.75;47.95;1.00
DE;Germany;10.75;48.05;1.00
DE;Germany;10.75;48.15;1.00
DE;Germany;10.75;48.25;1.00
DE;Germany;10.75;48.35;1.00
DE;Germany;10.75;48.45;1.00
DE;Germany;10.75;48.55;1.00
DE;Germany;10.75;48.65;1.00
DE;Germany;10.75;48.75;1.00
DE;Germany;10.75;48.85;1.00
DE;Germany;10.75;48.95;1.00
DE;Germany;10.75;49.05;1.00
DE;Germany;10.75;49.15;1.00
DE;Germany;10.75;49.25;1.00
DE;Germany;10.75;49.35;1.00
DE;Germany;10.75;49.45;1.00
DE;Germany;10.75;49.55;1.00
DE;Germany;10.75;49.65;1.00
DE;Germany;10.75;49.75;1.00
DE;Germany;10.75;49.85;1.00
DE;Germany;10.75;49.95;1.00
DE;Germany;10.75;50.05;1.00
DE;Germany;10.75;50.15;1.00
DE;Germany;10.75;50.25;1.00
DE;Germany;10.75;50.35;1.00
DE;Germany;10.75;50.45;1.00
DE;Germany;10.75;50.55;1.00
DE;Germany;10.75;50.65;1.00
DE;Germany;10.75;50.75;1.00
DE;Germany;10.75;50.85;1.00
DE;Germany;10.75;50.95;1.00
DE;Germany;10.75;51.05;1.00
DE;Germany;10.75;51.15;1.00
DE;Germany;10.75;51.25;1.00
DE;Germany;10.75;51.35;1.00
DE;Germany;10.75;51.45;1.00
DE;Germany;10.75;51.55;1.00
DE;Germany;10.75;51.65;1.00
DE;Germany;10.75;51.75;1.00
DE;Germany;10.75;51.85;1.00
DE;Germany;10.75;51.95;1.00
DE;Germany;10.75;52.05;1.00
DE;Germany;10.75;52.15;1.00
DE;Germany;10.75;52.25;1.00
DE;Germany;10.75;52.35;1.00
DE;Germany;10.75;52.45;1.00
DE;Germany;10.75;52.55;1.00
DE;Germany;10.75;52.65;1.00
DE;Germany;10.75;52.75;1.00
DE;Germany;10.75;52.85;1.00
DE;Germany;10.75;52.95;1.00
DE;Germany;10.75;53.05;1.00
DE;Germany;10.75;53.15;1.00
DE;Germany;10.75;53.25;1.00
DE;Germany;10.75;53.35;1.00
DE;Germany;10.75;53.45;1.00
DE;Germany;10.75;53.55;1.00
DE;Germany;10.75;53.65;1.00
DE;Germany;10.75;53.75;1.00
DE;Germany;10.75;53.85;1.00
DE;Germany;10.75;53.95;0.99
DE;Germany;10.75;54.05;0.72
DE;Germany;10.75;54.15;1.00
DE;Germany;10.75;54.25;1.00
DE;Germany;10.75;54.35;0.08
DE;Germany;10.85;47.45;0.08
DE;Germany;10.85;47.55;0.69
DE;Germany;10.85;47.65;1.00
DE;Germany;10.85;47.75;1.00
DE;Germany;10.85;47.85;1.00
DE;Germany;10.85;47.95;1.00
DE;Germany;10.85;48.05;1.00
DE;Germany;10.85;48.15;1.00
DE;Germany;10.85;48.25;1.00
DE;Germany;10.85;48.35;1.00
DE;Germany;10.85;48.45;1.00
DE;Germany;10.85;48.55;1.00
DE;Germany;10.85;48.65;1.00
DE;Germany;10.85;48.75;1.00
DE;Germany;10.85;48.85;1.00
DE;Germany;10.85;48.95;1.00
DE;Germany;10.85;49.05;1.00
DE;Germany;10.85;49.15;1.00
DE;Germany;10.85;49.25;1.00
DE;Germany;10.85;49.35;1.00
DE;Germany;10.85;49.45;1.00
DE;Germany;10.85;49.55;1.00
DE;Germany;10.85;49.65;1.00
DE;Germany;10.85;49.75;1.00
DE;Germany;10.85;49.85;1.00
DE;Germany;10.85;49.95;1.00
DE;Germany;10.85;50.05;1.00
DE;Germany;10.85;50.15;1.00
DE;Germany;10.85;50.25;1.00
DE;Germany;10.85;50.35;1.00
DE;Germany;10.85;50.45;1.00
DE;Germany;10.85;50.55;1.00
DE;Germany;10.85;50.65;1.00
DE;Germany;10.85;50.75;1.00
DE;Germany;10.85;50.85;1.00
DE;Germany;10.85;50.95;1.00
DE;Germany;10.85;51.05;1.00
DE;Germany;10.85;51.15;1.00
DE;Germany;10.85;51.25;1.00
DE;Germany;10.85;51.35;1.00
DE;Germany;10.85;51.45;1.00
DE;Germany;10.85;51.55;1.00
DE;Germany;10.85;51.65;1.00
DE;Germany;10.85;51.75;1.00
DE;Germany;10.85;51.85;1.00
DE;Germany;10.85;51.95;1.00
DE;Germany;10.85;52.05;1.00
DE;Germany;10.85;52.15;1.00
DE;Germany;10.85;52.25;1.00
DE;Germany;10.85;52.35;1.00
DE;Germany;10.85;52.45;1.00
DE;Germany;10.85;52.55;1.00
DE;Germany;10.85;52.65;1.00
DE;Germany;10.85;52.75;1.00
DE;Germany;10.85;52.85;1.00
DE;Germany;10.85;52.95;1.00
DE;Germany;10.85;53.05;1.00
DE;Germany;10.85;53.15;1.00
DE;Germany;10.85;53.25;1.00
DE;Germany;10.85;53.35;1.00
DE;Germany;10.85;53.45;1.00
DE;Germany;10.85;53.55;1.00
DE;Germany;10.85;53.65;1.00
DE;Germany;10.85;53.75;1.00
DE;Germany;10.85;53.85;1.00
DE;Germany;10.85;53.95;0.86
DE;Germany;10.85;54.05;0.10
DE;Germany;10.85;54.15;1.00
DE;Germany;10.85;54.25;1.00
DE;Germany;10.85;54.35;0.43
DE;Germany;10.95;47.35;0.01
DE;Germany;10.95;47.45;0.59
DE;Germany;10.95;47.55;0.99
DE;Germany;10.95;47.65;1.00
DE;Germany;10.95;47.75;1.00
DE;Germany;10.95;47.85;1.00
DE;Germany;10.95;47.95;1.00
DE;Germany;10.95;48.05;1.00
DE;Germany;10.95;48.15;1.00
DE;Germany;10.95;48.25;1.00
DE;Germany;10.95;48.35;1.00
DE;Germany;10.95;48.45;1.00
DE;Germany;10.95;48.55;1.00
DE;Germany;10.95;48.65;1.00
DE;Germany;10.95;48.75;1.00
DE;Germany;10.95;48.85;1.00
DE;Germany;10.95;48.95;1.00
DE;Germany;10.95;49.05;1.00
DE;Germany;10.95;49.15;1.00
DE;Germany;10.95;49.25;1.00
DE;Germany;10.95;49.35;1.00
DE;Germany;10.95;49.45;1.00
DE;Germany;10.95;49.55;1.00
DE;Germany;10.95;49.65;1.00
DE;Germany;10.95;49.75;1.00
DE;Germany;10.95;49.85;1.00
DE;Germany;10.95;49.95;1.00
DE;Germany;10.95;50.05;1.00
DE;Germany;10.95;50.15;1.00
DE;Germany;10.95;50.25;1.00
DE;Germany;10.95;50.35;1.00
DE;Germany;10.95;50.45;1.00
DE;Germany;10.95;50.55;1.00
DE;Germany;10.95;50.65;1.00
DE;Germany;10.95;50.75;1.00
DE;Germany;10.95;50.85;1.00
DE;Germany;10.95;50.95;1.00
DE;Germany;10.95;51.05;1.00
DE;Germany;10.95;51.15;1.00
DE;Germany;10.95;51.25;1.00
DE;Germany;10.95;51.35;1.00
DE;Germany;10.95;51.45;1.00
DE;Germany;10.95;51.55;1.00
DE;Germany;10.95;51.65;1.00
DE;Germany;10.95;51.75;1.00
DE;Germany;10.95;51.85;1.00
DE;Germany;10.95;51.95;1.00
DE;Germany;10.95;52.05;1.00
DE;Germany;10.95;52.15;1.00
DE;Germany;10.95;52.25;1.00
DE;Germany;10.95;52.35;1.00
DE;Germany;10.95;52.45;1.00
DE;Germany;10.95;52.55;1.00
DE;Germany;10.95;52.65;1.00
DE;Germany;10.95;52.75;1.00
DE;Germany;10.95;52.85;1.00
DE;Germany;10.95;52.95;1.00
DE;Germany;10.95;53.05;1.00
DE;Germany;10.95;53.15;1.00
DE;Germany;10.95;53.25;1.00
DE;Germany;10.95;53.35;1.00
DE;Germany;10.95;53.45;1.00
DE;Germany;10.95;53.55;1.00
DE;Germany;10.95;53.65;1.00
DE;Germany;10.95;53.75;1.00
DE;Germany;10.95;53.85;1.00
DE;Germany;10.95;53.95;0.73
DE;Germany;10.95;54.15;0.67
DE;Germany;10.95;54.25;1.00
DE;Germany;10.95;54.35;0.79
DE;Germany;11.05;47.35;0.03
DE;Germany;11.05;47.45;1.00
DE;Germany;11.05;47.55;1.00
DE;Germany;11.05;47.65;1.00
DE;Germany;11.05;47.75;1.00
DE;Germany;11.05;47.85;1.00
DE;Germany;11.05;47.95;1.00
DE;Germany;11.05;48.05;1.00
DE;Germany;11.05;48.15;1.00
DE;Germany;11.05;48.25;1.00
DE;Germany;11.05;48.35;1.00
DE;Germany;11.05;48.45;1.00
DE;Germany;11.05;48.55;1.00
DE;Germany;11.05;48.65;1.00
DE;Germany;11.05;48.75;1.00
DE;Germany;11.05;48.85;1.00
DE;Germany;11.05;48.95;1.00
DE;Germany;11.05;49.05;1.00
DE;Germany;11.05;49.15;1.00
DE;Germany;11.05;49.25;1.00
DE;Germany;11.05;49.35;1.00
DE;Germany;11.05;49.45;1.00
DE;Germany;11.05;49.55;1.00
DE;Germany;11.05;49.65;1.00
DE;Germany;11.05;49.75;1.00
DE;Germany;11.05;49.85;1.00
DE;Germany;11.05;49.95;1.00
DE;Germany;11.05;50.05;1.00
DE;Germany;11.05;50.15;1.00
DE;Germany;11.05;50.25;1.00
DE;Germany;11.05;50.35;1.00
DE;Germany;11.05;50.45;1.00
DE;Germany;11.05;50.55;1.00
DE;Germany;11.05;50.65;1.00
DE;Germany;11.05;50.75;1.00
DE;Germany;11.05;50.85;1.00
DE;Germany;11.05;50.95;1.00
DE;Germany;11.05;51.05;1.00
DE;Germany;11.05;51.15;1.00
DE;Germany;11.05;51.25;1.00
DE;Germany;11.05;51.35;1.00
DE;Germany;11.05;51.45;1.00
DE;Germany;11.05;51.55;1.00
DE;Germany;11.05;51.65;1.00
DE;Germany;11.05;51.75;1.00
DE;Germany;11.05;51.85;1.00
DE;Germany;11.05;51.95;1.00
DE;Germany;11.05;52.05;1.00
DE;Germany;11.05;52.15;1.00
DE;Germany;11.05;52.25;1.00
DE;Germany;11.05;52.35;1.00
DE;Germany;11.05;52.45;1.00
DE;Germany;11.05;52.55;1.00
DE;Germany;11.05;52.65;1.00
DE;Germany;11.05;52.75;1.00
DE;Germany;11.05;52.85;1.00
DE;Germany;11.05;52.95;1.00
DE;Germany;11.05;53.05;1.00
DE;Germany;11.05;53.15;1.00
DE;Germany;11.05;53.25;1.00
DE;Germany;11.05;53.35;1.00
DE;Germany;11.05;53.45;1.00
DE;Germany;11.05;53.55;1.00
DE;Germany;11.05;53.65;1.00
DE;Germany;11.05;53.75;1.00
DE;Germany;11.05;53.85;1.00
DE;Germany;11.05;53.95;0.99
DE;Germany;11.05;54.05;0.07
DE;Germany;11.05;54.15;0.20
DE;Germany;11.05;54.25;0.85
DE;Germany;11.05;54.35;0.60
DE;Germany;11.05;54.45;0.50
DE;Germany;11.05;54.55;0.20
DE;Germany;11.15;47.35;0.00
DE;Germany;11.15;47.45;0.81
DE;Germany;11.15;47.55;1.00
DE;Germany;11.15;47.65;1.00
DE;Germany;11.15;47.75;1.00
DE;Germany;11.15;47.85;1.00
DE;Germany;11.15;47.95;1.00
DE;Germany;11.15;48.05;1.00
DE;Germany;11.15;48.15;1.00
DE;Germany;11.15;48.25;1.00
DE;Germany;11.15;48.35;1.00
DE;Germany;11.15;48.45;1.00
DE;Germany;11.15;48.55;1.00
DE;Germany;11.15;48.65;1.00
DE;Germany;11.15;48.75;1.00
DE;Germany;11.15;48.85;1.00
DE;Germany;11.15;48.95;1.00
DE;Germany;11.15;49.05;1.00
DE;Germany;11.15;49.15;1.00
DE;Germany;11.15;49.25;1.00
DE;Germany;11.15;49.35;1.00
DE;Germany;11.15;49.45;1.00
DE;Germany;11.15;49.55;1.00
DE;Germany;11.15;49.65;1.00
DE;Germany;11.15;49.75;1.00
DE;Germany;11.15;49.85;1.00
DE;Germany;11.15;49.95;1.00
DE;Germany;11.15;50.05;1.00
DE;Germany;11.15;50.15;1.00
DE;Germany;11.15;50.25;1.00
DE;Germany;11.15;50.35;1.00
DE;Germany;11.15;50.45;1.00
DE;Germany;11.15;50.55;1.00
DE;Germany;11.15;50.65;1.00
DE;Germany;11.15;50.75;1.00
DE;Germany;11.15;50.85;1.00
DE;Germany;11.15;50.95;1.00
DE;Germany;11.15;51.05;1.00
DE;Germany;11.15;51.15;1.00
DE;Germany;11.15;51.25;1.00
DE;Germany;11.15;51.35;1.00
DE;Germany;11.15;51.45;1.00
DE;Germany;11.15;51.55;1.00
DE;Germany;11.15;51.65;1.00
DE;Germany;11.15;51.75;1.00
DE;Germany;11.15;51.85;1.00
DE;Germany;11.15;51.95;1.00
DE;Germany;11.15;52.05;1.00
DE;Germany;11.15;52.15;1.00
DE;Germany;11.15;52.25;1.00
DE;Germany;11.15;52.35;1.00
DE;Germany;11.15;52.45;1.00
DE;Germany;11.15;52.55;1.00
DE;Germany;11.15;52.65;1.00
DE;Germany;11.15;52.75;1.00
DE;Germany;11.15;52.85;1.00
DE;Germany;11.15;52.95;1.00
DE;Germany;11.15;53.05;1.00
DE;Germany;11.15;53.15;1.00
DE;Germany;11.15;53.25;1.00
DE;Germany;11.15;53.35;1.00
DE;Germany;11.15;53.45;1.00
DE;Germany;11.15;53.55;1.00
DE;Germany;11.15;53.65;1.00
DE;Germany;11.15;53.75;1.00
DE;Germany;11.15;53.85;1.00
DE;Germany;11.15;53.95;1.00
DE;Germany;11.15;54.05;0.11
DE;Germany;11.15;54.35;0.07
DE;Germany;11.15;54.45;0.93
DE;Germany;11.15;54.55;0.22
DE;Germany;11.25;47.35;0.05
DE;Germany;11.25;47.45;0.83
DE;Germany;11.25;47.55;1.00
DE;Germany;11.25;47.65;1.00
DE;Germany;11.25;47.75;1.00
DE;Germany;11.25;47.85;1.00
DE;Germany;11.25;47.95;1.00
DE;Germany;11.25;48.05;1.00
DE;Germany;11.25;48.15;1.00
DE;Germany;11.25;48.25;1.00
DE;Germany;11.25;48.35;1.00
DE;Germany;11.25;48.45;1.00
DE;Germany;11.25;48.55;1.00
DE;Germany;11.25;48.65;1.00
DE;Germany;11.25;48.75;1.00
DE;Germany;11.25;48.85;1.00
DE;Germany;11.25;48.95;1.00
DE;Germany;11.25;49.05;1.00
DE;Germany;11.25;49.15;1.00
DE;Germany;11.25;49.25;1.00
DE;Germany;11.25;49.35;1.00
DE;Germany;11.25;49.45;1.00
DE;Germany;11.25;49.55;1.00
DE;Germany;11.25;49.65;1.00
DE;Germany;11.25;49.75;1.00
DE;Germany;11.25;49.85;1.00
DE;Germany;11.25;49.95;1.00
DE;Germany;11.25;50.05;1.00
DE;Germany;11.25;50.15;1.00
DE;Germany;11.25;50.25;1.00
DE;Germany;11.25;50.35;1.00
DE;Germany;11.25;50.45;1.00
DE;Germany;11.25;50.55;1.00
DE;Germany;11.25;50.65;1.00
DE;Germany;11.25;50.75;1.00
DE;Germany;11.25;50.85;1.00
DE;Germany;11.25;50.95;1.00
DE;Germany;11.25;51.05;1.00
DE;Germany;11.25;51.15;1.00
DE;Germany;11.25;51.25;1.00
DE;Germany;11.25;51.35;1.00
DE;Germany;11.25;51.45;1.00
DE;Germany;11.25;51.55;1.00
DE;Germany;11.25;51.65;1.00
DE;Germany;11.25;51.75;1.00
DE;Germany;11.25;51.85;1.00
DE;Germany;11.25;51.95;1.00
DE;Germany;11.25;52.05;1.00
DE;Germany;11.25;52.15;1.00
DE;Germany;11.25;52.25;1.00
DE;Germany;11.25;52.35;1.00
DE;Germany;11.25;52.45;1.00
DE;Germany;11.25;52.55;1.00
DE;Germany;11.25;52.65;1.00
DE;Germany;11.25;52.75;1.00
DE;Germany;11.25;52.85;1.00
DE;Germany;11.25;52.95;1.00
DE;Germany;11.25;53.05;1.00
DE;Germany;11.25;53.15;1.00
DE;Germany;11.25;53.25;1.00
DE;Germany;11.25;53.35;1.00
DE;Germany;11.25;53.45;1.00
DE;Germany;11.25;53.55;1.00
DE;Germany;11.25;53.65;1.00
DE;Germany;11.25;53.75;1.00
DE;Germany;11.25;53.85;1.00
DE;Germany;11.25;53.95;0.58
DE;Germany;11.25;54.45;0.66
DE;Germany;11.25;54.55;0.02
DE;Germany;11.35;47.45;0.54
DE;Germany;11.35;47.55;1.00
DE;Germany;11.35;47.65;1.00
DE;Germany;11.35;47.75;1.00
DE;Germany;11.35;47.85;1.00
DE;Germany;11.35;47.95;1.00
DE;Germany;11.35;48.05;1.00
DE;Germany;11.35;48.15;1.00
DE;Germany;11.35;48.25;1.00
DE;Germany;11.35;48.35;1.00
DE;Germany;11.35;48.45;1.00
DE;Germany;11.35;48.55;1.00
DE;Germany;11.35;48.65;1.00
DE;Germany;11.35;48.75;1.00
DE;Germany;11.35;48.85;1.00
DE;Germany;11.35;48.95;1.00
DE;Germany;11.35;49.05;1.00
DE;Germany;11.35;49.15;1.00
DE;Germany;11.35;49.25;1.00
DE;Germany;11.35;49.35;1.00
DE;Germany;11.35;49.45;1.00
DE;Germany;11.35;49.55;1.00
DE;Germany;11.35;49.65;1.00
DE;Germany;11.35;49.75;1.00
DE;Germany;11.35;49.85;1.00
DE;Germany;11.35;49.95;1.00
DE;Germany;11.35;50.05;1.00
DE;Germany;11.35;50.15;1.00
DE;Germany;11.35;50.25;1.00
DE;Germany;11.35;50.35;1.00
DE;Germany;11.35;50.45;1.00
DE;Germany;11.35;50.55;1.00
DE;Germany;11.35;50.65;1.00
DE;Germany;11.35;50.75;1.00
DE;Germany;11.35;50.85;1.00
DE;Germany;11.35;50.95;1.00
DE;Germany;11.35;51.05;1.00
DE;Germany;11.35;51.15;1.00
DE;Germany;11.35;51.25;1.00
DE;Germany;11.35;51.35;1.00
DE;Germany;11.35;51.45;1.00
DE;Germany;11.35;51.55;1.00
DE;Germany;11.35;51.65;1.00
DE;Germany;11.35;51.75;1.00
DE;Germany;11.35;51.85;1.00
DE;Germany;11.35;51.95;1.00
DE;Germany;11.35;52.05;1.00
DE;Germany;11.35;52.15;1.00
DE;Germany;11.35;52.25;1.00
DE;Germany;11.35;52.35;1.00
DE;Germany;11.35;52.45;1.00
DE;Germany;11.35;52.55;1.00
DE;Germany;11.35;52.65;1.00
DE;Germany;11.35;52.75;1.00
DE;Germany;11.35;52.85;1.00
DE;Germany;11.35;52.95;1.00
DE;Germany;11.35;53.05;1.00
DE;Germany;11.35;53.15;1.00
DE;Germany;11.35;53.25;1.00
DE;Germany;11.35;53.35;1.00
DE;Germany;11.35;53.45;1.00
DE;Germany;11.35;53.55;1.00
DE;Germany;11.35;53.65;1.00
DE;Germany;11.35;53.75;1.00
DE;Germany;11.35;53.85;1.00
DE;Germany;11.35;53.95;0.50
DE;Germany;11.35;54.05;0.01
DE;Germany;11.35;54.45;0.02
DE;Germany;11.45;47.45;0.05
DE;Germany;11.45;47.55;0.93
DE;Germany;11.45;47.65;1.00
DE;Germany;11.45;47.75;1.00
DE;Germany;11.45;47.85;1.00
DE;Germany;11.45;47.95;1.00
DE;Germany;11.45;48.05;1.00
DE;Germany;11.45;48.15;1.00
DE;Germany;11.45;48.25;1.00
DE;Germany;11.45;48.35;1.00
DE;Germany;11.45;48.45;1.00
DE;Germany;11.45;48.55;1.00
DE;Germany;11.45;48.65;1.00
DE;Germany;11.45;48.75;1.00
DE;Germany;11.45;48.85;1.00
DE;Germany;11.45;48.95;1.00
DE;Germany;11.45;49.05;1.00
DE;Germany;11.45;49.15;1.00
DE;Germany;11.45;49.25;1.00
DE;Germany;11.45;49.35;1.00
DE;Germany;11.45;49.45;1.00
DE;Germany;11.45;49.55;1.00
DE;Germany;11.45;49.65;1.00
DE;Germany;11.45;49.75;1.00
DE;Germany;11.45;49.85;1.00
DE;Germany;11.45;49.95;1.00
DE;Germany;11.45;50.05;1.00
DE;Germany;11.45;50.15;1.00
DE;Germany;11.45;50.25;1.00
DE;Germany;11.45;50.35;1.00
DE;Germany;11.45;50.45;1.00
DE;Germany;11.45;50.55;1.00
DE;Germany;11.45;50.65;1.00
DE;Germany;11.45;50.75;1.00
DE;Germany;11.45;50.85;1.00
DE;Germany;11.45;50.95;1.00
DE;Germany;11.45;51.05;1.00
DE;Germany;11.45;51.15;1.00
DE;Germany;11.45;51.25;1.00
DE;Germany;11.45;51.35;1.00
DE;Germany;11.45;51.45;1.00
DE;Germany;11.45;51.55;1.00
DE;Germany;11.45;51.65;1.00
DE;Germany;11.45;51.75;1.00
DE;Germany;11.45;51.85;1.00
DE;Germany;11.45;51.95;1.00
DE;Germany;11.45;52.05;1.00
DE;Germany;11.45;52.15;1.00
DE;Germany;11.45;52.25;1.00
DE;Germany;11.45;52.35;1.00
DE;Germany;11.45;52.45;1.00
DE;Germany;11.45;52.55;1.00
DE;Germany;11.45;52.65;1.00
DE;Germany;11.45;52.75;1.00
DE;Germany;11.45;52.85;1.00
DE;Germany;11.45;52.95;1.00
DE;Germany;11.45;53.05;1.00
DE;Germany;11.45;53.15;1.00
DE;Germany;11.45;53.25;1.00
DE;Germany;11.45;53.35;1.00
DE;Germany;11.45;53.45;1.00
DE;Germany;11.45;53.55;1.00
DE;Germany;11.45;53.65;1.00
DE;Germany;11.45;53.75;1.00
DE;Germany;11.45;53.85;1.00
DE;Germany;11.45;53.95;0.52
DE;Germany;11.45;54.05;0.18
DE;Germany;11.55;47.55;0.87
DE;Germany;11.55;47.65;1.00
DE;Germany;11.55;47.75;1.00
DE;Germany;11.55;47.85;1.00
DE;Germany;11.55;47.95;1.00
DE;Germany;11.55;48.05;1.00
DE;Germany;11.55;48.15;1.00
DE;Germany;11.55;48.25;1.00
DE;Germany;11.55;48.35;1.00
DE;Germany;11.55;48.45;1.00
DE;Germany;11.55;48.55;1.00
DE;Germany;11.55;48.65;1.00
DE;Germany;11.55;48.75;1.00
DE;Germany;11.55;48.85;1.00
DE;Germany;11.55;48.95;1.00
DE;Germany;11.55;49.05;1.00
DE;Germany;11.55;49.15;1.00
DE;Germany;11.55;49.25;1.00
DE;Germany;11.55;49.35;1.00
DE;Germany;11.55;49.45;1.00
DE;Germany;11.55;49.55;1.00
DE;Germany;11.55;49.65;1.00
DE;Germany;11.55;49.75;1.00
DE;Germany;11.55;49.85;1.00
DE;Germany;11.55;49.95;1.00
DE;Germany;11.55;50.05;1.00
DE;Germany;11.55;50.15;1.00
DE;Germany;11.55;50.25;1.00
DE;Germany;11.55;50.35;1.00
DE;Germany;11.55;50.45;1.00
DE;Germany;11.55;50.55;1.00
DE;Germany;11.55;50.65;1.00
DE;Germany;11.55;50.75;1.00
DE;Germany;11.55;50.85;1.00
DE;Germany;11.55;50.95;1.00
DE;Germany;11.55;51.05;1.00
DE;Germany;11.55;51.15;1.00
DE;Germany;11.55;51.25;1.00
DE;Germany;11.55;51.35;1.00
DE;Germany;11.55;51.45;1.00
DE;Germany;11.55;51.55;1.00
DE;Germany;11.55;51.65;1.00
DE;Germany;11.55;51.75;1.00
DE;Germany;11.55;51.85;1.00
DE;Germany;11.55;51.95;1.00
DE;Germany;11.55;52.05;1.00
DE;Germany;11.55;52.15;1.00
DE;Germany;11.55;52.25;1.00
DE;Germany;11.55;52.35;1.00
DE;Germany;11.55;52.45;1.00
DE;Germany;11.55;52.55;1.00
DE;Germany;11.55;52.65;1.00
DE;Germany;11.55;52.75;1.00
DE;Germany;11.55;52.85;1.00
DE;Germany;11.55;52.95;1.00
DE;Germany;11.55;53.05;1.00
DE;Germany;11.55;53.15;1.00
DE;Germany;11.55;53.25;1.00
DE;Germany;11.55;53.35;1.00
DE;Germany;11.55;53.45;1.00
DE;Germany;11.55;53.55;1.00
DE;Germany;11.55;53.65;1.00
DE;Germany;11.55;53.75;1.00
DE;Germany;11.55;53.85;1.00
DE;Germany;11.55;53.95;1.00
DE;Germany;11.55;54.05;0.45
DE;Germany;11.55;54.15;0.00
DE;Germany;11.65;47.55;0.14
DE;Germany;11.65;47.65;1.00
DE;Germany;11.65;47.75;1.00
DE;Germany;11.65;47.85;1.00
DE;Germany;11.65;47.95;1.00
DE;Germany;11.65;48.05;1.00
DE;Germany;11.65;48.15;1.00
DE;Germany;11.65;48.25;1.00
DE;Germany;11.65;48.35;1.00
DE;Germany;11.65;48.45;1.00
DE;Germany;11.65;48.55;1.00
DE;Germany;11.65;48.65;1.00
DE;Germany;11.65;48.75;1.00
DE;Germany;11.65;48.85;1.00
DE;Germany;11.65;48.95;1.00
DE;Germany;11.65;49.05;1.00
DE;Germany;11.65;49.15;1.00
DE;Germany;11.65;49.25;1.00
DE;Germany;11.65;49.35;1.00
DE;Germany;11.65;49.45;1.00
DE;Germany;11.65;49.55;1.00
DE;Germany;11.65;49.65;1.00
DE;Germany;11.65;49.75;1.00
DE;Germany;11.65;49.85;1.00
DE;Germany;11.65;49.95;1.00
DE;Germany;11.65;50.05;1.00
DE;Germany;11.65;50.15;1.00
DE;Germany;11.65;50.25;1.00
DE;Germany;11.65;50.35;1.00
DE;Germany;11.65;50.45;1.00
DE;Germany;11.65;50.55;1.00
DE;Germany;11.65;50.65;1.00
DE;Germany;11.65;50.75;1.00
DE;Germany;11.65;50.85;1.00
DE;Germany;11.65;50.95;1.00
DE;Germany;11.65;51.05;1.00
DE;Germany;11.65;51.15;1.00
DE;Germany;11.65;51.25;1.00
DE;Germany;11.65;51.35;1.00
DE;Germany;11.65;51.45;1.00
DE;Germany;11.65;51.55;1.00
DE;Germany;11.65;51.65;1.00
DE;Germany;11.65;51.75;1.00
DE;Germany;11.65;51.85;1.00
DE;Germany;11.65;51.95;1.00
DE;Germany;11.65;52.05;1.00
DE;Germany;11.65;52.15;1.00
DE;Germany;11.65;52.25;1.00
DE;Germany;11.65;52.35;1.00
DE;Germany;11.65;52.45;1.00
DE;Germany;11.65;52.55;1.00
DE;Germany;11.65;52.65;1.00
DE;Germany;11.65;52.75;1.00
DE;Germany;11.65;52.85;1.00
DE;Germany;11.65;52.95;1.00
DE;Germany;11.65;53.05;1.00
DE;Germany;11.65;53.15;1.00
DE;Germany;11.65;53.25;1.00
DE;Germany;11.65;53.35;1.00
DE;Germany;11.65;53.45;1.00
DE;Germany;11.65;53.55;1.00
DE;Germany;11.65;53.65;1.00
DE;Germany;11.65;53.75;1.00
DE;Germany;11.65;53.85;1.00
DE;Germany;11.65;53.95;1.00
DE;Germany;11.65;54.05;0.94
DE;Germany;11.65;54.15;0.32
DE;Germany;11.75;47.55;0.09
DE;Germany;11.75;47.65;1.00
DE;Germany;11.75;47.75;1.00
DE;Germany;11.75;47.85;1.00
DE;Germany;11.75;47.95;1.00
DE;Germany;11.75;48.05;1.00
DE;Germany;11.75;48.15;1.00
DE;Germany;11.75;48.25;1.00
DE;Germany;11.75;48.35;1.00
DE;Germany;11.75;48.45;1.00
DE;Germany;11.75;48.55;1.00
DE;Germany;11.75;48.65;1.00
DE;Germany;11.75;48.75;1.00
DE;Germany;11.75;48.85;1.00
DE;Germany;11.75;48.95;1.00
DE;Germany;11.75;49.05;1.00
DE;Germany;11.75;49.15;1.00
DE;Germany;11.75;49.25;1.00
DE;Germany;11.75;49.35;1.00
DE;Germany;11.75;49.45;1.00
DE;Germany;11.75;49.55;1.00
DE;Germany;11.75;49.65;1.00
DE;Germany;11.75;49.75;1.00
DE;Germany;11.75;49.85;1.00
DE;Germany;11.75;49.95;1.00
DE;Germany;11.75;50.05;1.00
DE;Germany;11.75;50.15;1.00
DE;Germany;11.75;50.25;1.00
DE;Germany;11.75;50.35;1.00
DE;Germany;11.75;50.45;1.00
DE;Germany;11.75;50.55;1.00
DE;Germany;11.75;50.65;1.00
DE;Germany;11.75;50.75;1.00
DE;Germany;11.75;50.85;1.00
DE;Germany;11.75;50.95;1.00
DE;Germany;11.75;51.05;1.00
DE;Germany;11.75;51.15;1.00
DE;Germany;11.75;51.25;1.00
DE;Germany;11.75;51.35;1.00
DE;Germany;11.75;51.45;1.00
DE;Germany;11.75;51.55;1.00
DE;Germany;11.75;51.65;1.00
DE;Germany;11.75;51.75;1.00
DE;Germany;11.75;51.85;1.00
DE;Germany;11.75;51.95;1.00
DE;Germany;11.75;52.05;1.00
DE;Germany;11.75;52.15;1.00
DE;Germany;11.75;52.25;1.00
DE;Germany;11.75;52.35;1.00
DE;Germany;11.75;52.45;1.00
DE;Germany;11.75;52.55;1.00
DE;Germany;11.75;52.65;1.00
DE;Germany;11.75;52.75;1.00
DE;Germany;11.75;52.85;1.00
DE;Germany;11.75;52.95;1.00
DE;Germany;11.75;53.05;1.00
DE;Germany;11.75;53.15;1.00
DE;Germany;11.75;53.25;1.00
DE;Germany;11.75;53.35;1.00
DE;Germany;11.75;53.45;1.00
DE;Germany;11.75;53.55;1.00
DE;Germany;11.75;53.65;1.00
DE;Germany;11.75;53.75;1.00
DE;Germany;11.75;53.85;1.00
DE;Germany;11.75;53.95;1.00
DE;Germany;11.75;54.05;1.00
DE;Germany;11.75;54.15;0.52
DE;Germany;11.85;47.55;0.12
DE;Germany;11.85;47.65;1.00
DE;Germany;11.85;47.75;1.00
DE;Germany;11.85;47.85;1.00
DE;Germany;11.85;47.95;1.00
DE;Germany;11.85;48.05;1.00
DE;Germany;11.85;48.15;1.00
DE;Germany;11.85;48.25;1.00
DE;Germany;11.85;48.35;1.00
DE;Germany;11.85;48.45;1.00
DE;Germany;11.85;48.55;1.00
DE;Germany;11.85;48.65;1.00
DE;Germany;11.85;48.75;1.00
DE;Germany;11.85;48.85;1.00
DE;Germany;11.85;48.95;1.00
DE;Germany;11.85;49.05;1.00
DE;Germany;11.85;49.15;1.00
DE;Germany;11.85;49.25;1.00
DE;Germany;11.85;49.35;1.00
DE;Germany;11.85;49.45;1.00
DE;Germany;11.85;49.55;1.00
DE;Germany;11.85;49.65;1.00
DE;Germany;11.85;49.75;1.00
DE;Germany;11.85;49.85;1.00
DE;Germany;11.85;49.95;1.00
DE;Germany;11.85;50.05;1.00
DE;Germany;11.85;50.15;1.00
DE;Germany;11.85;50.25;1.00
DE;Germany;11.85;50.35;1.00
DE;Germany;11.85;50.45;1.00
DE;Germany;11.85;50.55;1.00
DE;Germany;11.85;50.65;1.00
DE;Germany;11.85;50.75;1.00
DE;Germany;11.85;50.85;1.00
DE;Germany;11.85;50.95;1.00
DE;Germany;11.85;51.05;1.00
DE;Germany;11.85;51.15;1.00
DE;Germany;11.85;51.25;1.00
DE;Germany;11.85;51.35;1.00
DE;Germany;11.85;51.45;1.00
DE;Germany;11.85;51.55;1.00
DE;Germany;11.85;51.65;1.00
DE;Germany;11.85;51.75;1.00
DE;Germany;11.85;51.85;1.00
DE;Germany;11.85;51.95;1.00
DE;Germany;11.85;52.05;1.00
DE;Germany;11.85;52.15;1.00
DE;Germany;11.85;52.25;1.00
DE;Germany;11.85;52.35;1.00
DE;Germany;11.85;52.45;1.00
DE;Germany;11.85;52.55;1.00
DE;Germany;11.85;52.65;1.00
DE;Germany;11.85;52.75;1.00
DE;Germany;11.85;52.85;1.00
DE;Germany;11.85;52.95;1.00
DE;Germany;11.85;53.05;1.00
DE;Germany;11.85;53.15;1.00
DE;Germany;11.85;53.25;1.00
DE;Germany;11.85;53.35;1.00
DE;Germany;11.85;53.45;1.00
DE;Germany;11.85;53.55;1.00
DE;Germany;11.85;53.65;1.00
DE;Germany;11.85;53.75;1.00
DE;Germany;11.85;53.85;1.00
DE;Germany;11.85;53.95;1.00
DE;Germany;11.85;54.05;1.00
DE;Germany;11.85;54.15;0.47
DE;Germany;11.95;47.65;0.89
DE;Germany;11.95;47.75;1.00
DE;Germany;11.95;47.85;1.00
DE;Germany;11.95;47.95;1.00
DE;Germany;11.95;48.05;1.00
DE;Germany;11.95;48.15;1.00
DE;Germany;11.95;48.25;1.00
DE;Germany;11.95;48.35;1.00
DE;Germany;11.95;48.45;1.00
DE;Germany;11.95;48.55;1.00
DE;Germany;11.95;48.65;1.00
DE;Germany;11.95;48.75;1.00
DE;Germany;11.95;48.85;1.00
DE;Germany;11.95;48.95;1.00
DE;Germany;11.95;49.05;1.00
DE;Germany;11.95;49.15;1.00
DE;Germany;11.95;49.25;1.00
DE;Germany;11.95;49.35;1.00
DE;Germany;11.95;49.45;1.00
DE;Germany;11.95;49.55;1.00
DE;Germany;11.95;49.65;1.00
DE;Germany;11.95;49.75;1.00
DE;Germany;11.95;49.85;1.00
DE;Germany;11.95;49.95;1.00
DE;Germany;11.95;50.05;1.00
DE;Germany;11.95;50.15;1.00
DE;Germany;11.95;50.25;1.00
DE;Germany;11.95;50.35;1.00
DE;Germany;11.95;50.45;1.00
DE;Germany;11.95;50.55;1.00
DE;Germany;11.95;50.65;1.00
DE;Germany;11.95;50.75;1.00
DE;Germany;11.95;50.85;1.00
DE;Germany;11.95;50.95;1.00
DE;Germany;11.95;51.05;1.00
DE;Germany;11.95;51.15;1.00
DE;Germany;11.95;51.25;1.00
DE;Germany;11.95;51.35;1.00
DE;Germany;11.95;51.45;1.00
DE;Germany;11.95;51.55;1.00
DE;Germany;11.95;51.65;1.00
DE;Germany;11.95;51.75;1.00
DE;Germany;11.95;51.85;1.00
DE;Germany;11.95;51.95;1.00
DE;Germany;11.95;52.05;1.00
DE;Germany;11.95;52.15;1.00
DE;Germany;11.95;52.25;1.00
DE;Germany;11.95;52.35;1.00
DE;Germany;11.95;52.45;1.00
DE;Germany;11.95;52.55;1.00
DE;Germany;11.95;52.65;1.00
DE;Germany;11.95;52.75;1.00
DE;Germany;11.95;52.85;1.00
DE;Germany;11.95;52.95;1.00
DE;Germany;11.95;53.05;1.00
DE;Germany;11.95;53.15;1.00
DE;Germany;11.95;53.25;1.00
DE;Germany;11.95;53.35;1.00
DE;Germany;11.95;53.45;1.00
DE;Germany;11.95;53.55;1.00
DE;Germany;11.95;53.65;1.00
DE;Germany;11.95;53.75;1.00
DE;Germany;11.95;53.85;1.00
DE;Germany;11.95;53.95;1.00
DE;Germany;11.95;54.05;1.00
DE;Germany;11.95;54.15;0.65
DE;Germany;12.05;47.65;0.88
DE;Germany;12.05;47.75;1.00
DE;Germany;12.05;47.85;1.00
DE;Germany;12.05;47.95;1.00
DE;Germany;12.05;48.05;1.00
DE;Germany;12.05;48.15;1.00
DE;Germany;12.05;48.25;1.00
DE;Germany;12.05;48.35;1.00
DE;Germany;12.05;48.45;1.00
DE;Germany;12.05;48.55;1.00
DE;Germany;12.05;48.65;1.00
DE;Germany;12.05;48.75;1.00
DE;Germany;12.05;48.85;1.00
DE;Germany;12.05;48.95;1.00
DE;Germany;12.05;49.05;1.00
DE;Germany;12.05;49.15;1.00
DE;Germany;12.05;49.25;1.00
DE;Germany;12.05;49.35;1.00
DE;Germany;12.05;49.45;1.00
DE;Germany;12.05;49.55;1.00
DE;Germany;12.05;49.65;1.00
DE;Germany;12.05;49.75;1.00
DE;Germany;12.05;49.85;1.00
DE;Germany;12.05;49.95;1.00
DE;Germany;12.05;50.05;1.00
DE;Germany;12.05;50.15;1.00
DE;Germany;12.05;50.25;0.99
DE;Germany;12.05;50.35;1.00
DE;Germany;12.05;50.45;1.00
DE;Germany;12.05;50.55;1.00
DE;Germany;12.05;50.65;1.00
DE;Germany;12.05;50.75;1.00
DE;Germany;12.05;50.85;1.00
DE;Germany;12.05;50.95;1.00
DE;Germany;12.05;51.05;1.00
DE;Germany;12.05;51.15;1.00
DE;Germany;12.05;51.25;1.00
DE;Germany;12.05;51.35;1.00
DE;Germany;12.05;51.45;1.00
DE;Germany;12.05;51.55;1.00
DE;Germany;12.05;51.65;1.00
DE;Germany;12.05;51.75;1.00
DE;Germany;12.05;51.85;1.00
DE;Germany;12.05;51.95;1.00
DE;Germany;12.05;52.05;1.00
DE;Germany;12.05;52.15;1.00
DE;Germany;12.05;52.25;1.00
DE;Germany;12.05;52.35;1.00
DE;Germany;12.05;52.45;1.00
DE;Germany;12.05;52.55;1.00
DE;Germany;12.05;52.65;1.00
DE;Germany;12.05;52.75;1.00
DE;Germany;12.05;52.85;1.00
DE;Germany;12.05;52.95;1.00
DE;Germany;12.05;53.05;1.00
DE;Germany;12.05;53.15;1.00
DE;Germany;12.05;53.25;1.00
DE;Germany;12.05;53.35;1.00
DE;Germany;12.05;53.45;1.00
DE;Germany;12.05;53.55;1.00
DE;Germany;12.05;53.65;1.00
DE;Germany;12.05;53.75;1.00
DE;Germany;12.05;53.85;1.00
DE;Germany;12.05;53.95;1.00
DE;Germany;12.05;54.05;1.00
DE;Germany;12.05;54.15;0.77
DE;Germany;12.15;47.65;0.89
DE;Germany;12.15;47.75;1.00
DE;Germany;12.15;47.85;1.00
DE;Germany;12.15;47.95;1.00
DE;Germany;12.15;48.05;1.00
DE;Germany;12.15;48.15;1.00
DE;Germany;12.15;48.25;1.00
DE;Germany;12.15;48.35;1.00
DE;Germany;12.15;48.45;1.00
DE;Germany;12.15;48.55;1.00
DE;Germany;12.15;48.65;1.00
DE;Germany;12.15;48.75;1.00
DE;Germany;12.15;48.85;1.00
DE;Germany;12.15;48.95;1.00
DE;Germany;12.15;49.05;1.00
DE;Germany;12.15;49.15;1.00
DE;Germany;12.15;49.25;1.00
DE;Germany;12.15;49.35;1.00
DE;Germany;12.15;49.45;1.00
DE;Germany;12.15;49.55;1.00
DE;Germany;12.15;49.65;1.00
DE;Germany;12.15;49.75;1.00
DE;Germany;12.15;49.85;1.00
DE;Germany;12.15;49.95;1.00
DE;Germany;12.15;50.05;1.00
DE;Germany;12.15;50.15;0.98
DE;Germany;12.15;50.25;0.35
DE;Germany;12.15;50.35;0.86
DE;Germany;12.15;50.45;1.00
DE;Germany;12.15;50.55;1.00
DE;Germany;12.15;50.65;1.00
DE;Germany;12.15;50.75;1.00
DE;Germany;12.15;50.85;1.00
DE;Germany;12.15;50.95;1.00
DE;Germany;12.15;51.05;1.00
DE;Germany;12.15;51.15;1.00
DE;Germany;12.15;51.25;1.00
DE;Germany;12.15;51.35;1.00
DE;Germany;12.15;51.45;1.00
DE;Germany;12.15;51.55;1.00
DE;Germany;12.15;51.65;1.00
DE;Germany;12.15;51.75;1.00
DE;Germany;12.15;51.85;1.00
DE;Germany;12.15;51.95;1.00
DE;Germany;12.15;52.05;1.00
DE;Germany;12.15;52.15;1.00
DE;Germany;12.15;52.25;1.00
DE;Germany;12.15;52.35;1.00
DE;Germany;12.15;52.45;1.00
DE;Germany;12.15;52.55;1.00
DE;Germany;12.15;52.65;1.00
DE;Germany;12.15;52.75;1.00
DE;Germany;12.15;52.85;1.00
DE;Germany;12.15;52.95;1.00
DE;Germany;12.15;53.05;1.00
DE;Germany;12.15;53.15;1.00
DE;Germany;12.15;53.25;1.00
DE;Germany;12.15;53.35;1.00
DE;Germany;12.15;53.45;1.00
DE;Germany;12.15;53.55;1.00
DE;Germany;12.15;53.65;1.00
DE;Germany;12.15;53.75;1.00
DE;Germany;12.15;53.85;1.00
DE;Germany;12.15;53.95;1.00
DE;Germany;12.15;54.05;1.00
DE;Germany;12.15;54.15;0.86
DE;Germany;12.15;54.25;0.13
DE;Germany;12.25;47.65;0.16
DE;Germany;12.25;47.75;0.89
DE;Germany;12.25;47.85;1.00
DE;Germany;12.25;47.95;1.00
DE;Germany;12.25;48.05;1.00
DE;Germany;12.25;48.15;1.00
DE;Germany;12.25;48.25;1.00
DE;Germany;12.25;48.35;1.00
DE;Germany;12.25;48.45;1.00
DE;Germany;12.25;48.55;1.00
DE;Germany;12.25;48.65;1.00
DE;Germany;12.25;48.75;1.00
DE;Germany;12.25;48.85;1.00
DE;Germany;12.25;48.95;1.00
DE;Germany;12.25;49.05;1.00
DE;Germany;12.25;49.15;1.00
DE;Germany;12.25;49.25;1.00
DE;Germany;12.25;49.35;1.00
DE;Germany;12.25;49.45;1.00
DE;Germany;12.25;49.55;1.00
DE;Germany;12.25;49.65;1.00
DE;Germany;12.25;49.75;1.00
DE;Germany;12.25;49.85;1.00
DE;Germany;12.25;49.95;1.00
DE;Germany;12.25;50.05;0.84
DE;Germany;12.25;50.15;0.07
DE;Germany;12.25;50.25;0.52
DE;Germany;12.25;50.35;1.00
DE;Germany;12.25;50.45;1.00
DE;Germany;12.25;50.55;1.00
DE;Germany;12.25;50.65;1.00
DE;Germany;12.25;50.75;1.00
DE;Germany;12.25;50.85;1.00
DE;Germany;12.25;50.95;1.00
DE;Germany;12.25;51.05;1.00
DE;Germany;12.25;51.15;1.00
DE;Germany;12.25;51.25;1.00
DE;Germany;12.25;51.35;1.00
DE;Germany;12.25;51.45;1.00
DE;Germany;12.25;51.55;1.00
DE;Germany;12.25;51.65;1.00
DE;Germany;12.25;51.75;1.00
DE;Germany;12.25;51.85;1.00
DE;Germany;12.25;51.95;1.00
DE;Germany;12.25;52.05;1.00
DE;Germany;12.25;52.15;1.00
DE;Germany;12.25;52.25;1.00
DE;Germany;12.25;52.35;1.00
DE;Germany;12.25;52.45;1.00
DE;Germany;12.25;52.55;1.00
DE;Germany;12.25;52.65;1.00
DE;Germany;12.25;52.75;1.00
DE;Germany;12.25;52.85;1.00
DE;Germany;12.25;52.95;1.00
DE;Germany;12.25;53.05;1.00
DE;Germany;12.25;53.15;1.00
DE;Germany;12.25;53.25;1.00
DE;Germany;12.25;53.35;1.00
DE;Germany;12.25;53.45;1.00
DE;Germany;12.25;53.55;1.00
DE;Germany;12.25;53.65;1.00
DE;Germany;12.25;53.75;1.00
DE;Germany;12.25;53.85;1.00
DE;Germany;12.25;53.95;1.00
DE;Germany;12.25;54.05;1.00
DE;Germany;12.25;54.15;1.00
DE;Germany;12.25;54.25;0.62
DE;Germany;12.35;47.65;0.09
DE;Germany;12.35;47.75;1.00
DE;Germany;12.35;47.85;1.00
DE;Germany;12.35;47.95;1.00
DE;Germany;12.35;48.05;1.00
DE;Germany;12.35;48.15;1.00
DE;Germany;12.35;48.25;1.00
DE;Germany;12.35;48.35;1.00
DE;Germany;12.35;48.45;1.00
DE;Germany;12.35;48.55;1.00
DE;Germany;12.35;48.65;1.00
DE;Germany;12.35;48.75;1.00
DE;Germany;12.35;48.85;1.00
DE;Germany;12.35;48.95;1.00
DE;Germany;12.35;49.05;1.00
DE;Germany;12.35;49.15;1.00
DE;Germany;12.35;49.25;1.00
DE;Germany;12.35;49.35;1.00
DE;Germany;12.35;49.45;1.00
DE;Germany;12.35;49.55;1.00
DE;Germany;12.35;49.65;1.00
DE;Germany;12.35;49.75;1.00
DE;Germany;12.35;49.85;1.00
DE;Germany;12.35;49.95;1.00
DE;Germany;12.35;50.05;0.35
DE;Germany;12.35;50.15;0.05
DE;Germany;12.35;50.25;0.58
DE;Germany;12.35;50.35;1.00
DE;Germany;12.35;50.45;1.00
DE;Germany;12.35;50.55;1.00
DE;Germany;12.35;50.65;1.00
DE;Germany;12.35;50.75;1.00
DE;Germany;12.35;50.85;1.00
DE;Germany;12.35;50.95;1.00
DE;Germany;12.35;51.05;1.00
DE;Germany;12.35;51.15;1.00
DE;Germany;12.35;51.25;1.00
DE;Germany;12.35;51.35;1.00
DE;Germany;12.35;51.45;1.00
DE;Germany;12.35;51.55;1.00
DE;Germany;12.35;51.65;1.00
DE;Germany;12.35;51.75;1.00
DE;Germany;12.35;51.85;1.00
DE;Germany;12.35;51.95;1.00
DE;Germany;12.35;52.05;1.00
DE;Germany;12.35;52.15;1.00
DE;Germany;12.35;52.25;1.00
DE;Germany;12.35;52.35;1.00
DE;Germany;12.35;52.45;1.00
DE;Germany;12.35;52.55;1.00
DE;Germany;12.35;52.65;1.00
DE;Germany;12.35;52.75;1.00
DE;Germany;12.35;52.85;1.00
DE;Germany;12.35;52.95;1.00
DE;Germany;12.35;53.05;1.00
DE;Germany;12.35;53.15;1.00
DE;Germany;12.35;53.25;1.00
DE;Germany;12.35;53.35;1.00
DE;Germany;12.35;53.45;1.00
DE;Germany;12.35;53.55;1.00
DE;Germany;12.35;53.65;1.00
DE;Germany;12.35;53.75;1.00
DE;Germany;12.35;53.85;1.00
DE;Germany;12.35;53.95;1.00
DE;Germany;12.35;54.05;1.00
DE;Germany;12.35;54.15;1.00
DE;Germany;12.35;54.25;0.83
DE;Germany;12.35;54.35;0.13
DE;Germany;12.45;47.65;0.27
DE;Germany;12.45;47.75;1.00
DE;Germany;12.45;47.85;1.00
DE;Germany;12.45;47.95;1.00
DE;Germany;12.45;48.05;1.00
DE;Germany;12.45;48.15;1.00
DE;Germany;12.45;48.25;1.00
DE;Germany;12.45;48.35;1.00
DE;Germany;12.45;48.45;1.00
DE;Germany;12.45;48.55;1.00
DE;Germany;12.45;48.65;1.00
DE;Germany;12.45;48.75;1.00
DE;Germany;12.45;48.85;1.00
DE;Germany;12.45;48.95;1.00
DE;Germany;12.45;49.05;1.00
DE;Germany;12.45;49.15;1.00
DE;Germany;12.45;49.25;1.00
DE;Germany;12.45;49.35;1.00
DE;Germany;12.45;49.45;1.00
DE;Germany;12.45;49.55;1.00
DE;Germany;12.45;49.65;0.99
DE;Germany;12.45;49.75;0.34
DE;Germany;12.45;49.85;0.90
DE;Germany;12.45;49.95;0.87
DE;Germany;12.45;50.05;0.03
DE;Germany;12.45;50.25;0.00
DE;Germany;12.45;50.35;0.62
DE;Germany;12.45;50.45;1.00
DE;Germany;12.45;50.55;1.00
DE;Germany;12.45;50.65;1.00
DE;Germany;12.45;50.75;1.00
DE;Germany;12.45;50.85;1.00
DE;Germany;12.45;50.95;1.00
DE;Germany;12.45;51.05;1.00
DE;Germany;12.45;51.15;1.00
DE;Germany;12.45;51.25;1.00
DE;Germany;12.45;51.35;1.00
DE;Germany;12.45;51.45;1.00
DE;Germany;12.45;51.55;1.00
DE;Germany;12.45;51.65;1.00
DE;Germany;12.45;51.75;1.00
DE;Germany;12.45;51.85;1.00
DE;Germany;12.45;51.95;1.00
DE;Germany;12.45;52.05;1.00
DE;Germany;12.45;52.15;1.00
DE;Germany;12.45;52.25;1.00
DE;Germany;12.45;52.35;1.00
DE;Germany;12.45;52.45;1.00
DE;Germany;12.45;52.55;1.00
DE;Germany;12.45;52.65;1.00
DE;Germany;12.45;52.75;1.00
DE;Germany;12.45;52.85;1.00
DE;Germany;12.45;52.95;1.00
DE;Germany;12.45;53.05;1.00
DE;Germany;12.45;53.15;1.00
DE;Germany;12.45;53.25;1.00
DE;Germany;12.45;53.35;1.00
DE;Germany;12.45;53.45;1.00
DE;Germany;12.45;53.55;1.00
DE;Germany;12.45;53.65;1.00
DE;Germany;12.45;53.75;1.00
DE;Germany;12.45;53.85;1.00
DE;Germany;12.45;53.95;1.00
DE;Germany;12.45;54.05;1.00
DE;Germany;12.45;54.15;1.00
DE;Germany;12.45;54.25;0.87
DE;Germany;12.45;54.35;0.30
DE;Germany;12.45;54.45;0.18
DE;Germany;12.55;47.65;0.61
DE;Germany;12.55;47.75;1.00
DE;Germany;12.55;47.85;1.00
DE;Germany;12.55;47.95;1.00
DE;Germany;12.55;48.05;1.00
DE;Germany;12.55;48.15;1.00
DE;Germany;12.55;48.25;1.00
DE;Germany;12.55;48.35;1.00
DE;Germany;12.55;48.45;1.00
DE;Germany;12.55;48.55;1.00
DE;Germany;12.55;48.65;1.00
DE;Germany;12.55;48.75;1.00
DE;Germany;12.55;48.85;1.00
DE;Germany;12.55;48.95;1.00
DE;Germany;12.55;49.05;1.00
DE;Germany;12.55;49.15;1.00
DE;Germany;12.55;49.25;1.00
DE;Germany;12.55;49.35;1.00
DE;Germany;12.55;49.45;1.00
DE;Germany;12.55;49.55;0.88
DE;Germany;12.55;49.65;0.35
DE;Germany;12.55;49.85;0.10
DE;Germany;12.55;49.95;0.15
DE;Germany;12.55;50.35;0.01
DE;Germany;12.55;50.45;0.96
DE;Germany;12.55;50.55;1.00
DE;Germany;12.55;50.65;1.00
DE;Germany;12.55;50.75;1.00
DE;Germany;12.55;50.85;1.00
DE;Germany;12.55;50.95;1.00
DE;Germany;12.55;51.05;1.00
DE;Germany;12.55;51.15;1.00
DE;Germany;12.55;51.25;1.00
DE;Germany;12.55;51.35;1.00
DE;Germany;12.55;51.45;1.00
DE;Germany;12.55;51.55;1.00
DE;Germany;12.55;51.65;1.00
DE;Germany;12.55;51.75;1.00
DE;Germany;12.55;51.85;1.00
DE;Germany;12.55;51.95;1.00
DE;Germany;12.55;52.05;1.00
DE;Germany;12.55;52.15;1.00
DE;Germany;12.55;52.25;1.00
DE;Germany;12.55;52.35;1.00
DE;Germany;12.55;52.45;1.00
DE;Germany;12.55;52.55;1.00
DE;Germany;12.55;52.65;1.00
DE;Germany;12.55;52.75;1.00
DE;Germany;12.55;52.85;1.00
DE;Germany;12.55;52.95;1.00
DE;Germany;12.55;53.05;1.00
DE;Germany;12.55;53.15;1.00
DE;Germany;12.55;53.25;1.00
DE;Germany;12.55;53.35;1.00
DE;Germany;12.55;53.45;1.00
DE;Germany;12.55;53.55;1.00
DE;Germany;12.55;53.65;1.00
DE;Germany;12.55;53.75;1.00
DE;Germany;12.55;53.85;1.00
DE;Germany;12.55;53.95;1.00
DE;Germany;12.55;54.05;1.00
DE;Germany;12.55;54.15;1.00
DE;Germany;12.55;54.25;1.00
DE;Germany;12.55;54.35;0.70
DE;Germany;12.55;54.45;0.61
DE;Germany;12.65;47.65;0.20
DE;Germany;12.65;47.75;1.00
DE;Germany;12.65;47.85;1.00
DE;Germany;12.65;47.95;1.00
DE;Germany;12.65;48.05;1.00
DE;Germany;12.65;48.15;1.00
DE;Germany;12.65;48.25;1.00
DE;Germany;12.65;48.35;1.00
DE;Germany;12.65;48.45;1.00
DE;Germany;12.65;48.55;1.00
DE;Germany;12.65;48.65;1.00
DE;Germany;12.65;48.75;1.00
DE;Germany;12.65;48.85;1.00
DE;Germany;12.65;48.95;1.00
DE;Germany;12.65;49.05;1.00
DE;Germany;12.65;49.15;1.00
DE;Germany;12.65;49.25;1.00
DE;Germany;12.65;49.35;1.00
DE;Germany;12.65;49.45;0.65
DE;Germany;12.65;49.55;0.15
DE;Germany;12.65;50.35;0.00
DE;Germany;12.65;50.45;0.87
DE;Germany;12.65;50.55;1.00
DE;Germany;12.65;50.65;1.00
DE;Germany;12.65;50.75;1.00
DE;Germany;12.65;50.85;1.00
DE;Germany;12.65;50.95;1.00
DE;Germany;12.65;51.05;1.00
DE;Germany;12.65;51.15;1.00
DE;Germany;12.65;51.25;1.00
DE;Germany;12.65;51.35;1.00
DE;Germany;12.65;51.45;1.00
DE;Germany;12.65;51.55;1.00
DE;Germany;12.65;51.65;1.00
DE;Germany;12.65;51.75;1.00
DE;Germany;12.65;51.85;1.00
DE;Germany;12.65;51.95;1.00
DE;Germany;12.65;52.05;1.00
DE;Germany;12.65;52.15;1.00
DE;Germany;12.65;52.25;1.00
DE;Germany;12.65;52.35;1.00
DE;Germany;12.65;52.45;1.00
DE;Germany;12.65;52.55;1.00
DE;Germany;12.65;52.65;1.00
DE;Germany;12.65;52.75;1.00
DE;Germany;12.65;52.85;1.00
DE;Germany;12.65;52.95;1.00
DE;Germany;12.65;53.05;1.00
DE;Germany;12.65;53.15;1.00
DE;Germany;12.65;53.25;1.00
DE;Germany;12.65;53.35;1.00
DE;Germany;12.65;53.45;1.00
DE;Germany;12.65;53.55;1.00
DE;Germany;12.65;53.65;1.00
DE;Germany;12.65;53.75;1.00
DE;Germany;12.65;53.85;1.00
DE;Germany;12.65;53.95;1.00
DE;Germany;12.65;54.05;1.00
DE;Germany;12.65;54.15;1.00
DE;Germany;12.65;54.25;1.00
DE;Germany;12.65;54.35;0.83
DE;Germany;12.65;54.45;0.32
DE;Germany;12.75;47.55;0.04
DE;Germany;12.75;47.65;0.33
DE;Germany;12.75;47.75;1.00
DE;Germany;12.75;47.85;1.00
DE;Germany;12.75;47.95;1.00
DE;Germany;12.75;48.05;0.88
DE;Germany;12.75;48.15;0.86
DE;Germany;12.75;48.25;1.00
DE;Germany;12.75;48.35;1.00
DE;Germany;12.75;48.45;1.00
DE;Germany;12.75;48.55;1.00
DE;Germany;12.75;48.65;1.00
DE;Germany;12.75;48.75;1.00
DE;Germany;12.75;48.85;1.00
DE;Germany;12.75;48.95;1.00
DE;Germany;12.75;49.05;1.00
DE;Germany;12.75;49.15;1.00
DE;Germany;12.75;49.25;1.00
DE;Germany;12.75;49.35;0.85
DE;Germany;12.75;49.45;0.08
DE;Germany;12.75;50.35;0.00
DE;Germany;12.75;50.45;0.69
DE;Germany;12.75;50.55;1.00
DE;Germany;12.75;50.65;1.00
DE;Germany;12.75;50.75;1.00
DE;Germany;12.75;50.85;1.00
DE;Germany;12.75;50.95;1.00
DE;Germany;12.75;51.05;1.00
DE;Germany;12.75;51.15;1.00
DE;Germany;12.75;51.25;1.00
DE;Germany;12.75;51.35;1.00
DE;Germany;12.75;51.45;1.00
DE;Germany;12.75;51.55;1.00
DE;Germany;12.75;51.65;1.00
DE;Germany;12.75;51.75;1.00
DE;Germany;12.75;51.85;1.00
DE;Germany;12.75;51.95;1.00
DE;Germany;12.75;52.05;1.00
DE;Germany;12.75;52.15;1.00
DE;Germany;12.75;52.25;1.00
DE;Germany;12.75;52.35;1.00
DE;Germany;12.75;52.45;1.00
DE;Germany;12.75;52.55;1.00
DE;Germany;12.75;52.65;1.00
DE;Germany;12.75;52.75;1.00
DE;Germany;12.75;52.85;1.00
DE;Germany;12.75;52.95;1.00
DE;Germany;12.75;53.05;1.00
DE;Germany;12.75;53.15;1.00
DE;Germany;12.75;53.25;1.00
DE;Germany;12.75;53.35;1.00
DE;Germany;12.75;53.45;1.00
DE;Germany;12.75;53.55;1.00
DE;Germany;12.75;53.65;1.00
DE;Germany;12.75;53.75;1.00
DE;Germany;12.75;53.85;1.00
DE;Germany;12.75;53.95;1.00
DE;Germany;12.75;54.05;1.00
DE;Germany;12.75;54.15;1.00
DE;Germany;12.75;54.25;1.00
DE;Germany;12.75;54.35;0.81
DE;Germany;12.75;54.45;0.28
DE;Germany;12.85;47.55;0.61
DE;Germany;12.85;47.65;0.97
DE;Germany;12.85;47.75;1.00
DE;Germany;12.85;47.85;1.00
DE;Germany;12.85;47.95;0.89
DE;Germany;12.85;48.05;0.24
DE;Germany;12.85;48.15;0.23
DE;Germany;12.85;48.25;0.98
DE;Germany;12.85;48.35;1.00
DE;Germany;12.85;48.45;1.00
DE;Germany;12.85;48.55;1.00
DE;Germany;12.85;48.65;1.00
DE;Germany;12.85;48.75;1.00
DE;Germany;12.85;48.85;1.00
DE;Germany;12.85;48.95;1.00
DE;Germany;12.85;49.05;1.00
DE;Germany;12.85;49.15;1.00
DE;Germany;12.85;49.25;1.00
DE;Germany;12.85;49.35;0.47
DE;Germany;12.85;50.45;0.57
DE;Germany;12.85;50.55;1.00
DE;Germany;12.85;50.65;1.00
DE;Germany;12.85;50.75;1.00
DE;Germany;12.85;50.85;1.00
DE;Germany;12.85;50.95;1.00
DE;Germany;12.85;51.05;1.00
DE;Germany;12.85;51.15;1.00
DE;Germany;12.85;51.25;1.00
DE;Germany;12.85;51.35;1.00
DE;Germany;12.85;51.45;1.00
DE;Germany;12.85;51.55;1.00
DE;Germany;12.85;51.65;1.00
DE;Germany;12.85;51.75;1.00
DE;Germany;12.85;51.85;1.00
DE;Germany;12.85;51.95;1.00
DE;Germany;12.85;52.05;1.00
DE;Germany;12.85;52.15;1.00
DE;Germany;12.85;52.25;1.00
DE;Germany;12.85;52.35;1.00
DE;Germany;12.85;52.45;1.00
DE;Germany;12.85;52.55;1.00
DE;Germany;12.85;52.65;1.00
DE;Germany;12.85;52.75;1.00
DE;Germany;12.85;52.85;1.00
DE;Germany;12.85;52.95;1.00
DE;Germany;12.85;53.05;1.00
DE;Germany;12.85;53.15;1.00
DE;Germany;12.85;53.25;1.00
DE;Germany;12.85;53.35;1.00
DE;Germany;12.85;53.45;1.00
DE;Germany;12.85;53.55;1.00
DE;Germany;12.85;53.65;1.00
DE;Germany;12.85;53.75;1.00
DE;Germany;12.85;53.85;1.00
DE;Germany;12.85;53.95;1.00
DE;Germany;12.85;54.05;1.00
DE;Germany;12.85;54.15;1.00
DE;Germany;12.85;54.25;1.00
DE;Germany;12.85;54.35;0.62
DE;Germany;12.85;54.45;0.23
DE;Germany;12.95;47.45;0.12
DE;Germany;12.95;47.55;1.00
DE;Germany;12.95;47.65;1.00
DE;Germany;12.95;47.75;0.44
DE;Germany;12.95;47.85;0.81
DE;Germany;12.95;47.95;0.24
DE;Germany;12.95;48.25;0.80
DE;Germany;12.95;48.35;1.00
DE;Germany;12.95;48.45;1.00
DE;Germany;12.95;48.55;1.00
DE;Germany;12.95;48.65;1.00
DE;Germany;12.95;48.75;1.00
DE;Germany;12.95;48.85;1.00
DE;Germany;12.95;48.95;1.00
DE;Germany;12.95;49.05;1.00
DE;Germany;12.95;49.15;1.00
DE;Germany;12.95;49.25;1.00
DE;Germany;12.95;49.35;0.42
DE;Germany;12.95;50.45;0.84
DE;Germany;12.95;50.55;1.00
DE;Germany;12.95;50.65;1.00
DE;Germany;12.95;50.75;1.00
DE;Germany;12.95;50.85;1.00
DE;Germany;12.95;50.95;1.00
DE;Germany;12.95;51.05;1.00
DE;Germany;12.95;51.15;1.00
DE;Germany;12.95;51.25;1.00
DE;Germany;12.95;51.35;1.00
DE;Germany;12.95;51.45;1.00
DE;Germany;12.95;51.55;1.00
DE;Germany;12.95;51.65;1.00
DE;Germany;12.95;51.75;1.00
DE;Germany;12.95;51.85;1.00
DE;Germany;12.95;51.95;1.00
DE;Germany;12.95;52.05;1.00
DE;Germany;12.95;52.15;1.00
DE;Germany;12.95;52.25;1.00
DE;Germany;12.95;52.35;1.00
DE;Germany;12.95;52.45;1.00
DE;Germany;12.95;52.55;1.00
DE;Germany;12.95;52.65;1.00
DE;Germany;12.95;52.75;1.00
DE;Germany;12.95;52.85;1.00
DE;Germany;12.95;52.95;1.00
DE;Germany;12.95;53.05;1.00
DE;Germany;12.95;53.15;1.00
DE;Germany;12.95;53.25;1.00
DE;Germany;12.95;53.35;1.00
DE;Germany;12.95;53.45;1.00
DE;Germany;12.95;53.55;1.00
DE;Germany;12.95;53.65;1.00
DE;Germany;12.95;53.75;1.00
DE;Germany;12.95;53.85;1.00
DE;Germany;12.95;53.95;1.00
DE;Germany;12.95;54.05;1.00
DE;Germany;12.95;54.15;1.00
DE;Germany;12.95;54.25;1.00
DE;Germany;12.95;54.35;1.00
DE;Germany;12.95;54.45;0.28
DE;Germany;13.05;47.45;0.11
DE;Germany;13.05;47.55;0.53
DE;Germany;13.05;47.65;0.83
DE;Germany;13.05;47.75;0.12
DE;Germany;13.05;47.85;0.00
DE;Germany;13.05;48.25;0.32
DE;Germany;13.05;48.35;1.00
DE;Germany;13.05;48.45;1.00
DE;Germany;13.05;48.55;1.00
DE;Germany;13.05;48.65;1.00
DE;Germany;13.05;48.75;1.00
DE;Germany;13.05;48.85;1.00
DE;Germany;13.05;48.95;1.00
DE;Germany;13.05;49.05;1.00
DE;Germany;13.05;49.15;1.00
DE;Germany;13.05;49.25;0.70
DE;Germany;13.05;49.35;0.04
DE;Germany;13.05;50.45;0.17
DE;Germany;13.05;50.55;0.98
DE;Germany;13.05;50.65;1.00
DE;Germany;13.05;50.75;1.00
DE;Germany;13.05;50.85;1.00
DE;Germany;13.05;50.95;1.00
DE;Germany;13.05;51.05;1.00
DE;Germany;13.05;51.15;1.00
DE;Germany;13.05;51.25;1.00
DE;Germany;13.05;51.35;1.00
DE;Germany;13.05;51.45;1.00
DE;Germany;13.05;51.55;1.00
DE;Germany;13.05;51.65;1.00
DE;Germany;13.05;51.75;1.00
DE;Germany;13.05;51.85;1.00
DE;Germany;13.05;51.95;1.00
DE;Germany;13.05;52.05;1.00
DE;Germany;13.05;52.15;1.00
DE;Germany;13.05;52.25;1.00
DE;Germany;13.05;52.35;1.00
DE;Germany;13.05;52.45;1.00
DE;Germany;13.05;52.55;1.00
DE;Germany;13.05;52.65;1.00
DE;Germany;13.05;52.75;1.00
DE;Germany;13.05;52.85;1.00
DE;Germany;13.05;52.95;1.00
DE;Germany;13.05;53.05;1.00
DE;Germany;13.05;53.15;1.00
DE;Germany;13.05;53.25;1.00
DE;Germany;13.05;53.35;1.00
DE;Germany;13.05;53.45;1.00
DE;Germany;13.05;53.55;1.00
DE;Germany;13.05;53.65;1.00
DE;Germany;13.05;53.75;1.00
DE;Germany;13.05;53.85;1.00
DE;Germany;13.05;53.95;1.00
DE;Germany;13.05;54.05;1.00
DE;Germany;13.05;54.15;1.00
DE;Germany;13.05;54.25;1.00
DE;Germany;13.05;54.35;0.78
DE;Germany;13.05;54.45;0.19
DE;Germany;13.05;54.55;0.06
DE;Germany;13.15;47.65;0.00
DE;Germany;13.15;48.25;0.10
DE;Germany;13.15;48.35;1.00
DE;Germany;13.15;48.45;1.00
DE;Germany;13.15;48.55;1.00
DE;Germany;13.15;48.65;1.00
DE;Germany;13.15;48.75;1.00
DE;Germany;13.15;48.85;1.00
DE;Germany;13.15;48.95;1.00
DE;Germany;13.15;49.05;1.00
DE;Germany;13.15;49.15;0.78
DE;Germany;13.15;49.25;0.03
DE;Germany;13.15;50.55;0.94
DE;Germany;13.15;50.65;1.00
DE;Germany;13.15;50.75;1.00
DE;Germany;13.15;50.85;1.00
DE;Germany;13.15;50.95;1.00
DE;Germany;13.15;51.05;1.00
DE;Germany;13.15;51.15;1.00
DE;Germany;13.15;51.25;1.00
DE;Germany;13.15;51.35;1.00
DE;Germany;13.15;51.45;1.00
DE;Germany;13.15;51.55;1.00
DE;Germany;13.15;51.65;1.00
DE;Germany;13.15;51.75;1.00
DE;Germany;13.15;51.85;1.00
DE;Germany;13.15;51.95;1.00
DE;Germany;13.15;52.05;1.00
DE;Germany;13.15;52.15;1.00
DE;Germany;13.15;52.25;1.00
DE;Germany;13.15;52.35;1.00
DE;Germany;13.15;52.45;1.00
DE;Germany;13.15;52.55;1.00
DE;Germany;13.15;52.65;1.00
DE;Germany;13.15;52.75;1.00
DE;Germany;13.15;52.85;1.00
DE;Germany;13.15;52.95;1.00
DE;Germany;13.15;53.05;1.00
DE;Germany;13.15;53.15;1.00
DE;Germany;13.15;53.25;1.00
DE;Germany;13.15;53.35;1.00
DE;Germany;13.15;53.45;1.00
DE;Germany;13.15;53.55;1.00
DE;Germany;13.15;53.65;1.00
DE;Germany;13.15;53.75;1.00
DE;Germany;13.15;53.85;1.00
DE;Germany;13.15;53.95;1.00
DE;Germany;13.15;54.05;1.00
DE;Germany;13.15;54.15;1.00
DE;Germany;13.15;54.25;0.78
DE;Germany;13.15;54.35;0.53
DE;Germany;13.15;54.45;0.35
DE;Germany;13.15;54.55;0.37
DE;Germany;13.15;54.65;0.01
DE;Germany;13.25;48.25;0.02
DE;Germany;13.25;48.35;0.98
DE;Germany;13.25;48.45;1.00
DE;Germany;13.25;48.55;1.00
DE;Germany;13.25;48.65;1.00
DE;Germany;13.25;48.75;1.00
DE;Germany;13.25;48.85;1.00
DE;Germany;13.25;48.95;1.00
DE;Germany;13.25;49.05;1.00
DE;Germany;13.25;49.15;0.20
DE;Germany;13.25;50.55;0.31
DE;Germany;13.25;50.65;1.00
DE;Germany;13.25;50.75;1.00
DE;Germany;13.25;50.85;1.00
DE;Germany;13.25;50.95;1.00
DE;Germany;13.25;51.05;1.00
DE;Germany;13.25;51.15;1.00
DE;Germany;13.25;51.25;1.00
DE;Germany;13.25;51.35;1.00
DE;Germany;13.25;51.45;1.00
DE;Germany;13.25;51.55;1.00
DE;Germany;13.25;51.65;1.00
DE;Germany;13.25;51.75;1.00
DE;Germany;13.25;51.85;1.00
DE;Germany;13.25;51.95;1.00
DE;Germany;13.25;52.05;1.00
DE;Germany;13.25;52.15;1.00
DE;Germany;13.25;52.25;1.00
DE;Germany;13.25;52.35;1.00
DE;Germany;13.25;52.45;1.00
DE;Germany;13.25;52.55;1.00
DE;Germany;13.25;52.65;1.00
DE;Germany;13.25;52.75;1.00
DE;Germany;13.25;52.85;1.00
DE;Germany;13.25;52.95;1.00
DE;Germany;13.25;53.05;1.00
DE;Germany;13.25;53.15;1.00
DE;Germany;13.25;53.25;1.00
DE;Germany;13.25;53.35;1.00
DE;Germany;13.25;53.45;1.00
DE;Germany;13.25;53.55;1.00
DE;Germany;13.25;53.65;1.00
DE;Germany;13.25;53.75;1.00
DE;Germany;13.25;53.85;1.00
DE;Germany;13.25;53.95;1.00
DE;Germany;13.25;54.05;1.00
DE;Germany;13.25;54.15;1.00
DE;Germany;13.25;54.25;0.78
DE;Germany;13.25;54.35;0.88
DE;Germany;13.25;54.45;0.82
DE;Germany;13.25;54.55;0.64
DE;Germany;13.25;54.65;0.28
DE;Germany;13.35;48.35;0.59
DE;Germany;13.35;48.45;1.00
DE;Germany;13.35;48.55;1.00
DE;Germany;13.35;48.65;1.00
DE;Germany;13.35;48.75;1.00
DE;Germany;13.35;48.85;1.00
DE;Germany;13.35;48.95;1.00
DE;Germany;13.35;49.05;0.84
DE;Germany;13.35;49.15;0.02
DE;Germany;13.35;50.55;0.05
DE;Germany;13.35;50.65;0.83
DE;Germany;13.35;50.75;1.00
DE;Germany;13.35;50.85;1.00
DE;Germany;13.35;50.95;1.00
DE;Germany;13.35;51.05;1.00
DE;Germany;13.35;51.15;1.00
DE;Germany;13.35;51.25;1.00
DE;Germany;13.35;51.35;1.00
DE;Germany;13.35;51.45;1.00
DE;Germany;13.35;51.55;1.00
DE;Germany;13.35;51.65;1.00
DE;Germany;13.35;51.75;1.00
DE;Germany;13.35;51.85;1.00
DE;Germany;13.35;51.95;1.00
DE;Germany;13.35;52.05;1.00
DE;Germany;13.35;52.15;1.00
DE;Germany;13.35;52.25;1.00
DE;Germany;13.35;52.35;1.00
DE;Germany;13.35;52.45;1.00
DE;Germany;13.35;52.55;1.00
DE;Germany;13.35;52.65;1.00
DE;Germany;13.35;52.75;1.00
DE;Germany;13.35;52.85;1.00
DE;Germany;13.35;52.95;1.00
DE;Germany;13.35;53.05;1.00
DE;Germany;13.35;53.15;1.00
DE;Germany;13.35;53.25;1.00
DE;Germany;13.35;53.35;1.00
DE;Germany;13.35;53.45;1.00
DE;Germany;13.35;53.55;1.00
DE;Germany;13.35;53.65;1.00
DE;Germany;13.35;53.75;1.00
DE;Germany;13.35;53.85;1.00
DE;Germany;13.35;53.95;1.00
DE;Germany;13.35;54.05;1.00
DE;Germany;13.35;54.15;0.77
DE;Germany;13.35;54.25;0.55
DE;Germany;13.35;54.35;1.00
DE;Germany;13.35;54.45;1.00
DE;Germany;13.35;54.55;0.70
DE;Germany;13.35;54.65;0.65
DE;Germany;13.45;48.35;0.04
DE;Germany;13.45;48.45;0.31
DE;Germany;13.45;48.55;0.63
DE;Germany;13.45;48.65;1.00
DE;Germany;13.45;48.75;1.00
DE;Germany;13.45;48.85;1.00
DE;Germany;13.45;48.95;0.66
DE;Germany;13.45;49.05;0.04
DE;Germany;13.45;50.55;0.00
DE;Germany;13.45;50.65;0.87
DE;Germany;13.45;50.75;1.00
DE;Germany;13.45;50.85;1.00
DE;Germany;13.45;50.95;1.00
DE;Germany;13.45;51.05;1.00
DE;Germany;13.45;51.15;1.00
DE;Germany;13.45;51.25;1.00
DE;Germany;13.45;51.35;1.00
DE;Germany;13.45;51.45;1.00
DE;Germany;13.45;51.55;1.00
DE;Germany;13.45;51.65;1.00
DE;Germany;13.45;51.75;1.00
DE;Germany;13.45;51.85;1.00
DE;Germany;13.45;51.95;1.00
DE;Germany;13.45;52.05;1.00
DE;Germany;13.45;52.15;1.00
DE;Germany;13.45;52.25;1.00
DE;Germany;13.45;52.35;1.00
DE;Germany;13.45;52.45;1.00
DE;Germany;13.45;52.55;1.00
DE;Germany;13.45;52.65;1.00
DE;Germany;13.45;52.75;1.00
DE;Germany;13.45;52.85;1.00
DE;Germany;13.45;52.95;1.00
DE;Germany;13.45;53.05;1.00
DE;Germany;13.45;53.15;1.00
DE;Germany;13.45;53.25;1.00
DE;Germany;13.45;53.35;1.00
DE;Germany;13.45;53.45;1.00
DE;Germany;13.45;53.55;1.00
DE;Germany;13.45;53.65;1.00
DE;Germany;13.45;53.75;1.00
DE;Germany;13.45;53.85;1.00
DE;Germany;13.45;53.95;1.00
DE;Germany;13.45;54.05;0.95
DE;Germany;13.45;54.15;0.25
DE;Germany;13.45;54.25;0.08
DE;Germany;13.45;54.35;0.82
DE;Germany;13.45;54.45;0.86
DE;Germany;13.45;54.55;0.20
DE;Germany;13.45;54.65;0.09
DE;Germany;13.55;48.55;0.20
DE;Germany;13.55;48.65;1.00
DE;Germany;13.55;48.75;1.00
DE;Germany;13.55;48.85;1.00
DE;Germany;13.55;48.95;0.65
DE;Germany;13.55;50.65;0.22
DE;Germany;13.55;50.75;0.93
DE;Germany;13.55;50.85;1.00
DE;Germany;13.55;50.95;1.00
DE;Germany;13.55;51.05;1.00
DE;Germany;13.55;51.15;1.00
DE;Germany;13.55;51.25;1.00
DE;Germany;13.55;51.35;1.00
DE;Germany;13.55;51.45;1.00
DE;Germany;13.55;51.55;1.00
DE;Germany;13.55;51.65;1.00
DE;Germany;13.55;51.75;1.00
DE;Germany;13.55;51.85;1.00
DE;Germany;13.55;51.95;1.00
DE;Germany;13.55;52.05;1.00
DE;Germany;13.55;52.15;1.00
DE;Germany;13.55;52.25;1.00
DE;Germany;13.55;52.35;1.00
DE;Germany;13.55;52.45;1.00
DE;Germany;13.55;52.55;1.00
DE;Germany;13.55;52.65;1.00
DE;Germany;13.55;52.75;1.00
DE;Germany;13.55;52.85;1.00
DE;Germany;13.55;52.95;1.00
DE;Germany;13.55;53.05;1.00
DE;Germany;13.55;53.15;1.00
DE;Germany;13.55;53.25;1.00
DE;Germany;13.55;53.35;1.00
DE;Germany;13.55;53.45;1.00
DE;Germany;13.55;53.55;1.00
DE;Germany;13.55;53.65;1.00
DE;Germany;13.55;53.75;1.00
DE;Germany;13.55;53.85;1.00
DE;Germany;13.55;53.95;1.00
DE;Germany;13.55;54.05;1.00
DE;Germany;13.55;54.15;0.30
DE;Germany;13.55;54.35;0.57
DE;Germany;13.55;54.45;0.84
DE;Germany;13.55;54.55;0.75
DE;Germany;13.65;48.55;0.52
DE;Germany;13.65;48.65;1.00
DE;Germany;13.65;48.75;1.00
DE;Germany;13.65;48.85;0.94
DE;Germany;13.65;48.95;0.18
DE;Germany;13.65;50.75;0.78
DE;Germany;13.65;50.85;1.00
DE;Germany;13.65;50.95;1.00
DE;Germany;13.65;51.05;1.00
DE;Germany;13.65;51.15;1.00
DE;Germany;13.65;51.25;1.00
DE;Germany;13.65;51.35;1.00
DE;Germany;13.65;51.45;1.00
DE;Germany;13.65;51.55;1.00
DE;Germany;13.65;51.65;1.00
DE;Germany;13.65;51.75;1.00
DE;Germany;13.65;51.85;1.00
DE;Germany;13.65;51.95;1.00
DE;Germany;13.65;52.05;1.00
DE;Germany;13.65;52.15;1.00
DE;Germany;13.65;52.25;1.00
DE;Germany;13.65;52.35;1.00
DE;Germany;13.65;52.45;1.00
DE;Germany;13.65;52.55;1.00
DE;Germany;13.65;52.65;1.00
DE;Germany;13.65;52.75;1.00
DE;Germany;13.65;52.85;1.00
DE;Germany;13.65;52.95;1.00
DE;Germany;13.65;53.05;1.00
DE;Germany;13.65;53.15;1.00
DE;Germany;13.65;53.25;1.00
DE;Germany;13.65;53.35;1.00
DE;Germany;13.65;53.45;1.00
DE;Germany;13.65;53.55;1.00
DE;Germany;13.65;53.65;1.00
DE;Germany;13.65;53.75;1.00
DE;Germany;13.65;53.85;1.00
DE;Germany;13.65;53.95;1.00
DE;Germany;13.65;54.05;1.00
DE;Germany;13.65;54.15;0.52
DE;Germany;13.65;54.25;0.05
DE;Germany;13.65;54.35;0.65
DE;Germany;13.65;54.45;0.02
DE;Germany;13.65;54.55;0.54
DE;Germany;13.75;48.55;0.52
DE;Germany;13.75;48.65;1.00
DE;Germany;13.75;48.75;0.99
DE;Germany;13.75;48.85;0.59
DE;Germany;13.75;50.75;0.75
DE;Germany;13.75;50.85;1.00
DE;Germany;13.75;50.95;1.00
DE;Germany;13.75;51.05;1.00
DE;Germany;13.75;51.15;1.00
DE;Germany;13.75;51.25;1.00
DE;Germany;13.75;51.35;1.00
DE;Germany;13.75;51.45;1.00
DE;Germany;13.75;51.55;1.00
DE;Germany;13.75;51.65;1.00
DE;Germany;13.75;51.75;1.00
DE;Germany;13.75;51.85;1.00
DE;Germany;13.75;51.95;1.00
DE;Germany;13.75;52.05;1.00
DE;Germany;13.75;52.15;1.00
DE;Germany;13.75;52.25;1.00
DE;Germany;13.75;52.35;1.00
DE;Germany;13.75;52.45;1.00
DE;Germany;13.75;52.55;1.00
DE;Germany;13.75;52.65;1.00
DE;Germany;13.75;52.75;1.00
DE;Germany;13.75;52.85;1.00
DE;Germany;13.75;52.95;1.00
DE;Germany;13.75;53.05;1.00
DE;Germany;13.75;53.15;1.00
DE;Germany;13.75;53.25;1.00
DE;Germany;13.75;53.35;1.00
DE;Germany;13.75;53.45;1.00
DE;Germany;13.75;53.55;1.00
DE;Germany;13.75;53.65;1.00
DE;Germany;13.75;53.75;1.00
DE;Germany;13.75;53.85;1.00
DE;Germany;13.75;53.95;1.00
DE;Germany;13.75;54.05;0.89
DE;Germany;13.75;54.15;0.53
DE;Germany;13.75;54.25;0.04
DE;Germany;13.75;54.35;0.21
DE;Germany;13.85;48.55;0.01
DE;Germany;13.85;48.65;0.17
DE;Germany;13.85;48.75;0.12
DE;Germany;13.85;48.85;0.01
DE;Germany;13.85;50.75;0.68
DE;Germany;13.85;50.85;1.00
DE;Germany;13.85;50.95;1.00
DE;Germany;13.85;51.05;1.00
DE;Germany;13.85;51.15;1.00
DE;Germany;13.85;51.25;1.00
DE;Germany;13.85;51.35;1.00
DE;Germany;13.85;51.45;1.00
DE;Germany;13.85;51.55;1.00
DE;Germany;13.85;51.65;1.00
DE;Germany;13.85;51.75;1.00
DE;Germany;13.85;51.85;1.00
DE;Germany;13.85;51.95;1.00
DE;Germany;13.85;52.05;1.00
DE;Germany;13.85;52.15;1.00
DE;Germany;13.85;52.25;1.00
DE;Germany;13.85;52.35;1.00
DE;Germany;13.85;52.45;1.00
DE;Germany;13.85;52.55;1.00
DE;Germany;13.85;52.65;1.00
DE;Germany;13.85;52.75;1.00
DE;Germany;13.85;52.85;1.00
DE;Germany;13.85;52.95;1.00
DE;Germany;13.85;53.05;1.00
DE;Germany;13.85;53.15;1.00
DE;Germany;13.85;53.25;1.00
DE;Germany;13.85;53.35;1.00
DE;Germany;13.85;53.45;1.00
DE;Germany;13.85;53.55;1.00
DE;Germany;13.85;53.65;1.00
DE;Germany;13.85;53.75;1.00
DE;Germany;13.85;53.85;0.73
DE;Germany;13.85;53.95;0.66
DE;Germany;13.85;54.05;0.70
DE;Germany;13.85;54.15;0.25
DE;Germany;13.95;50.75;0.08
DE;Germany;13.95;50.85;0.97
DE;Germany;13.95;50.95;1.00
DE;Germany;13.95;51.05;1.00
DE;Germany;13.95;51.15;1.00
DE;Germany;13.95;51.25;1.00
DE;Germany;13.95;51.35;1.00
DE;Germany;13.95;51.45;1.00
DE;Germany;13.95;51.55;1.00
DE;Germany;13.95;51.65;1.00
DE;Germany;13.95;51.75;1.00
DE;Germany;13.95;51.85;1.00
DE;Germany;13.95;51.95;1.00
DE;Germany;13.95;52.05;1.00
DE;Germany;13.95;52.15;1.00
DE;Germany;13.95;52.25;1.00
DE;Germany;13.95;52.35;1.00
DE;Germany;13.95;52.45;1.00
DE;Germany;13.95;52.55;1.00
DE;Germany;13.95;52.65;1.00
DE;Germany;13.95;52.75;1.00
DE;Germany;13.95;52.85;1.00
DE;Germany;13.95;52.95;1.00
DE;Germany;13.95;53.05;1.00
DE;Germany;13.95;53.15;1.00
DE;Germany;13.95;53.25;1.00
DE;Germany;13.95;53.35;1.00
DE;Germany;13.95;53.45;1.00
DE;Germany;13.95;53.55;1.00
DE;Germany;13.95;53.65;1.00
DE;Germany;13.95;53.75;0.85
DE;Germany;13.95;53.85;0.51
DE;Germany;13.95;53.95;0.63
DE;Germany;13.95;54.05;0.23
DE;Germany;13.95;54.25;0.01
DE;Germany;14.05;50.75;0.00
DE;Germany;14.05;50.85;0.94
DE;Germany;14.05;50.95;1.00
DE;Germany;14.05;51.05;1.00
DE;Germany;14.05;51.15;1.00
DE;Germany;14.05;51.25;1.00
DE;Germany;14.05;51.35;1.00
DE;Germany;14.05;51.45;1.00
DE;Germany;14.05;51.55;1.00
DE;Germany;14.05;51.65;1.00
DE;Germany;14.05;51.75;1.00
DE;Germany;14.05;51.85;1.00
DE;Germany;14.05;51.95;1.00
DE;Germany;14.05;52.05;1.00
DE;Germany;14.05;52.15;1.00
DE;Germany;14.05;52.25;1.00
DE;Germany;14.05;52.35;1.00
DE;Germany;14.05;52.45;1.00
DE;Germany;14.05;52.55;1.00
DE;Germany;14.05;52.65;1.00
DE;Germany;14.05;52.75;1.00
DE;Germany;14.05;52.85;1.00
DE;Germany;14.05;52.95;1.00
DE;Germany;14.05;53.05;1.00
DE;Germany;14.05;53.15;1.00
DE;Germany;14.05;53.25;1.00
DE;Germany;14.05;53.35;1.00
DE;Germany;14.05;53.45;1.00
DE;Germany;14.05;53.55;1.00
DE;Germany;14.05;53.65;1.00
DE;Germany;14.05;53.75;0.55
DE;Germany;14.05;53.85;0.31
DE;Germany;14.05;53.95;0.79
DE;Germany;14.05;54.05;0.24
DE;Germany;14.15;50.85;0.66
DE;Germany;14.15;50.95;1.00
DE;Germany;14.15;51.05;1.00
DE;Germany;14.15;51.15;1.00
DE;Germany;14.15;51.25;1.00
DE;Germany;14.15;51.35;1.00
DE;Germany;14.15;51.45;1.00
DE;Germany;14.15;51.55;1.00
DE;Germany;14.15;51.65;1.00
DE;Germany;14.15;51.75;1.00
DE;Germany;14.15;51.85;1.00
DE;Germany;14.15;51.95;1.00
DE;Germany;14.15;52.05;1.00
DE;Germany;14.15;52.15;1.00
DE;Germany;14.15;52.25;1.00
DE;Germany;14.15;52.35;1.00
DE;Germany;14.15;52.45;1.00
DE;Germany;14.15;52.55;1.00
DE;Germany;14.15;52.65;1.00
DE;Germany;14.15;52.75;1.00
DE;Germany;14.15;52.85;0.53
DE;Germany;14.15;52.95;0.60
DE;Germany;14.15;53.05;1.00
DE;Germany;14.15;53.15;1.00
DE;Germany;14.15;53.25;1.00
DE;Germany;14.15;53.35;1.00
DE;Germany;14.15;53.45;1.00
DE;Germany;14.15;53.55;1.00
DE;Germany;14.15;53.65;1.00
DE;Germany;14.15;53.75;0.40
DE;Germany;14.15;53.85;0.29
DE;Germany;14.15;53.95;0.69
DE;Germany;14.15;54.05;0.00
DE;Germany;14.25;50.85;0.28
DE;Germany;14.25;50.95;0.85
DE;Germany;14.25;51.05;0.87
DE;Germany;14.25;51.15;1.00
DE;Germany;14.25;51.25;1.00
DE;Germany;14.25;51.35;1.00
DE;Germany;14.25;51.45;1.00
DE;Germany;14.25;51.55;1.00
DE;Germany;14.25;51.65;1.00
DE;Germany;14.25;51.75;1.00
DE;Germany;14.25;51.85;1.00
DE;Germany;14.25;51.95;1.00
DE;Germany;14.25;52.05;1.00
DE;Germany;14.25;52.15;1.00
DE;Germany;14.25;52.25;1.00
DE;Germany;14.25;52.35;1.00
DE;Germany;14.25;52.45;1.00
DE;Germany;14.25;52.55;1.00
DE;Germany;14.25;52.65;1.00
DE;Germany;14.25;52.75;0.90
DE;Germany;14.25;52.85;0.06
DE;Germany;14.25;52.95;0.04
DE;Germany;14.25;53.05;0.93
DE;Germany;14.25;53.15;1.00
DE;Germany;14.25;53.25;1.00
DE;Germany;14.25;53.35;1.00
DE;Germany;14.25;53.45;1.00
DE;Germany;14.25;53.55;1.00
DE;Germany;14.25;53.65;0.86
DE;Germany;14.25;53.75;0.30
DE;Germany;14.25;53.85;0.05
DE;Germany;14.25;53.95;0.03
DE;Germany;14.35;50.85;0.12
DE;Germany;14.35;50.95;0.49
DE;Germany;14.35;51.05;0.76
DE;Germany;14.35;51.15;1.00
DE;Germany;14.35;51.25;1.00
DE;Germany;14.35;51.35;1.00
DE;Germany;14.35;51.45;1.00
DE;Germany;14.35;51.55;1.00
DE;Germany;14.35;51.65;1.00
DE;Germany;14.35;51.75;1.00
DE;Germany;14.35;51.85;1.00
DE;Germany;14.35;51.95;1.00
DE;Germany;14.35;52.05;1.00
DE;Germany;14.35;52.15;1.00
DE;Germany;14.35;52.25;1.00
DE;Germany;14.35;52.35;1.00
DE;Germany;14.35;52.45;1.00
DE;Germany;14.35;52.55;1.00
DE;Germany;14.35;52.65;1.00
DE;Germany;14.35;52.75;0.47
DE;Germany;14.35;53.05;0.34
DE;Germany;14.35;53.15;0.77
DE;Germany;14.35;53.25;0.98
DE;Germany;14.35;53.35;0.98
DE;Germany;14.35;53.45;0.70
DE;Germany;14.35;53.55;0.17
DE;Germany;14.35;53.65;0.04
DE;Germany;14.45;50.95;0.00
DE;Germany;14.45;51.05;0.77
DE;Germany;14.45;51.15;1.00
DE;Germany;14.45;51.25;1.00
DE;Germany;14.45;51.35;1.00
DE;Germany;14.45;51.45;1.00
DE;Germany;14.45;51.55;1.00
DE;Germany;14.45;51.65;1.00
DE;Germany;14.45;51.75;1.00
DE;Germany;14.45;51.85;1.00
DE;Germany;14.45;51.95;1.00
DE;Germany;14.45;52.05;1.00
DE;Germany;14.45;52.15;1.00
DE;Germany;14.45;52.25;1.00
DE;Germany;14.45;52.35;1.00
DE;Germany;14.45;52.45;1.00
DE;Germany;14.45;52.55;1.00
DE;Germany;14.45;52.65;0.75
DE;Germany;14.45;52.75;0.01
DE;Germany;14.45;53.25;0.25
DE;Germany;14.45;53.35;0.08
DE;Germany;14.55;50.95;0.15
DE;Germany;14.55;51.05;0.92
DE;Germany;14.55;51.15;1.00
DE;Germany;14.55;51.25;1.00
DE;Germany;14.55;51.35;1.00
DE;Germany;14.55;51.45;1.00
DE;Germany;14.55;51.55;1.00
DE;Germany;14.55;51.65;1.00
DE;Germany;14.55;51.75;1.00
DE;Germany;14.55;51.85;0.97
DE;Germany;14.55;51.95;1.00
DE;Germany;14.55;52.05;1.00
DE;Germany;14.55;52.15;1.00
DE;Germany;14.55;52.25;0.95
DE;Germany;14.55;52.35;0.56
DE;Germany;14.55;52.45;0.71
DE;Germany;14.55;52.55;1.00
DE;Germany;14.55;52.65;0.29
DE;Germany;14.65;50.85;0.44
DE;Germany;14.65;50.95;0.86
DE;Germany;14.65;51.05;1.00
DE;Germany;14.65;51.15;1.00
DE;Germany;14.65;51.25;1.00
DE;Germany;14.65;51.35;1.00
DE;Germany;14.65;51.45;1.00
DE;Germany;14.65;51.55;1.00
DE;Germany;14.65;51.65;1.00
DE;Germany;14.65;51.75;0.61
DE;Germany;14.65;51.85;0.22
DE;Germany;14.65;51.95;0.93
DE;Germany;14.65;52.05;1.00
DE;Germany;14.65;52.15;0.79
DE;Germany;14.65;52.25;0.60
DE;Germany;14.65;52.45;0.05
DE;Germany;14.65;52.55;0.16
DE;Germany;14.65;52.65;0.00
DE;Germany;14.75;50.85;0.70
DE;Germany;14.75;50.95;1.00
DE;Germany;14.75;51.05;1.00
DE;Germany;14.75;51.15;1.00
DE;Germany;14.75;51.25;1.00
DE;Germany;14.75;51.35;1.00
DE;Germany;14.75;51.45;1.00
DE;Germany;14.75;51.55;0.37
DE;Germany;14.75;51.65;0.33
DE;Germany;14.75;51.95;0.01
DE;Germany;14.75;52.05;0.23
DE;Germany;14.85;50.85;0.12
DE;Germany;14.85;50.95;0.81
DE;Germany;14.85;51.05;1.00
DE;Germany;14.85;51.15;1.00
DE;Germany;14.85;51.25;1.00
DE;Germany;14.85;51.35;1.00
DE;Germany;14.85;51.45;0.97
DE;Germany;14.85;51.55;0.03
DE;Germany;14.95;50.95;0.07
DE;Germany;14.95;51.05;0.53
DE;Germany;14.95;51.15;0.92
DE;Germany;14.95;51.25;1.00
DE;Germany;14.95;51.35;0.82
DE;Germany;14.95;51.45;0.49
DE;Germany;15.05;51.15;0.01
DE;Germany;15.05;51.25;0.27
DE;Germany;15.05;51.35;0.05
